,AreaName,District,PinCode,Latitude,Longitude,1st most common venue,2nd most common venue,3rd most common venue,4th most common venue,5th most common venue
0,10 Dwaraka Marg,South West District,110045,28.598530000000004,77.087924,Department Store,Bank,Science Museum,Gym,Fast Food Restaurant
1,10 Sector Dwarka,South West District,110075,28.590611,77.057569,Fast Food Restaurant,Café,Department Store,Indian Restaurant,Electronics Store
2,A1 Block Paschim Vihar Delhi,West District,110063,28.669306,77.09326499999999,Coffee Shop,Hotel,Food Truck,Indian Restaurant,Chinese Restaurant
3,Abul Fazal Enclave,South East Delhi District,110025,28.54637,77.30719899999998,Fast Food Restaurant,Market,Diner,Park,Hotel
4,Abul Fazal Enclave Jamia Nagar,South East Delhi District,110025,28.555496,77.297802,Indian Restaurant,Playground,Arcade,Yoga Studio,Food
5,Abul Fazal Enclave Part 2 New Delhi,South East Delhi District,110025,28.549208,77.299861,Indian Restaurant,Park,Market,Fast Food Restaurant,Flower Shop
6,Aerocity,New Delhi District,110037,28.552016000000005,77.121662,Hotel,Indian Restaurant,Spa,Bed & Breakfast,Hotel Bar
7,Akshardham,East District,110092,28.612331999999995,77.27833,Dessert Shop,Restaurant,Food & Drink Shop,Bus Station,North Indian Restaurant
8,Alaknanda,South East Delhi District,110019,28.52793899999998,77.25015400000001,Restaurant,Coffee Shop,Convenience Store,BBQ Joint,Market
9,Alaknanda Gangotri Enclave,South East Delhi District,110019,28.524452999999998,77.252141,BBQ Joint,Restaurant,Market,Thai Restaurant,Gym
10,Ambica Vihar,West District,110087,28.665092,77.080354,Furniture / Home Store,Asian Restaurant,Indian Restaurant,Mobile Phone Shop,Food
11,Anand Lok,South District,110049,28.557200999999996,77.218116,Stadium,Indian Restaurant,Bar,Spanish Restaurant,Other Great Outdoors
12,Anand Niketan,New Delhi District,110021,28.579844999999995,77.16459499999999,Café,Plaza,University,Snack Place,Bakery
13,Anand Vihar,Shahdara District,110092,28.652633000000005,77.311955,Indian Restaurant,Italian Restaurant,Café,Bus Station,Light Rail Station
14,Antriksh Bhawan,New Delhi District,110001,28.628720000000026,77.22285300000016,Indian Restaurant,Café,Chinese Restaurant,Coffee Shop,Hotel
15,Anupam Garden 10Th Lane,South District,110017,28.51413400000001,77.20850299999998,Coffee Shop,Pub,Falafel Restaurant,Mediterranean Restaurant,Park
16,Arjun Nagar,South District,110029,28.561887999999996,77.19800200000006,Indian Restaurant,Coffee Shop,Café,Restaurant,Bar
17,Ashirwad,West District,110059,28.622128,77.058429,Indian Restaurant,Train Station,Department Store,Bus Station,Bakery
18,Ashok Nagar,West District,110018,28.635974000000008,77.10159599999999,Indian Restaurant,Multiplex,Shopping Mall,Fast Food Restaurant,Donut Shop
19,Ashok Vihar,North West District,110052,28.691599999999998,77.167153,Athletics & Sports,Indian Restaurant,Dessert Shop,Market,Department Store
20,Ashok Vihar Phase-1,North West District,110052,28.691599999999998,77.167153,Athletics & Sports,Indian Restaurant,Dessert Shop,Market,Department Store
21,Ashram,South East Delhi District,110014,28.578916999999997,77.25944700000001,Hotel,Neighborhood,Gym / Fitness Center,Gym,Bakery
22,Aya Nagar,South District,110047,28.475084,77.133169,Hotel,Yoga Studio,Light Rail Station,Furniture / Home Store,Dim Sum Restaurant
23,Azad Apartments,South District,110016,28.542398000000016,77.20163000000001,Café,Indian Restaurant,Coffee Shop,Chinese Restaurant,Bar
24,B K Dutt Colony,South East Delhi District,110003,28.581665999999988,77.215914,Indian Restaurant,Japanese Restaurant,Athletics & Sports,Historic Site,Metro Station
25,B4 Block,North East District,110053,28.699916,77.266174,Weight Loss Center,Men's Store,Yoga Studio,Falafel Restaurant,Frozen Yogurt Shop
26,Babarpur,Shahdara District,110032,28.688691000000002,77.279249,Park,ATM,Ice Cream Shop,Motorcycle Shop,Chocolate Shop
27,Badarpur,South East Delhi District,110044,28.503488999999995,77.300538,Indian Restaurant,Train Station,Light Rail Station,Yoga Studio,Flower Shop
28,Bakkarwala,West District,110041,28.659125,77.016713,ATM,Garden,Frozen Yogurt Shop,Fried Chicken Joint,French Restaurant
29,Baldev Park East,East District,110051,28.647966,77.28896799999998,Dessert Shop,Arcade,Gym,Fast Food Restaurant,Bakery
30,Bali Nagar,West District,110015,28.65391499999999,77.12891799999996,Fast Food Restaurant,Pizza Place,Light Rail Station,Shopping Mall,Café
31,Baljeet Nagar,West District,110008,28.653045,77.15715,Train Station,Metro Station,Light Rail Station,Indian Restaurant,Movie Theater
32,Bamnoli,South West District,110077,28.545682,77.031618,Squash Court,Bank,Auto Garage,Yoga Studio,Farmers Market
33,Bamnoli Dwarka Sector 28,South West District,110045,28.596492,77.075086,Department Store,Hobby Shop,Indian Restaurant,Hotel,Flower Shop
34,Bamnoli Sector 28 Dwarka,South West District,110045,28.596492,77.075086,Department Store,Hobby Shop,Indian Restaurant,Hotel,Flower Shop
35,Bamnoli Village Delhi,South West District,110077,28.545682,77.031618,Squash Court,Bank,Auto Garage,Yoga Studio,Farmers Market
36,Bank Colony,Shahdara District,110093,28.70331,77.311683,Tourist Information Center,Print Shop,Yoga Studio,Fried Chicken Joint,French Restaurant
37,Bank Colony Deoli,South District,110062,28.500987,77.224467,Yoga Studio,Shopping Plaza,Chinese Restaurant,Electronics Store,ATM
38,Bank Enclave,East District,110031,28.642002,77.270898,Cupcake Shop,Dessert Shop,Indian Restaurant,Chinese Restaurant,Fast Food Restaurant
39,Baprola,West District,110043,28.641795,77.014447,ATM,Garden,Frozen Yogurt Shop,Fried Chicken Joint,French Restaurant
40,Batla House New Delhi,South East Delhi District,110025,28.567446,77.286619,Indian Restaurant,Coffee Shop,Asian Restaurant,Playground,Yoga Studio
41,Bees Sutri Harijan Basti,South District,110062,28.50522,77.197623,Italian Restaurant,Asian Restaurant,Mediterranean Restaurant,Pub,Indian Restaurant
42,Begampur Park,West District,110063,28.67366500000001,77.094644,Coffee Shop,Indian Restaurant,Hotel,Department Store,Food Truck
43,Ber Sarai,New Delhi District,110016,28.54940799999999,77.180933,Café,Indian Restaurant,Flea Market,Shopping Mall,History Museum
44,Bhagat Chandra Hospital,South West District,110045,28.593252,77.081135,Bar,Bank,Science Museum,Hobby Shop,Nightlife Spot
45,Bhagwati Garden,West District,110059,28.621219,77.033078,Metro Station,Asian Restaurant,Light Rail Station,Pizza Place,Yoga Studio
46,Bhagwati Garden Extension,West District,110059,28.625185,77.030035,Metro Station,Asian Restaurant,Light Rail Station,Pizza Place,Yoga Studio
47,Bhagwati Vihar,West District,110059,28.612684,77.06236,Mobile Phone Shop,ATM,Indian Restaurant,Falafel Restaurant,Frozen Yogurt Shop
48,Bharat Vihar,South West District,110078,28.607385,77.029196,Fried Chicken Joint,Grocery Store,Light Rail Station,Fast Food Restaurant,Yoga Studio
49,Bharthal,South West District,110077,28.544379,77.047411,Jewelry Store,Yoga Studio,Fabric Shop,Frozen Yogurt Shop,Fried Chicken Joint
50,Bhiwadi,,,28.63269399999995,77.21965999999998,Indian Restaurant,Café,Hotel,Chinese Restaurant,Bar
51,Bindapur,South West District,110059,28.610708999999996,77.068586,ATM,Indian Restaurant,Pool,Mobile Phone Shop,Flower Shop
52,Block A,West District,110018,28.644128000000013,77.10177799999998,Donut Shop,Multiplex,Restaurant,Shopping Mall,Fast Food Restaurant
53,Block A1 Chattarpur,South District,110074,28.494484,77.184047,Resort,Indian Restaurant,Pub,Farm,Restaurant
54,Block Ap Poorvi Pitampura,North West District,110034,28.703265999999996,77.140724,Indian Restaurant,Snack Place,Coffee Shop,Hotel,Farm
55,Block Gh5,New Delhi District,110077,28.572861,77.071862,Fast Food Restaurant,Light Rail Station,Train Station,Vegetarian / Vegan Restaurant,Yoga Studio
56,Block J,West District,110015,28.654793999999995,77.14639799999999,Fast Food Restaurant,Indian Restaurant,Café,Fried Chicken Joint,Sports Bar
57,Block J Rajouri Garden Extension,West District,110027,28.64008999999999,77.114278,Bakery,Fast Food Restaurant,BBQ Joint,Shopping Mall,Restaurant
58,Block Jp Poorvi Pitampura,North West District,110034,28.702801999999995,77.14598,Market,Snack Place,Sandwich Place,Arts & Crafts Store,Fast Food Restaurant
59,Block Ld Dakshini Pitampura,North West District,110034,28.69176,77.120353,Bar,Gym / Fitness Center,Fast Food Restaurant,Shopping Mall,Yoga Studio
60,Block Sd Delhi,North West District,110034,28.696568,77.14598100000003,Indian Restaurant,Shopping Mall,Snack Place,Pizza Place,Fast Food Restaurant
61,Block Uu Uttari Pitampura,North West District,110034,28.705857,77.13941,Indian Restaurant,Multiplex,Pizza Place,Shopping Mall,Coffee Shop
62,Budh Nagar,New Delhi District,110012,28.635105000000003,77.142724,Hotel,Arcade,Multiplex,Indian Restaurant,Sandwich Place
63,Budh Vihar,East District,110091,28.622737,77.313299,Park,Café,Resort,Gym,French Restaurant
64,Burari,Central District,110084,28.755099,77.199031,Café,Paper / Office Supplies Store,Yoga Studio,Frozen Yogurt Shop,Fried Chicken Joint
65,Burari Garhi,Central District,110084,28.755099,77.199031,Café,Paper / Office Supplies Store,Yoga Studio,Frozen Yogurt Shop,Fried Chicken Joint
66,C R Park,South East Delhi District,110019,28.54434100000001,77.253064,Fast Food Restaurant,Indian Restaurant,Market,Coffee Shop,Pizza Place
67,Ca Apartments,West District,110063,28.671059000000007,77.10286900000001,Indian Restaurant,ATM,Coffee Shop,Chinese Restaurant,Train Station
68,Cd Block Dakshini Pitampura,North West District,110034,28.69176,77.120353,Bar,Gym / Fitness Center,Fast Food Restaurant,Shopping Mall,Yoga Studio
69,Central Secretariat,New Delhi District,110001,28.61596599999999,77.21584299999996,Hotel,Indian Restaurant,History Museum,Cocktail Bar,Restaurant
70,Chandni Chowk,Central District,110006,28.65515900000002,77.23364500000001,Indian Restaurant,Fast Food Restaurant,Snack Place,Market,Hardware Store
71,Chandra Park,South West District,110078,28.610899,77.032639,Pizza Place,Fried Chicken Joint,Fast Food Restaurant,Grocery Store,Clothing Store
72,Chattarpur,South District,110030,28.48533,77.174925,ATM,Boutique,Antique Shop,Farm,Falafel Restaurant
73,Chattarpur Enclave,South District,110030,28.48533,77.174925,ATM,Boutique,Antique Shop,Farm,Falafel Restaurant
74,Chattarpur Enclave Phase 2,South District,110074,28.500421,77.18784700000002,Café,Food Truck,Resort,Pub,Indian Restaurant
75,Chhattarpur Enclave Phase1,South District,110074,28.500326,77.191784,Café,Food Truck,Resort,Pub,Indian Restaurant
76,Chhawla,South West District,110071,28.561283,77.002434,ATM,Garden,Frozen Yogurt Shop,Fried Chicken Joint,French Restaurant
77,Chirag Delhi,South District,110017,28.538589,77.228025,Pizza Place,Café,Men's Store,Trail,Fast Food Restaurant
78,Chirag Dilli,South District,110017,28.538589,77.228025,Pizza Place,Café,Men's Store,Trail,Fast Food Restaurant
79,Chitra Vihar,East District,110092,28.642648000000005,77.285919,Fast Food Restaurant,Arcade,Pizza Place,Light Rail Station,Dessert Shop
80,Chittaranjan Park,South East Delhi District,110019,28.538074999999992,77.24829899999995,Indian Restaurant,Restaurant,Asian Restaurant,Coffee Shop,Café
81,Civil Lines,Central District,110054,28.680644,77.21888,Light Rail Station,Indian Restaurant,Chinese Restaurant,Trail,Yoga Studio
82,Commercial Shop Indra Park,West District,110059,28.619936,77.068563,Indian Restaurant,Department Store,Light Rail Station,Food,Farm
83,Commercial Shop Karol Bagh,Central District,110005,28.652978999999995,77.192229,Indian Restaurant,Fast Food Restaurant,Snack Place,Dessert Shop,Coffee Shop
84,Commonwealth Games Village,East District,110092,28.615,77.273474,Hindu Temple,Convenience Store,North Indian Restaurant,Train Station,Athletics & Sports
85,Connaught Place,New Delhi District,110001,28.632734999999983,77.21969600000008,Indian Restaurant,Café,Hotel,Chinese Restaurant,Coffee Shop
86,D Block Lane,New Delhi District,110028,28.627061000000005,77.13996299999998,Hotel,Sandwich Place,Snack Place,Fast Food Restaurant,Arcade
87,D Block Vikaspuri,West District,110018,28.6336,77.0674,Indian Restaurant,Pizza Place,Café,Flea Market,Fast Food Restaurant
88,D3 Street,New Delhi District,110057,28.564080999999995,77.154981,Asian Restaurant,Speakeasy,Market,Gym,Tea Room
89,Dabri,South West District,110045,28.608799999999995,77.084165,Movie Theater,Grocery Store,Indian Restaurant,Chinese Restaurant,Yoga Studio
90,Daryaganj,Central District,110002,28.643996000000012,77.241073,Indian Restaurant,Hotel,Hostel,History Museum,Flea Market
91,Dcm School Marg,West District,110008,28.649655999999997,77.16419599999998,Hotel,Movie Theater,Bakery,Café,Metro Station
92,Dda Flat,South District,110017,28.526149999999983,77.22153700000005,Indian Restaurant,Bar,Clothing Store,Café,Hotel
93,Dda Flats,New Delhi District,110058,28.606942,77.107619,Market,Indian Restaurant,Train Station,Coffee Shop,French Restaurant
94,Deepali,North West District,110034,28.69469400000001,77.11849400000001,Pizza Place,Shopping Mall,Fast Food Restaurant,Multiplex,Sandwich Place
95,Defence Colony,South East Delhi District,110024,28.573199000000013,77.23279499999992,Indian Restaurant,Italian Restaurant,Café,Sandwich Place,Pizza Place
96,Defence Colony Flyover,South East Delhi District,110024,28.573199000000013,77.23279499999992,Indian Restaurant,Italian Restaurant,Café,Sandwich Place,Pizza Place
97,Delhi,New Delhi District,,28.63269399999995,77.21965999999998,Indian Restaurant,Café,Hotel,Chinese Restaurant,Bar
98,Delhi Apartments,West District,110078,28.603676,77.054309,Café,Cocktail Bar,Chinese Restaurant,Fast Food Restaurant,Pizza Place
99,Delhi Cantonment,New Delhi District,,28.584669,77.133538,Historic Site,Business Service,Restaurant,Cocktail Bar,Flower Shop
100,Delhi Cantt,New Delhi District,110010,28.596475,77.13247,Café,Coffee Shop,Shopping Mall,Cafeteria,Yoga Studio
101,Deoli Gaon Nai Basti,South District,110062,28.505528000000005,77.234013,ATM,Indian Restaurant,Electronics Store,Trail,Athletics & Sports
102,Deoli Khanpur,South District,110062,28.509519,77.230424,Indian Restaurant,Plaza,Trail,Café,Yoga Studio
103,Derawal Nagar,North District,110009,28.699641999999994,77.190193,Pizza Place,Food Truck,Coffee Shop,Bakery,Bank
104,Desh Bandhu Gupta Marg,Central District,110005,28.652156999999992,77.19424899999996,Indian Restaurant,Fast Food Restaurant,Dessert Shop,Coffee Shop,Snack Place
105,Devli,South District,110062,28.503704,77.23216,ATM,Trail,Electronics Store,Athletics & Sports,French Restaurant
106,Devli Export Enclave,South District,110062,28.503704,77.23216,ATM,Trail,Electronics Store,Athletics & Sports,French Restaurant
107,Devli Extention,South District,110062,28.503704,77.23216,ATM,Trail,Electronics Store,Athletics & Sports,French Restaurant
108,Devli Extention Deoli Gaon Nai Basti,South District,110062,28.505528000000005,77.234013,ATM,Indian Restaurant,Electronics Store,Trail,Athletics & Sports
109,Devli Nai Basti,South District,110062,28.505528000000005,77.234013,ATM,Indian Restaurant,Electronics Store,Trail,Athletics & Sports
110,Dhul Siras,South West District,110077,28.549419,77.03127,Squash Court,Bank,Auto Garage,Yoga Studio,Farmers Market
111,Dilshad Colony,Shahdara District,110095,28.6884,77.326317,Fast Food Restaurant,Business Service,BBQ Joint,Electronics Store,Video Game Store
112,Dilshad Colony New Simapuri,Shahdara District,110095,28.6884,77.326317,Fast Food Restaurant,Business Service,BBQ Joint,Electronics Store,Video Game Store
113,Dilshad Garden,Shahdara District,110095,28.682157,77.319274,Pizza Place,Diner,Light Rail Station,Metro Station,Indian Restaurant
114,Dlf Ankur Vihar,South District,110049,28.552668000000015,77.21323100000004,Coffee Shop,Indian Restaurant,Bar,Stadium,Chinese Restaurant
115,Dlf Phase 5,West District,110059,28.628810999999995,77.049516,ATM,Train Station,Bookstore,Health & Beauty Service,Indian Restaurant
116,Dps Matiyala,West District,110059,28.612464999999997,77.04412,Indian Restaurant,Pet Store,Convenience Store,IT Services,Clothing Store
117,Dr Ambedkar Colony,South District,110030,28.505209999999998,77.18013299999998,Café,Japanese Restaurant,Arts & Crafts Store,Indian Restaurant,Hotel
118,Duggal Colony,South District,110062,28.510371,77.230325,Indian Restaurant,Plaza,Trail,Café,Yoga Studio
119,Duggal Housing Complex,South District,110062,28.512932999999997,77.228906,Flea Market,Indian Restaurant,Plaza,Trail,Pharmacy
120,Durga Vihar New Delhi,South West District,110043,28.594923,76.984881,Restaurant,Yoga Studio,Fabric Shop,Frozen Yogurt Shop,Fried Chicken Joint
121,Dwarka 10 Sector,South West District,110075,28.590611,77.057569,Fast Food Restaurant,Café,Department Store,Indian Restaurant,Electronics Store
122,Dwarka 11 Sector,South West District,110075,28.589461000000014,77.05004699999998,Indian Restaurant,Fast Food Restaurant,Café,Pizza Place,Department Store
123,Dwarka 29 Sector,South West District,110075,28.57616000000001,77.05091600000002,Hotel,Asian Restaurant,Electronics Store,Shopping Mall,Light Rail Station
124,Dwarka 8 Sector,South West District,110077,28.575747,77.073874,Indian Restaurant,Fast Food Restaurant,Vegetarian / Vegan Restaurant,Train Station,Yoga Studio
125,Dwarka Flyover,South West District,110075,28.592907,77.079503,Bank,Gym,Fast Food Restaurant,Hobby Shop,Yoga Studio
126,Dwarka Mor,South West District,110059,28.618973,77.031514,Metro Station,Asian Restaurant,Light Rail Station,Pizza Place,Yoga Studio
127,Dwarka More,South West District,110059,28.618973,77.031514,Metro Station,Asian Restaurant,Light Rail Station,Pizza Place,Yoga Studio
128,Dwarka More Mohan Garden,West District,110059,28.636866,77.037293,ATM,Indian Restaurant,IT Services,Fabric Shop,Fried Chicken Joint
129,Dwarka New Delhi 110075,South West District,110075,28.575835,77.043334,Garden Center,Gift Shop,Falafel Restaurant,Frozen Yogurt Shop,Fried Chicken Joint
130,Dwarka Sec 21,New Delhi District,110077,28.558233,77.0688,Hotel,Food,Bar,Light Rail Station,Pizza Place
131,Dwarka Sec 23,South West District,110077,28.566949,77.055135,Pizza Place,Shopping Mall,Park,Bed & Breakfast,Yoga Studio
132,Dwarka Sec 6,South West District,110075,28.593060000000005,77.06568600000001,Fast Food Restaurant,Coffee Shop,Gym,Indian Restaurant,Hobby Shop
133,Dwarka Sec3,New Delhi District,110077,28.56448,77.055066,Pizza Place,Shopping Mall,Yoga Studio,Fabric Shop,Fried Chicken Joint
134,Dwarka Sec6 Market,South West District,110075,28.590629000000003,77.057679,Fast Food Restaurant,Café,Department Store,Indian Restaurant,Electronics Store
135,Dwarka Sector 11 Pocket 3,South West District,110075,28.585082,77.047071,Indian Restaurant,Department Store,American Restaurant,Shopping Mall,Market
136,Dwarka Sector 11 Pocket 4,South West District,110075,28.587675999999995,77.043674,Indian Restaurant,Department Store,American Restaurant,Grocery Store,Shopping Mall
137,Dwarka Sector 12,South West District,110078,28.59467199999999,77.042238,Indian Restaurant,Café,Pizza Place,Fast Food Restaurant,Market
138,Dwarka Sector 12 Pocket 4,South West District,110078,28.595862000000007,77.04379500000002,Café,Fast Food Restaurant,Pizza Place,Chinese Restaurant,Indian Restaurant
139,Dwarka Sector 12 Pocket 6,South West District,110078,28.592126000000004,77.04464699999997,Indian Restaurant,Restaurant,Shopping Mall,Café,Pizza Place
140,Dwarka Sector 13,South West District,110078,28.599382999999992,77.03614600000002,Indian Restaurant,Fast Food Restaurant,Fried Chicken Joint,Light Rail Station,Bakery
141,Dwarka Sector 15,South West District,110078,28.606782,77.023576,Metro Station,Fast Food Restaurant,Diner,Light Rail Station,Food
142,Dwarka Sector 17,South West District,110078,28.591822999999994,77.02804400000001,Clothing Store,Restaurant,Bakery,Electronics Store,Indian Restaurant
143,Dwarka Sector 19,South West District,110075,28.576972000000005,77.053127,Hotel,Electronics Store,Shopping Mall,Light Rail Station,Yoga Studio
144,Dwarka Sector 23 Pocket 1,New Delhi District,110077,28.56448,77.055066,Pizza Place,Shopping Mall,Yoga Studio,Fabric Shop,Fried Chicken Joint
145,Dwarka Sector 25,South West District,110077,28.555590999999996,77.054558,Pizza Place,Light Rail Station,Shopping Mall,Platform,Hotel
146,Dwarka Sector 7,South West District,110075,28.593440999999995,77.072453,Fast Food Restaurant,Hobby Shop,Ice Cream Shop,Gym,Yoga Studio
147,Dwarka Sector 9,South West District,110077,28.57934,77.065129,Hotel,Fast Food Restaurant,Electronics Store,Light Rail Station,Indian Restaurant
148,Dwarka Sector3,New Delhi District,110001,28.636282000000023,77.20718600000005,Hotel,Indian Restaurant,Snack Place,Light Rail Station,Café
149,Dwarka Sub City,South West District,110045,28.597807,77.073263,Nightlife Spot,Science Museum,Pool,Hobby Shop,Yoga Studio
150,E 2 Vasant Kunj,South District,110070,28.514980000000005,77.15324499999998,Gym / Fitness Center,Chinese Restaurant,Italian Restaurant,Park,Fried Chicken Joint
151,E Block Preet Vihar,East District,110092,28.638922999999995,77.29774299999998,Fast Food Restaurant,Yoga Studio,Arcade,Pizza Place,Chinese Restaurant
152,East Delhi,East District,,28.635928999999994,77.28582700000001,Arcade,Shopping Mall,Pizza Place,Dessert Shop,Mediterranean Restaurant
153,East Of Kailash,South East Delhi District,110065,28.555346000000014,77.24798700000007,Fast Food Restaurant,Coffee Shop,Bar,Restaurant,Pizza Place
154,East Patel Nagar,West District,110005,28.64771499999999,77.17400100000003,Indian Restaurant,Pizza Place,Hotel,Fast Food Restaurant,Park
155,Epdp Colony,South East Delhi District,110003,28.583716999999986,77.224496,Indian Restaurant,Modern European Restaurant,Athletics & Sports,Chinese Restaurant,Diner
156,Experion Heartsong,New Delhi District,110010,28.596475,77.13247,Café,Coffee Shop,Shopping Mall,Cafeteria,Yoga Studio
157,Fajalpur Village,East District,110092,28.624655,77.28918399999999,Dessert Shop,Park,Moving Target,Garden,Gym
158,Fateh Nagar,West District,110018,28.630859999999988,77.10161200000002,Indian Restaurant,Ice Cream Shop,Indian Sweet Shop,Metro Station,Fried Chicken Joint
159,Fatehpurberi,New Delhi District,,28.63269399999995,77.21965999999998,Indian Restaurant,Café,Hotel,Chinese Restaurant,Bar
160,Freedom Fighter Enclave,South District,110068,28.509987,77.19899,Coffee Shop,Italian Restaurant,Pub,Café,Mediterranean Restaurant
161,Freedom Fighter Vihar,South District,110068,28.510955000000003,77.20206199999998,Coffee Shop,Italian Restaurant,Asian Restaurant,Café,Garden
162,Freedom Fighters Enclave,South District,110068,28.510955000000003,77.20206199999998,Coffee Shop,Italian Restaurant,Asian Restaurant,Café,Garden
163,Gagan Vihar,East District,110051,28.644681999999992,77.292236,Fast Food Restaurant,Pizza Place,Yoga Studio,Arcade,Shopping Mall
164,Ganesh Nagar,West District,110018,28.63549699999999,77.08923200000001,Café,Fast Food Restaurant,Chinese Restaurant,Light Rail Station,Music Store
165,Gautam Nagar,South District,110049,28.561381999999988,77.21163099999998,Café,Chinese Restaurant,Hotel,Bar,Clothing Store
166,Gazipur,East District,110096,28.633402999999994,77.318143,Movie Theater,Pizza Place,Multiplex,Café,Hotel
167,Geeta Colony,Shahdara District,110031,28.652544000000002,77.27594699999999,Pizza Place,ATM,Dessert Shop,Snack Place,Burger Joint
168,Geetanjali Enclave,South District,110017,28.530190999999974,77.20199099999995,Pizza Place,Coffee Shop,Indian Restaurant,Café,Hotel
169,Gharoli,East District,110096,28.620359,77.334202,ATM,Diner,Pizza Place,Business Service,Farm
170,Gharoli Dairy Farm,East District,110096,28.612945000000003,77.332072,ATM,Pizza Place,Diner,Restaurant,Hotel
171,Ghitorni,New Delhi District,110030,28.500863,77.131536,Lighting Store,Shopping Mall,Yoga Studio,Fabric Shop,Fried Chicken Joint
172,Ghitorni Village South Delhi,New Delhi District,110030,28.492572,77.14537900000002,Furniture / Home Store,Hotel,Sandwich Place,Pizza Place,Bakery
173,Godavari Apartments,South East Delhi District,110019,28.52651600000001,77.25343199999999,Restaurant,BBQ Joint,Convenience Store,Food & Drink Shop,Market
174,Golf Links,New Delhi District,110003,28.597260999999953,77.23118400000011,Café,Coffee Shop,Chinese Restaurant,Restaurant,Bar
175,Govind Puri,South East Delhi District,110019,28.535546000000004,77.26403900000001,Fast Food Restaurant,Pizza Place,Food Truck,Convenience Store,Gym
176,Govindpura,East District,110051,28.645781,77.28488700000001,Arcade,Pizza Place,Dessert Shop,Food Court,Gift Shop
177,Govindpura Old,East District,110051,28.645439000000007,77.285121,Arcade,Gift Shop,Dessert Shop,Food Court,Shopping Mall
178,Govindpuri,South East Delhi District,110019,28.535546000000004,77.26403900000001,Fast Food Restaurant,Pizza Place,Food Truck,Convenience Store,Gym
179,Govindpuri Extension New Delhi,South East Delhi District,110019,28.534116999999995,77.258786,Restaurant,Indian Restaurant,Fast Food Restaurant,Market,Food & Drink Shop
180,Greater Kailash,South East Delhi District,110048,28.553460000000022,77.24258100000003,Coffee Shop,Indian Restaurant,Bar,Café,Fast Food Restaurant
181,Greater Kailash 1,South East Delhi District,110048,28.548714000000015,77.23610199999993,Indian Restaurant,Café,Hotel,Market,Bakery
182,Greater Kailash Enclave Ii,South East Delhi District,110048,28.539217,77.23854699999995,Restaurant,Asian Restaurant,Café,Indian Restaurant,Coffee Shop
183,Greater Kailash Ii,South East Delhi District,110048,28.534883000000015,77.241845,Café,Indian Restaurant,BBQ Joint,Coffee Shop,Restaurant
184,Green Park,South District,110016,28.556856,77.20360400000004,Indian Restaurant,Coffee Shop,Café,Bar,Restaurant
185,Gujranwala Town,West District,110018,28.638975,77.08086000000002,Clothing Store,BBQ Joint,Coffee Shop,Metro Station,Chinese Restaurant
186,Gulab Bagh,East District,110092,28.63636500000001,77.28514399999997,Arcade,Shopping Mall,Pizza Place,Dessert Shop,Mediterranean Restaurant
187,Gulabhi Bagh Om Vihar,West District,110059,28.626044000000004,77.05264,ATM,Train Station,Bakery,Mobile Phone Shop,Department Store
188,Gulmohar Enclave,South District,110049,28.558254000000012,77.21039199999997,Coffee Shop,Indian Restaurant,Café,Pizza Place,Bar
189,Gulmohar Park,South District,110049,28.556302999999982,77.213521,Indian Restaurant,Coffee Shop,Stadium,Bar,Park
190,Guru Angad Nagar,South East Delhi District,110019,28.54934500000001,77.25394599999997,Indian Restaurant,Coffee Shop,Fast Food Restaurant,Hotel,Japanese Restaurant
191,Guru Ram Das Nagar,North District,110007,28.687432,77.19860799999998,Coffee Shop,Café,Breakfast Spot,Fast Food Restaurant,Indian Restaurant
192,Hari Nagar,West District,110064,28.624510999999995,77.111014,Furniture / Home Store,Soup Place,Arcade,Stadium,Hotel
193,Hastsal,West District,110059,28.636428999999996,77.060879,Café,Market,Flea Market,Indian Restaurant,Fast Food Restaurant
194,Hauz Khas,South District,110016,28.549648000000005,77.20774799999994,Coffee Shop,Indian Restaurant,Chinese Restaurant,Bar,Lounge
195,Hauz Khas Enclave,South District,110016,28.548088000000003,77.20364000000002,Coffee Shop,Indian Restaurant,Pizza Place,Café,Sandwich Place
196,Hauz Rani,South District,110017,28.52897699999998,77.20939999999997,Indian Restaurant,Café,Coffee Shop,Clothing Store,Donut Shop
197,Hill View,New Delhi District,110010,28.575996,77.123512,History Museum,Cricket Ground,Playground,Australian Restaurant,Yoga Studio
198,I P Extension Patparganj,East District,110091,28.61211700000001,77.291734,Indian Restaurant,Garden,Light Rail Station,Dessert Shop,Coffee Shop
199,Igi Airport,New Delhi District,110037,28.555013000000002,77.08437000000002,Airport Lounge,Coffee Shop,Airport Service,Restaurant,Café
200,Inder Enclave,North West District,110086,28.70528,77.0464,ATM,Garden,Frozen Yogurt Shop,Fried Chicken Joint,French Restaurant
201,Inderpuri,New Delhi District,110012,28.631922,77.147498,Hotel,Arcade,Multiplex,Indian Restaurant,Sandwich Place
202,Indraprastha,New Delhi District,110013,28.61453,77.25155600000001,Historic Site,Light Rail Station,Museum,Café,Art Museum
203,Ip Extension,East District,110092,28.629337,77.302631,Dessert Shop,Market,Sandwich Place,Park,Food
204,Ishwar Nagar,South East Delhi District,110065,28.559345000000004,77.26795599999998,Café,Indian Restaurant,Hotel,Pizza Place,Electronics Store
205,Jagdamba Vihar,South West District,110046,28.60105,77.095706,Sporting Goods Shop,Indian Restaurant,Juice Bar,Food,Farm
206,Jagriti Enclave Shreshtha Vihar,Shahdara District,110092,28.655879,77.316371,Italian Restaurant,Plaza,Track,Café,Bar
207,Jahangir Puri,North District,110033,28.72562,77.182357,Indian Restaurant,Electronics Store,Golf Course,Café,Yoga Studio
208,Jain Colony,Central District,110007,28.685289000000004,77.194123,Breakfast Spot,Cheese Shop,Miscellaneous Shop,Playground,Asian Restaurant
209,Jaitpur,South East Delhi District,110044,28.50552,77.327316,Clothing Store,Yoga Studio,Fabric Shop,Frozen Yogurt Shop,Fried Chicken Joint
210,Jamia Nagar,South East Delhi District,110025,28.560838999999994,77.28141900000001,Boat or Ferry,Pharmacy,Athletics & Sports,Indian Restaurant,Gym / Fitness Center
211,Janakpuri,West District,110058,28.621667,77.088521,Café,Clothing Store,Gym,Fast Food Restaurant,Department Store
212,Janakpuri B1 Market,West District,110058,28.62899600000002,77.09133300000003,Fast Food Restaurant,Café,Indian Restaurant,Metro Station,Indian Sweet Shop
213,Jangpura,South East Delhi District,110014,28.585417,77.24602200000001,Train Station,BBQ Joint,Indian Restaurant,Metro Station,Café
214,Jangpura Extension,South East Delhi District,110014,28.58121899999999,77.24240299999998,Fast Food Restaurant,Indian Restaurant,Metro Station,Market,BBQ Joint
215,Jasola,South East Delhi District,110025,28.54253599999999,77.29805899999998,Indian Restaurant,Market,Bank,Soccer Stadium,Soccer Field
216,Jasola Sector 8,South East Delhi District,110025,28.544643,77.296658,Indian Restaurant,Market,Bank,Soccer Stadium,Soccer Field
217,Jawahar Park,South District,110062,28.507696,77.23062,Indian Restaurant,Plaza,Trail,Café,Yoga Studio
218,Jor Bagh,South East Delhi District,110003,28.588307999999994,77.21383000000002,Indian Restaurant,Metro Station,Bakery,Italian Restaurant,Airport
219,Kailash Colony,South District,110048,28.554172999999995,77.24069000000006,Indian Restaurant,Café,Market,Coffee Shop,Bakery
220,Kailash Hills,South East Delhi District,110065,28.55478700000001,77.24676899999996,Fast Food Restaurant,Bar,Coffee Shop,Indian Restaurant,Plaza
221,Kakrola,South West District,110078,28.608126,77.018272,Metro Station,Shopping Mall,Light Rail Station,Leather Goods Store,Flea Market
222,Kalkaji,South East Delhi District,110019,28.541421000000007,77.25574699999999,Fast Food Restaurant,Market,Indian Restaurant,Coffee Shop,Light Rail Station
223,Kalkaji Extension,South East Delhi District,110019,28.541421000000007,77.25574699999999,Fast Food Restaurant,Market,Indian Restaurant,Coffee Shop,Light Rail Station
224,Kalkaji Flyover,South East Delhi District,110019,28.541421000000007,77.25574699999999,Fast Food Restaurant,Market,Indian Restaurant,Coffee Shop,Light Rail Station
225,Kalkaji Govindpuri,South East Delhi District,110019,28.535546000000004,77.26403900000001,Fast Food Restaurant,Pizza Place,Food Truck,Convenience Store,Gym
226,Kalkaji Main,South East Delhi District,110019,28.541421000000007,77.25574699999999,Fast Food Restaurant,Market,Indian Restaurant,Coffee Shop,Light Rail Station
227,Kalu Sarai,South District,110016,28.539457999999996,77.19956600000002,Café,Indian Restaurant,Chinese Restaurant,Coffee Shop,Italian Restaurant
228,Kalyan Vihar,North District,110009,28.69104700000001,77.197438,Café,Coffee Shop,Fast Food Restaurant,North Indian Restaurant,Bakery
229,Kamla Nagar,Central District,110007,28.682824999999987,77.20362700000004,Fast Food Restaurant,Breakfast Spot,Chinese Restaurant,Indian Restaurant,Pizza Place
230,Kanjhawla,New Delhi District,,28.63269399999995,77.21965999999998,Indian Restaurant,Café,Hotel,Chinese Restaurant,Bar
231,Kapas Hera Estate,New Delhi District,110021,28.594804000000003,77.19813700000002,Indian Restaurant,Nightclub,History Museum,Recreation Center,Mediterranean Restaurant
232,Kapas Hera Extension,New Delhi District,110021,28.594804000000003,77.19813700000002,Indian Restaurant,Nightclub,History Museum,Recreation Center,Mediterranean Restaurant
233,Kapashera,New Delhi District,110097,28.527669,77.076869,Hotel,Farm,Water Park,Yoga Studio,Food
234,Karampura,West District,110015,28.664786000000003,77.14742299999999,Café,Shopping Mall,Indian Restaurant,Cafeteria,Fast Food Restaurant
235,Karampura West,West District,110015,28.664786000000003,77.14742299999999,Café,Shopping Mall,Indian Restaurant,Cafeteria,Fast Food Restaurant
236,Karawal Nagar,North East District,110094,28.725454000000006,77.268624,Bus Station,ATM,Motorcycle Shop,Electronics Store,Shopping Mall
237,Karkardooma,Shahdara District,110092,28.649875000000005,77.302592,Indian Restaurant,Shopping Mall,Pizza Place,Yoga Studio,Café
238,Karol Bagh,Central District,110005,28.652978999999995,77.192229,Indian Restaurant,Fast Food Restaurant,Snack Place,Dessert Shop,Coffee Shop
239,Katwaria Sarai,South District,110016,28.539874000000005,77.18800799999998,Restaurant,Indian Restaurant,Café,Food Truck,Record Shop
240,Kaushambi,,,28.63269399999995,77.21965999999998,Indian Restaurant,Café,Hotel,Chinese Restaurant,Bar
241,Keshavpuram,North West District,110035,28.688038999999996,77.16071,Indian Restaurant,Department Store,Train Station,Fast Food Restaurant,Shopping Mall
242,Khanpur,South District,110062,28.509519,77.230424,Indian Restaurant,Plaza,Trail,Café,Yoga Studio
243,Khanpur Colony,South District,110062,28.509519,77.230424,Indian Restaurant,Plaza,Trail,Café,Yoga Studio
244,Khanpur Deoli,South District,110062,28.509519,77.230424,Indian Restaurant,Plaza,Trail,Café,Yoga Studio
245,Khanpur Dhani,North East District,110094,28.709851,77.279332,ATM,Pizza Place,Bank,Astrologer,Diner
246,Khanpur Krishna Park,South District,110062,28.509358,77.232441,Indian Restaurant,Plaza,Trail,Café,Yoga Studio
247,Khari Baoli,Central District,110006,28.657404000000003,77.22294400000004,Indian Restaurant,Snack Place,Dessert Shop,Fast Food Restaurant,Market
248,Khirki Extension,South District,110017,28.532780999999932,77.217764,Indian Restaurant,Coffee Shop,Clothing Store,Café,Bar
249,Khushi Ram Park Param Puri,West District,110059,28.616920999999998,77.051712,Indian Restaurant,Paper / Office Supplies Store,Train Station,Astrologer,Café
250,Kiran Garden,West District,110059,28.619453,77.046439,Indian Restaurant,Motorcycle Shop,Café,Train Station,Yoga Studio
251,Kirti Nagar,West District,110015,28.650520000000007,77.142426,Furniture / Home Store,Donut Shop,Fried Chicken Joint,Sports Bar,Fast Food Restaurant
252,Kishangarh Village New Delhi,New Delhi District,,28.63269399999995,77.21965999999998,Indian Restaurant,Café,Hotel,Chinese Restaurant,Bar
253,Kondali Main,East District,110096,28.614001,77.324394,ATM,Restaurant,Pharmacy,Fabric Shop,Fried Chicken Joint
254,Kota House Entrance,New Delhi District,110011,28.606086999999945,77.225119,Café,Indian Restaurant,Chinese Restaurant,Coffee Shop,Restaurant
255,Kotla Mubarakpur,South East Delhi District,110003,28.573135999999984,77.22332300000002,Indian Restaurant,Coffee Shop,Italian Restaurant,Market,Pizza Place
256,Krishan Kunj,North East District,110053,28.700958,77.278916,Weight Loss Center,Pizza Place,Yoga Studio,Fabric Shop,Fried Chicken Joint
257,Krishna Nagar,Shahdara District,110051,28.65846,77.283538,Pizza Place,Ice Cream Shop,Bakery,Yoga Studio,Farmers Market
258,Krishna Park Jawahar Park,South District,110062,28.509358,77.232441,Indian Restaurant,Plaza,Trail,Café,Yoga Studio
259,Kundli,North West District,110034,28.698010000000007,77.12015700000002,Fast Food Restaurant,Pizza Place,Shopping Mall,Sandwich Place,Clothing Store
260,L Zone Delhi,West District,110027,28.636125999999994,77.11216599999995,Indian Restaurant,Fast Food Restaurant,Bakery,Coffee Shop,Donut Shop
261,L Zone Dwarka Phase 2 Delhi,South West District,110078,28.613626,77.019343,Metro Station,Leather Goods Store,Asian Restaurant,Cosmetics Shop,Electronics Store
262,Lajpat Nagar,South East Delhi District,110024,28.576061999999986,77.24156099999998,Fast Food Restaurant,Sandwich Place,Indie Movie Theater,Coffee Shop,Indian Restaurant
263,Lajpat Nagar Ii,South East Delhi District,110024,28.569781,77.24230200000007,Indian Restaurant,Café,Coffee Shop,Fast Food Restaurant,Donut Shop
264,Lajpat Nagar Iii,South East Delhi District,110024,28.56725600000002,77.23910699999998,Indian Restaurant,Café,Coffee Shop,Market,Pizza Place
265,Lajpat Nagar Iv,South East Delhi District,110024,28.562979999999992,77.24074599999996,Indian Restaurant,Café,Fast Food Restaurant,Coffee Shop,Market
266,Lalita Park,East District,110092,28.630145,77.274076,Coffee Shop,River,Gym,Shopping Mall,IT Services
267,Lalita Park Foot Over Bridge,East District,110092,28.631705000000004,77.27074700000001,Light Rail Station,River,Gym,IT Services,Shopping Mall
268,Laxmi Nagar,East District,110092,28.635201999999996,77.28320800000003,Shopping Mall,Dessert Shop,Arcade,Fast Food Restaurant,Gym
269,Lig Flats,West District,110059,28.634795,77.06070999999999,Café,Market,Flea Market,Indian Restaurant,Fast Food Restaurant
270,Lodhi Colony,South East Delhi District,110003,28.583716999999986,77.224496,Indian Restaurant,Modern European Restaurant,Athletics & Sports,Chinese Restaurant,Diner
271,Loknayak Puram,West District,110041,28.663064,77.010044,ATM,Garden,Frozen Yogurt Shop,Fried Chicken Joint,French Restaurant
272,Loni,Shahdara District,110032,28.687996,77.291986,Park,Indian Restaurant,Pizza Place,Yoga Studio,French Restaurant
273,Madangir,South District,110062,28.519653999999996,77.228583,Flea Market,Indian Restaurant,Plaza,Sandwich Place,Pharmacy
274,Madhu Vihar,South West District,110059,28.601680999999992,77.059258,Fast Food Restaurant,Pizza Place,Indian Restaurant,Chinese Restaurant,Restaurant
275,Maharani Bagh,South East Delhi District,110065,28.573233000000002,77.26529600000002,Hotel,Neighborhood,Gym / Fitness Center,Gym,Bakery
276,Mahaveer Nagar Kotla Mubarakpur,South East Delhi District,110003,28.575093000000017,77.22603399999997,Indian Restaurant,Coffee Shop,Italian Restaurant,Market,Sandwich Place
277,Mahavir Enclave,South West District,110045,28.596709,77.08236,Bar,Fast Food Restaurant,Department Store,Indian Restaurant,Science Museum
278,Mahavir Enclave Bengali Colony,South West District,110045,28.596709,77.08236,Bar,Fast Food Restaurant,Department Store,Indian Restaurant,Science Museum
279,Mahipalpur,New Delhi District,110037,28.545271999999983,77.12948499999997,Hotel,Spa,Hotel Bar,Light Rail Station,Plaza
280,Mahipalpur Extension,New Delhi District,110037,28.545271999999983,77.12948499999997,Hotel,Spa,Hotel Bar,Light Rail Station,Plaza
281,Mahrauli,South East Delhi District,110044,28.500353,77.301768,Train Station,Indian Restaurant,Light Rail Station,Yoga Studio,Flower Shop
282,Malka Ganj,Central District,110007,28.675838,77.20548499999997,Breakfast Spot,Fast Food Restaurant,Pizza Place,Indian Restaurant,Café
283,Malviya Nagar,South District,110017,28.534883000000015,77.21024500000007,Coffee Shop,Café,Indian Restaurant,American Restaurant,Asian Restaurant
284,Mandakini Enclave,South East Delhi District,110019,28.529337000000027,77.24860200000006,Coffee Shop,Indian Restaurant,Restaurant,Market,Pizza Place
285,Mandawali,East District,110092,28.630237000000008,77.291411,Pizza Place,Indian Restaurant,Light Rail Station,Snack Place,Food
286,Manglapuri,South West District,110045,28.588744,77.087511,Men's Store,Museum,Airport Lounge,Snack Place,Bar
287,Manglapuri Village,South West District,110045,28.588744,77.087511,Men's Store,Museum,Airport Lounge,Snack Place,Bar
288,Mansa Ram Park,West District,110059,28.617651,77.039019,Pizza Place,Light Rail Station,Indian Restaurant,Fast Food Restaurant,IT Services
289,Mansa Ram Park Park Path,West District,110059,28.617651,77.039019,Pizza Place,Light Rail Station,Indian Restaurant,Fast Food Restaurant,IT Services
290,Mansarovar Garden,West District,110015,28.642099000000005,77.133346,Furniture / Home Store,Chinese Restaurant,Park,Café,Electronics Store
291,Mansarovar Park,Shahdara District,110032,28.681864,77.299151,Garden,Indian Restaurant,Movie Theater,Train Station,Food
292,Mansarover Garden,West District,110015,28.642099000000005,77.133346,Furniture / Home Store,Chinese Restaurant,Park,Café,Electronics Store
293,Masjid Moth,South East Delhi District,110048,28.54100800000001,77.23422699999996,Café,Hotel,Park,Indian Restaurant,Liquor Store
294,Masjid Moth Phase 2,South East Delhi District,110048,28.540532999999993,77.23353399999998,Park,Hotel,Café,Ice Cream Shop,Restaurant
295,Masjid Moth Village,South District,110049,28.561160999999977,77.21718699999998,Coffee Shop,Clothing Store,Fast Food Restaurant,Chinese Restaurant,Pizza Place
296,Masoodpur,New Delhi District,110070,28.526909999999994,77.15416200000001,Bar,Vegetarian / Vegan Restaurant,Café,Spa,Fast Food Restaurant
297,Matiala,West District,110059,28.614166,77.046822,Café,Bookstore,Indian Restaurant,IT Services,Clothing Store
298,Matiala Extension,West District,110059,28.614166,77.046822,Café,Bookstore,Indian Restaurant,IT Services,Clothing Store
299,Maya Enclave,West District,110064,28.618855,77.108939,Department Store,Arcade,Soup Place,Market,Dim Sum Restaurant
300,Mayur Vihar,East District,110091,28.607676,77.30118800000001,Indian Restaurant,Snack Place,Department Store,Market,Gym / Fitness Center
301,Mayur Vihar I,East District,110091,28.598893999999987,77.29437099999998,Department Store,Bakery,Hotel,Light Rail Station,Pizza Place
302,Mayur Vihar Iii,East District,110096,28.610627,77.336514,ATM,Park,Gift Shop,Hotel,Fried Chicken Joint
303,Mayur Vihar Phase 1,East District,110091,28.598893999999987,77.29437099999998,Department Store,Bakery,Hotel,Light Rail Station,Pizza Place
304,Mayur Vihar Phase 2,East District,110091,28.618247,77.29783399999998,Garden,Juice Bar,Sandwich Place,Bank,Ice Cream Shop
305,Mayur Vihar Phase 3,East District,110096,28.610627,77.336514,ATM,Park,Gift Shop,Hotel,Fried Chicken Joint
306,Mayur Vihar Pocket F,Shahdara District,110095,28.680359,77.317982,Pizza Place,Diner,Light Rail Station,Metro Station,Indian Restaurant
307,Meenakshi Garden,West District,110018,28.639439000000007,77.10362200000003,Fast Food Restaurant,Donut Shop,Coffee Shop,Restaurant,Café
308,Meera Bagh,West District,110087,28.658887,77.089295,Hotel,Food Truck,Coffee Shop,Fast Food Restaurant,Yoga Studio
309,Mehrauli,South District,110030,28.521341000000003,77.17933700000002,Thai Restaurant,Bar,Italian Restaurant,Indian Restaurant,Market
310,Mehrauli Village,South District,110030,28.521341000000003,77.17933700000002,Thai Restaurant,Bar,Italian Restaurant,Indian Restaurant,Market
311,Mianwali Nagar Peera Garhi,West District,110056,28.679509,77.096072,Indian Restaurant,Train Station,ATM,Department Store,Indian Sweet Shop
312,Mirpur Turk,North East District,110094,28.706748,77.265361,Weight Loss Center,Bus Station,Men's Store,Yoga Studio,Falafel Restaurant
313,Model Town,North District,,28.730261,77.171765,Electronics Store,Yoga Studio,Falafel Restaurant,Frozen Yogurt Shop,Fried Chicken Joint
314,Mohan Garden,West District,110059,28.636866,77.037293,ATM,Indian Restaurant,IT Services,Fabric Shop,Fried Chicken Joint
315,Moti Bagh South,New Delhi District,110021,28.58055000000001,77.17260000000005,Café,Coffee Shop,Convenience Store,Bakery,Bistro
316,Moti Nagar,West District,110015,28.662193,77.13917000000001,Fast Food Restaurant,Fried Chicken Joint,Vegetarian / Vegan Restaurant,Café,Shopping Mall
317,Mount Kailash Apartment,South East Delhi District,110065,28.553428000000007,77.245946,Fast Food Restaurant,Indian Restaurant,Bar,Hotel,Coffee Shop
318,Mundka,West District,110041,28.681933000000004,77.030648,Business Service,ATM,Mobile Phone Shop,Train Station,Falafel Restaurant
319,Munirka,New Delhi District,110067,28.553441000000007,77.174918,Indian Restaurant,College Cafeteria,Fast Food Restaurant,Sandwich Place,Steakhouse
320,Munirka Flyover,New Delhi District,110067,28.553441000000007,77.174918,Indian Restaurant,College Cafeteria,Fast Food Restaurant,Sandwich Place,Steakhouse
321,Munirka Marg,New Delhi District,110067,28.553441000000007,77.174918,Indian Restaurant,College Cafeteria,Fast Food Restaurant,Sandwich Place,Steakhouse
322,Munirka Vihar,New Delhi District,110067,28.553441000000007,77.174918,Indian Restaurant,College Cafeteria,Fast Food Restaurant,Sandwich Place,Steakhouse
323,Naharpur Village,North West District,110085,28.703462,77.11512400000001,Fast Food Restaurant,Shopping Mall,Pizza Place,Restaurant,Indian Restaurant
324,Najafgarh,South West District,110043,28.613304,76.980431,ATM,Mobile Phone Shop,Falafel Restaurant,Frozen Yogurt Shop,Fried Chicken Joint
325,Nangloi,West District,110041,28.672178,77.065816,ATM,Gym,Falafel Restaurant,Frozen Yogurt Shop,Fried Chicken Joint
326,Nangloi Saiyed Village,West District,110087,28.660145,77.08348,Tourist Information Center,Convenience Store,Asian Restaurant,Fast Food Restaurant,Clothing Store
327,Nanhey Park New Delhi,New Delhi District,,28.63269399999995,77.21965999999998,Indian Restaurant,Café,Hotel,Chinese Restaurant,Bar
328,Naraina,West District,110028,28.643119000000002,77.144943,Furniture / Home Store,Convenience Store,Gym,Yoga Studio,Falafel Restaurant
329,Narela,North District,110040,28.852488000000005,77.097797,Bank,Clothing Store,Electronics Store,Yoga Studio,Farm
330,Narmada Apartments,South East Delhi District,110019,28.52700700000002,77.248206,Coffee Shop,BBQ Joint,Italian Restaurant,Restaurant,Café
331,Nasirpur,South West District,110045,28.600232,77.087882,Department Store,Indian Restaurant,Airport Lounge,Bank,Yoga Studio
332,Navin Shahdara,Shahdara District,,28.671679,77.294197,Platform,Train Station,Light Rail Station,Vegetarian / Vegan Restaurant,Clothing Store
333,Navjeevan Vihar,South District,110017,28.533019,77.199801,Coffee Shop,Café,Italian Restaurant,Pizza Place,Indian Restaurant
334,Nawada,West District,110059,28.622926,77.049585,Astrologer,Pizza Place,Paper / Office Supplies Store,Bookstore,Café
335,Nawada Extension,West District,110059,28.622926,77.049585,Astrologer,Pizza Place,Paper / Office Supplies Store,Bookstore,Café
336,Nawada Sainik Nagar,West District,110059,28.616509,77.041746,Pizza Place,Clothing Store,Light Rail Station,Café,Flower Shop
337,Nawada Uttam Nagar,West District,110059,28.618535000000005,77.056782,Indian Restaurant,ATM,Bakery,Train Station,Department Store
338,Neb Sarai,South District,110062,28.505609,77.198864,Italian Restaurant,Asian Restaurant,Garden,Mediterranean Restaurant,Pub
339,Nelson Mandela Marg,New Delhi District,110067,28.553430000000013,77.16635899999997,Fast Food Restaurant,Café,Indian Restaurant,Coffee Shop,Chinese Restaurant
340,Netaji Subash Marg,Central District,110002,28.645491999999994,77.240409,Indian Restaurant,Hotel,Cricket Ground,History Museum,Soccer Stadium
341,Netaji Subhash Place,North West District,110034,28.692377000000004,77.14947699999999,Indian Restaurant,Shopping Mall,Pizza Place,Fast Food Restaurant,Coffee Shop
342,New Ashok Nagar,East District,110096,28.594022000000002,77.30742,Hotel,Restaurant,American Restaurant,Bakery,Gym
343,New Friends Colony,South East Delhi District,110025,28.56555600000001,77.27041000000004,Café,Hotel,Pizza Place,Indian Restaurant,Sandwich Place
344,New Govindpura,East District,110051,28.645781,77.28488700000001,Arcade,Pizza Place,Dessert Shop,Food Court,Gift Shop
345,New Kondli,East District,110096,28.606115,77.330756,Hotel,Pizza Place,Market,Convenience Store,Fast Food Restaurant
346,New Krishna Nagar,Shahdara District,110051,28.65846,77.283538,Pizza Place,Ice Cream Shop,Bakery,Yoga Studio,Farmers Market
347,New Layal Pur,North East District,110053,28.674807999999995,77.267115,Tourist Information Center,Shopping Mall,Platform,Hotel,Train Station
348,New Pragatesheel Apartment,East District,110096,28.600928,77.320745,Market,Stadium,Gym,Pizza Place,Bakery
349,New Rajendra Nagar,Central District,110060,28.636315000000007,77.17995999999997,Fast Food Restaurant,Café,Indian Restaurant,Liquor Store,Spa
350,Nirman Vihar,East District,110092,28.635381999999996,77.287782,Arcade,Pizza Place,Dessert Shop,Mediterranean Restaurant,Chinese Restaurant
351,Niti Bagh,South District,110049,28.558990999999995,77.21532399999998,Indian Restaurant,Coffee Shop,Bar,Chinese Restaurant,Stadium
352,Nizamuddin,South East Delhi District,110013,28.589525999999985,77.244335,Chinese Restaurant,Indian Restaurant,Restaurant,Hotel,Café
353,Noor Nagar,South East Delhi District,110025,28.557413000000004,77.287111,Indian Restaurant,Athletics & Sports,Coffee Shop,Playground,Falafel Restaurant
354,North Campus,North District,,28.852488000000005,77.097797,Bank,Clothing Store,Electronics Store,Yoga Studio,Farm
355,Okhla,South East Delhi District,110025,28.564067,77.289191,Indian Restaurant,Playground,Coffee Shop,Yoga Studio,Food
356,Okhla Vihar,South East Delhi District,110025,28.554818,77.290006,Indian Restaurant,Playground,Coffee Shop,Yoga Studio,Food
357,Old Delhi,South East Delhi District,110025,28.563078,77.289901,Indian Restaurant,Playground,Coffee Shop,Yoga Studio,Food
358,Om Vihar,West District,110059,28.626044000000004,77.05264,ATM,Train Station,Bakery,Mobile Phone Shop,Department Store
359,Om Vihar Extn Delhi,West District,110059,28.617795,77.05062399999998,Indian Restaurant,Paper / Office Supplies Store,Pizza Place,Café,Train Station
360,Om Vihar Extn Om Vihar,West District,110059,28.617795,77.05062399999998,Indian Restaurant,Paper / Office Supplies Store,Pizza Place,Café,Train Station
361,Om Vihar Phase 4,West District,110059,28.625908,77.049997,Italian Restaurant,Pizza Place,Mobile Phone Shop,Café,Health & Beauty Service
362,Palam,South West District,110045,28.580917,77.088389,Museum,Bookstore,Indian Restaurant,Snack Place,Business Service
363,Palam Vihar,South West District,110045,28.580917,77.088389,Museum,Bookstore,Indian Restaurant,Snack Place,Business Service
364,Panchsheel Enclave,South District,110017,28.543793999999995,77.22947599999999,Café,Indian Restaurant,Market,Bistro,Ice Cream Shop
365,Panchsheel Park,South District,110017,28.543272,77.21507599999997,Indian Restaurant,Coffee Shop,Café,Hostel,Asian Restaurant
366,Panchsheel Vihar,South District,110017,28.534383000000002,77.22207700000008,Indian Restaurant,Clothing Store,Bar,Burger Joint,Lounge
367,Pandav Nagar,East District,110091,28.619712999999997,77.28567499999998,Dessert Shop,Hindu Temple,Food & Drink Shop,Bus Station,North Indian Restaurant
368,Pant Nagar,South East Delhi District,110014,28.58563900000001,77.24368499999997,Indian Restaurant,Hotel,BBQ Joint,Fast Food Restaurant,Market
369,Param Puri,West District,110059,28.618947999999993,77.05464600000002,Indian Restaurant,ATM,Train Station,Health & Beauty Service,Pizza Place
370,Partap Nagar,Shahdara District,110093,28.708526,77.307316,Tourist Information Center,Print Shop,Yoga Studio,Fried Chicken Joint,French Restaurant
371,Paryatan Vihar,East District,110096,28.600932,77.313833,Market,Stadium,Gym,Pizza Place,Bakery
372,Paryavaran Complex,South District,110068,28.516060000000003,77.20312800000005,Coffee Shop,Convenience Store,Pizza Place,Café,Multiplex
373,Paryavaran Complex Main,South District,110068,28.516060000000003,77.20312800000005,Coffee Shop,Convenience Store,Pizza Place,Café,Multiplex
374,Paschim Vihar,West District,110063,28.669306,77.09326499999999,Coffee Shop,Hotel,Food Truck,Indian Restaurant,Chinese Restaurant
375,Paschim Vihar A 1 Block,West District,110063,28.678813,77.096991,Department Store,Bakery,Garden,Indian Restaurant,Train Station
376,Paschim Vihar Main,West District,110063,28.669306,77.09326499999999,Coffee Shop,Hotel,Food Truck,Indian Restaurant,Chinese Restaurant
377,Patel Nagar,West District,110008,28.652637000000002,77.163834,Hotel,Movie Theater,Electronics Store,Light Rail Station,Pizza Place
378,Patparganj,East District,110091,28.61211700000001,77.291734,Indian Restaurant,Garden,Light Rail Station,Dessert Shop,Coffee Shop
379,Peeragarhi Village,West District,110087,28.6764,77.0906,Garden,Ice Cream Shop,Gym / Fitness Center,Hotel,BBQ Joint
380,Pitampura,North West District,110034,28.69176,77.120353,Bar,Gym / Fitness Center,Fast Food Restaurant,Shopping Mall,Yoga Studio
381,Pochanpur Colony,South West District,110077,28.561103,77.047446,Shopping Mall,Farm,Park,Bed & Breakfast,Pizza Place
382,Pocket 10 Sector B,South District,110070,28.532418000000003,77.15365900000005,Coffee Shop,Fast Food Restaurant,Italian Restaurant,Chinese Restaurant,Café
383,Pocket 11 Sector B,South District,110070,28.532134,77.15147699999997,Café,Spa,Toy / Game Store,Dessert Shop,Park
384,Pocket 2 Sector 6 Dwarka,South West District,110075,28.591219999999996,77.059791,Fast Food Restaurant,Coffee Shop,Electronics Store,Indian Restaurant,Restaurant
385,Pocket 2 Sector D,East District,110096,28.613827,77.327863,Indian Restaurant,Music Venue,Pharmacy,Hotel,Yoga Studio
386,Pocket 6 Sector 2,North District,110040,28.834456,77.110325,ATM,Garden,Frozen Yogurt Shop,Fried Chicken Joint,French Restaurant
387,Pocket 7 Dwarka Sector 12,South West District,110078,28.591314000000008,77.04370100000004,Indian Restaurant,Shopping Mall,Café,Pizza Place,Clothing Store
388,Pocket 7 Sector D,South District,110070,28.529379000000002,77.14621799999999,Café,Spa,Thai Restaurant,Gastropub,Chinese Restaurant
389,Pocket 8 Sector C,South District,110070,28.537005999999998,77.14151500000001,Café,Spa,BBQ Joint,Gastropub,Pizza Place
390,Pocket 9,South West District,110045,28.599696,77.09011,Department Store,Garden,Frozen Yogurt Shop,Fried Chicken Joint,French Restaurant
391,Pocket 9 Sector B,New Delhi District,110070,28.531719000000002,77.15225600000001,Café,Dessert Shop,Arcade,Spa,Fast Food Restaurant
392,Pocket 9 Sector C,South District,110070,28.539503000000007,77.143912,Café,Chinese Restaurant,Spa,Italian Restaurant,Pizza Place
393,Pocket A Sector 17 Dwarka,South West District,110078,28.591822999999994,77.02804400000001,Clothing Store,Restaurant,Bakery,Electronics Store,Indian Restaurant
394,Police Lines,North District,110009,28.697125000000018,77.20246399999998,Café,Tea Room,Pizza Place,Coffee Shop,Restaurant
395,Pontoon Bridge,North East District,110054,28.705869999999997,77.232257,Asian Restaurant,Tibetan Restaurant,Restaurant,Café,Bus Station
396,Poorvi Pitampura,North West District,110034,28.69176,77.120353,Bar,Gym / Fitness Center,Fast Food Restaurant,Shopping Mall,Yoga Studio
397,Pratap Khand,Shahdara District,110095,28.672288000000005,77.30823,Athletics & Sports,Hotel,Metro Station,Asian Restaurant,Shop & Service
398,Preet Vihar,East District,110092,28.639118000000007,77.29473499999997,Fast Food Restaurant,Light Rail Station,Pizza Place,Arcade,Yoga Studio
399,Prime Chowk,New Delhi District,110011,28.608729,77.208822,Music Venue,Government Building,Tea Room,History Museum,Yoga Studio
400,Priyadarshini Vihar,East District,110092,28.642246,77.277938,Dessert Shop,Café,Arcade,Mediterranean Restaurant,Yoga Studio
401,Punjabi Bagh,West District,110026,28.667505000000002,77.127874,Fast Food Restaurant,Garden Center,Donut Shop,Sandwich Place,Bar
402,Puth Khurd Village,North District,110039,28.770351,77.04933,ATM,Garden,Frozen Yogurt Shop,Fried Chicken Joint,French Restaurant
403,R K Puram,South West District,110045,28.59833,77.094487,Sporting Goods Shop,Juice Bar,Fabric Shop,Frozen Yogurt Shop,Fried Chicken Joint
404,Raja Puri,North District,110009,28.709453,77.18352500000002,Park,Chinese Restaurant,Restaurant,Bank,Bus Station
405,Rajapuri East Uttam Nagar,West District,110059,28.618535000000005,77.056782,Indian Restaurant,ATM,Bakery,Train Station,Department Store
406,Rajinder Nagar,North East District,110094,28.703218000000003,77.287433,ATM,Indian Restaurant,Pizza Place,Fabric Shop,Fried Chicken Joint
407,Rajiv Chowk,New Delhi District,110001,28.63160599999996,77.2192750000001,Indian Restaurant,Café,Hotel,Chinese Restaurant,Coffee Shop
408,Rajouri Garden,West District,110027,28.643073999999984,77.12498199999999,Fast Food Restaurant,Café,Indian Restaurant,Chinese Restaurant,Diner
409,Rajpur,South District,110068,28.494419999999998,77.19068800000001,Resort,Indian Restaurant,Pub,Food Truck,Restaurant
410,Rajpur Khurd Village,South District,110068,28.494419999999998,77.19068800000001,Resort,Indian Restaurant,Pub,Food Truck,Restaurant
411,Raju Park,South West District,110078,28.60992,77.030927,Fried Chicken Joint,Grocery Store,Clothing Store,Fast Food Restaurant,Metro Station
412,Ram Colony Chattarpur,South District,110030,28.496446999999996,77.17904699999998,Indian Restaurant,Pub,Resort,Farm,Restaurant
413,Ram Nagar Extension,Shahdara District,110051,28.654776,77.282714,Pizza Place,Ice Cream Shop,Bakery,Yoga Studio,Farmers Market
414,Rama Park,West District,110059,28.621244,77.03490599999999,Pizza Place,Indian Restaurant,Fast Food Restaurant,Motorcycle Shop,Mobile Phone Shop
415,Rama Park Block B,West District,110059,28.622717999999995,77.03459499999998,Indian Restaurant,Pizza Place,Fast Food Restaurant,Motorcycle Shop,Mobile Phone Shop
416,Ramesh Nagar,West District,110015,28.649317999999997,77.13068100000004,Fast Food Restaurant,Café,Chinese Restaurant,Light Rail Station,Shopping Mall
417,Ramesh Park,East District,110092,28.635525,77.271834,Sushi Restaurant,Arts & Crafts Store,Shopping Mall,IT Services,Mobile Phone Shop
418,Rampura Marg,North West District,110035,28.676958000000003,77.153963,Train Station,ATM,Flower Shop,Baby Store,Falafel Restaurant
419,Ranjeet Nagar,West District,110008,28.64345000000002,77.16948499999997,Indian Restaurant,Pizza Place,Fast Food Restaurant,Hotel,Park
420,Razapur Khurd,West District,110059,28.638323,77.029816,ATM,Garden,Frozen Yogurt Shop,Fried Chicken Joint,French Restaurant
421,Residential Flat Dharam Pura,South West District,110043,28.607164,76.992862,ATM,Discount Store,Men's Store,Falafel Restaurant,Frozen Yogurt Shop
422,Residential Flat East Of Kailash,South East Delhi District,110065,28.555346000000014,77.24798700000007,Fast Food Restaurant,Coffee Shop,Bar,Restaurant,Pizza Place
423,Residential Flat Mehrauli,South District,110030,28.521341000000003,77.17933700000002,Thai Restaurant,Bar,Italian Restaurant,Indian Restaurant,Market
424,Residential Flat Pocket A,South East Delhi District,110076,28.534737000000003,77.28838799999998,Café,Soccer Stadium,Pizza Place,Soccer Field,Breakfast Spot
425,Residential Flat Pocket D,South East Delhi District,110076,28.531203,77.296619,Café,Pizza Place,Grocery Store,Yoga Studio,Fried Chicken Joint
426,Residential Flat Uttam Nagar,West District,110059,28.618535000000005,77.056782,Indian Restaurant,ATM,Bakery,Train Station,Department Store
427,Residential Floor Drayaganj,New Delhi District,110001,28.610071,77.20741,Spiritual Center,Music Venue,Falafel Restaurant,Frozen Yogurt Shop,Fried Chicken Joint
428,Residential Floor East Ram Nagar,East District,,28.623834999999996,77.27083600000002,Athletics & Sports,River,Gym,IT Services,Light Rail Station
429,Residential Floor Om Vihar,West District,110059,28.626044000000004,77.05264,ATM,Train Station,Bakery,Mobile Phone Shop,Department Store
430,Residential Floor Ram Nagar,Shahdara District,110032,28.680237,77.296504,Movie Theater,Ice Cream Shop,Vegetarian / Vegan Restaurant,Train Station,Food
431,Residential Floor Tilak Nagar,West District,110018,28.63774799999999,77.08886900000002,Café,Clothing Store,Light Rail Station,Department Store,Restaurant
432,Residential Floor Uttam Nagar,West District,110059,28.618535000000005,77.056782,Indian Restaurant,ATM,Bakery,Train Station,Department Store
433,Residential Floorblocka Sector,New Delhi District,110001,28.610071,77.20741,Spiritual Center,Music Venue,Falafel Restaurant,Frozen Yogurt Shop,Fried Chicken Joint
434,Residential Floorpaschim Vihar,New Delhi District,110001,28.610071,77.20741,Spiritual Center,Music Venue,Falafel Restaurant,Frozen Yogurt Shop,Fried Chicken Joint
435,Residential Floorsector,New Delhi District,110001,28.610071,77.20741,Spiritual Center,Music Venue,Falafel Restaurant,Frozen Yogurt Shop,Fried Chicken Joint
436,Residential House Uttam Nagar,West District,110059,28.618535000000005,77.056782,Indian Restaurant,ATM,Bakery,Train Station,Department Store
437,Rishi Nagar,North West District,110034,28.686199,77.127398,Department Store,Indian Restaurant,Diner,Train Station,Food
438,Rithala,North West District,110085,28.718672,77.100659,Hotel,Light Rail Station,Clothing Store,Restaurant,Falafel Restaurant
439,Rohini Sector 16,North District,110089,28.735915,77.122823,Pizza Place,Multiplex,Clothing Store,Yoga Studio,Falafel Restaurant
440,Rohini Sector 24,North West District,110085,28.725016999999998,77.085407,Bar,Mobile Phone Shop,Hot Dog Joint,Yoga Studio,Farm
441,Rohini Sector 5,North West District,110085,28.713639,77.103875,Hotel,Shopping Mall,Clothing Store,Light Rail Station,Yoga Studio
442,Rohini Sector 9,North District,110085,28.717325,77.127455,Department Store,Pizza Place,Multiplex,Food,Shopping Mall
443,Roop Nagar,Central District,110007,28.68498399999999,77.20038999999998,Fast Food Restaurant,Indian Restaurant,Donut Shop,Café,Breakfast Spot
444,Sadar Bazaar,New Delhi District,110010,28.591759,77.12055399999998,ATM,Convenience Store,Mobile Phone Shop,Café,Shoe Store
445,Sadh Nagar Palam Colony,South West District,110045,28.591095,77.0938,Sporting Goods Shop,Indian Restaurant,Museum,Bar,Falafel Restaurant
446,Sadulajab,New Delhi District,,28.63269399999995,77.21965999999998,Indian Restaurant,Café,Hotel,Chinese Restaurant,Bar
447,Safdarjung,South District,110029,28.565741,77.19487699999996,Indian Restaurant,Hotel,Gym / Fitness Center,Lounge,Spa
448,Safdarjung Development Area,South District,110016,28.55122100000002,77.19904800000013,Café,Indian Restaurant,Coffee Shop,Restaurant,Bar
449,Safdarjung Enclave,South District,110029,28.565741,77.19487699999996,Indian Restaurant,Hotel,Gym / Fitness Center,Lounge,Spa
450,Sahibabad,North District,110042,28.744516,77.096549,Spa,Yoga Studio,Falafel Restaurant,Frozen Yogurt Shop,Fried Chicken Joint
451,Sainik Nagar Mansa Ram Park,West District,110059,28.617651,77.039019,Pizza Place,Light Rail Station,Indian Restaurant,Fast Food Restaurant,IT Services
452,Saiyad Ul Ajaib Village,South District,110030,28.518080000000015,77.20084700000002,Coffee Shop,Café,Indian Restaurant,Pizza Place,Convenience Store
453,Saket,South District,110017,28.523848,77.20677299999997,Coffee Shop,Indian Restaurant,Café,Pizza Place,Hotel
454,Sandesh Vihar,North West District,110034,28.69136300000001,77.14199800000003,Indian Restaurant,Multiplex,Coffee Shop,Fast Food Restaurant,Pizza Place
455,Sangam Vihar,South East Delhi District,110080,28.500277,77.244059,Ice Cream Shop,Electronics Store,Yoga Studio,Falafel Restaurant,Frozen Yogurt Shop
456,Santnagar,Central District,110084,28.740851999999997,77.20271000000001,Indian Restaurant,Arcade,Electronics Store,Food Truck,Arts & Crafts Store
457,Sarai Rohilla,Central District,110005,28.66302,77.182898,Dessert Shop,Shopping Mall,Light Rail Station,Smoke Shop,Yoga Studio
458,Saraswati Vihar,North West District,110034,28.69681500000001,77.12460999999999,Fast Food Restaurant,Shopping Mall,Pizza Place,Restaurant,Indian Restaurant
459,Sarita Vihar,South East Delhi District,110076,28.530896,77.294073,Café,Pizza Place,Grocery Store,Yoga Studio,Fried Chicken Joint
460,Sarojini Nagar,South District,110023,28.575688000000007,77.19575699999999,Indian Restaurant,Fast Food Restaurant,Spa,Hotel,Market
461,Sarvodaya Enclave,South District,110017,28.537996000000014,77.201102,Café,Coffee Shop,Italian Restaurant,Indian Restaurant,Chinese Restaurant
462,Sec 6 Pocket 1,South West District,110075,28.594708000000004,77.074252,Fast Food Restaurant,Hobby Shop,Ice Cream Shop,Gym,Yoga Studio
463,Sector 1,North District,110040,28.849061,77.116154,ATM,Resort,Fabric Shop,Frozen Yogurt Shop,Fried Chicken Joint
464,Sector 1 Dwarka,South West District,110045,28.597807,77.073263,Nightlife Spot,Science Museum,Pool,Hobby Shop,Yoga Studio
465,Sector 10,North District,110085,28.725049000000006,77.11444700000001,Shopping Mall,Clothing Store,Park,Hotel,Asian Restaurant
466,Sector 10 Dwarka,South West District,110075,28.583059999999993,77.057824,Hotel,Indian Restaurant,Light Rail Station,Electronics Store,Playground
467,Sector 10 Pocket 1,South West District,110075,28.594815,77.074271,Fast Food Restaurant,Hobby Shop,Ice Cream Shop,Gym,Yoga Studio
468,Sector 103,North District,110042,28.735093,77.142806,Metro Station,Bath House,Electronics Store,Athletics & Sports,Yoga Studio
469,Sector 108,North District,110040,28.855418,77.096334,Bank,Clothing Store,Electronics Store,Yoga Studio,Farm
470,Sector 11,North West District,110085,28.733389999999996,77.109005,ATM,Photography Studio,Multiplex,Juice Bar,Pizza Place
471,Sector 11 Dwarka,South West District,110075,28.589461000000014,77.05004699999998,Indian Restaurant,Fast Food Restaurant,Café,Pizza Place,Department Store
472,Sector 11 Dwarka Pocket 2,South West District,110075,28.585772999999996,77.045946,Indian Restaurant,Department Store,American Restaurant,Grocery Store,Shopping Mall
473,Sector 11 Rohini,North West District,110085,28.733389999999996,77.109005,ATM,Photography Studio,Multiplex,Juice Bar,Pizza Place
474,Sector 111,North West District,110086,28.736906,77.051255,ATM,Heliport,Tourist Information Center,Dessert Shop,Farm
475,Sector 112,North District,110040,28.855418,77.096334,Bank,Clothing Store,Electronics Store,Yoga Studio,Farm
476,Sector 12,North District,110085,28.728298,77.122771,Park,Department Store,Food Court,Clothing Store,Flower Shop
477,Sector 12 Dwarka,South West District,110078,28.59467199999999,77.042238,Indian Restaurant,Café,Pizza Place,Fast Food Restaurant,Market
478,Sector 12 Dwarka New Delhi,South West District,110078,28.59467199999999,77.042238,Indian Restaurant,Café,Pizza Place,Fast Food Restaurant,Market
479,Sector 12 Dwarka Pocket 2,South West District,110078,28.595479000000008,77.04788099999999,Café,Indian Restaurant,Fast Food Restaurant,Pizza Place,Department Store
480,Sector 12 Dwarka Pocket 3,South West District,110078,28.595862000000007,77.04682000000001,Café,Fast Food Restaurant,Indian Restaurant,Pizza Place,Restaurant
481,Sector 12 Pocket 7,North District,110040,28.840909,77.099224,ATM,Garden,Frozen Yogurt Shop,Fried Chicken Joint,French Restaurant
482,Sector 13,North District,110089,28.721065000000003,77.128913,Café,Department Store,Park,Shopping Mall,Food
483,Sector 13 Dwarka,South West District,110078,28.599382999999992,77.03614600000002,Indian Restaurant,Fast Food Restaurant,Fried Chicken Joint,Light Rail Station,Bakery
484,Sector 13 Rohini,North District,110089,28.721065000000003,77.128913,Café,Department Store,Park,Shopping Mall,Food
485,Sector 14 Dwarka,South West District,110078,28.601374,77.027647,Light Rail Station,Fried Chicken Joint,Café,Shopping Mall,Bakery
486,Sector 15 Rohini,North District,110089,28.732456,77.127145,Pizza Place,Electronics Store,Clothing Store,Bakery,Food
487,Sector 15A,Central District,110054,28.675371999999996,77.22355800000001,Lake,Hotel,Chinese Restaurant,Fast Food Restaurant,Flea Market
488,Sector 16A Dwarka,South West District,110078,28.611971999999998,77.018489,Metro Station,Leather Goods Store,Cosmetics Shop,Farm,Farmers Market
489,Sector 16B Dwarka,South West District,110078,28.599926,77.017662,North Indian Restaurant,Light Rail Station,Yoga Studio,Fabric Shop,Fried Chicken Joint
490,Sector 17,North District,110089,28.741052,77.115233,Pizza Place,Indian Restaurant,Spa,Multiplex,Juice Bar
491,Sector 17 Dwarka,South West District,110078,28.591822999999994,77.02804400000001,Clothing Store,Restaurant,Bakery,Electronics Store,Indian Restaurant
492,Sector 18,North District,110089,28.740602,77.137224,Metro Station,Pizza Place,Electronics Store,Yoga Studio,Falafel Restaurant
493,Sector 18 A,South West District,110075,28.577017000000005,77.050481,Hotel,Asian Restaurant,Electronics Store,Shopping Mall,Light Rail Station
494,Sector 18 Dwarka New Delhi,South West District,110078,28.589568999999994,77.03364499999999,Shopping Mall,Indian Restaurant,Clothing Store,Restaurant,Bakery
495,Sector 18 Rohini,North District,110089,28.740602,77.137224,Metro Station,Pizza Place,Electronics Store,Yoga Studio,Falafel Restaurant
496,Sector 18 Sector 18A Dwarka,South West District,110078,28.58863000000001,77.03670400000001,Shopping Mall,Indian Restaurant,Clothing Store,Restaurant,Market
497,Sector 18A Dwarka,South West District,110078,28.58863000000001,77.03670400000001,Shopping Mall,Indian Restaurant,Clothing Store,Restaurant,Market
498,Sector 18B Dwarka,South West District,110078,28.585601,77.03178,ATM,Bar,Falafel Restaurant,Frozen Yogurt Shop,Fried Chicken Joint
499,Sector 19,South West District,110075,28.577133,77.052768,Hotel,Electronics Store,Shopping Mall,Light Rail Station,Yoga Studio
500,Sector 19 Dwarka,South West District,110075,28.576972000000005,77.053127,Hotel,Electronics Store,Shopping Mall,Light Rail Station,Yoga Studio
501,Sector 19B,West District,110063,28.66717899999999,77.10101699999998,Indian Restaurant,Hotel,Coffee Shop,ATM,Food Truck
502,Sector 2 Dwarka,South West District,110075,28.598827,77.067843,Indian Restaurant,Pool,Hobby Shop,Chinese Restaurant,Yoga Studio
503,Sector 21,New Delhi District,110077,28.558233,77.0688,Hotel,Food,Bar,Light Rail Station,Pizza Place
504,Sector 21 Dwarka,New Delhi District,110077,28.557639999999996,77.067198,Hotel,Food,Bar,Light Rail Station,Pizza Place
505,Sector 21 Dwarka New Delhi,New Delhi District,110077,28.557639999999996,77.067198,Hotel,Food,Bar,Light Rail Station,Pizza Place
506,Sector 22 Dwarka,New Delhi District,110077,28.560631,77.059501,Light Rail Station,Shopping Mall,Pizza Place,Platform,Hotel
507,Sector 23,North West District,110085,28.719668,77.081978,Business Service,Yoga Studio,Falafel Restaurant,Frozen Yogurt Shop,Fried Chicken Joint
508,Sector 23 Dwarka,New Delhi District,110077,28.56448,77.055066,Pizza Place,Shopping Mall,Yoga Studio,Fabric Shop,Fried Chicken Joint
509,Sector 24 Rohini,North West District,110085,28.725016999999998,77.085407,Bar,Mobile Phone Shop,Hot Dog Joint,Yoga Studio,Farm
510,Sector 25 Dwarka,South West District,110077,28.555590999999996,77.054558,Pizza Place,Light Rail Station,Shopping Mall,Platform,Hotel
511,Sector 25 Rohini,North West District,110085,28.731926,77.094379,Women's Store,Spa,Mobile Phone Shop,Bar,Yoga Studio
512,Sector 26 Dwarka,South West District,110077,28.545199,77.055081,Platform,Light Rail Station,Business Service,Farm,Yoga Studio
513,Sector 28 Dwarka,South West District,110045,28.596492,77.075086,Department Store,Hobby Shop,Indian Restaurant,Hotel,Flower Shop
514,Sector 29 Dwarka,South West District,110075,28.57616000000001,77.05091600000002,Hotel,Asian Restaurant,Electronics Store,Shopping Mall,Light Rail Station
515,Sector 3 Dwarka,West District,110078,28.606631,77.044155,Café,Fried Chicken Joint,Clothing Store,Fast Food Restaurant,Yoga Studio
516,Sector 3 Rohini,North West District,110085,28.702530000000003,77.10831099999999,Indian Restaurant,Multiplex,Pizza Place,Food Truck,Sandwich Place
517,Sector 30,North District,110042,28.755792,77.082597,Public Bathroom,Business Service,Falafel Restaurant,Frozen Yogurt Shop,Fried Chicken Joint
518,Sector 37 Rohini,North District,110086,28.74381,77.060163,Heliport,Yoga Studio,Falafel Restaurant,Frozen Yogurt Shop,Fried Chicken Joint
519,Sector 4,South District,110017,28.524276999999994,77.22837899999998,Bar,Lounge,Multiplex,Chinese Restaurant,Japanese Restaurant
520,Sector 4 Dwarka,West District,110078,28.602437000000005,77.04806800000003,Fast Food Restaurant,Café,Pizza Place,Department Store,Bank
521,Sector 4 Rohini,North West District,110085,28.707737,77.10273,Indian Restaurant,Park,Business Service,Electronics Store,Flower Shop
522,Sector 5,South District,110017,28.523519999999987,77.22410200000007,Indian Restaurant,Clothing Store,Café,Bar,Chinese Restaurant
523,Sector 5 Dwarka,South West District,110075,28.597719999999995,77.05733699999999,Pizza Place,Fast Food Restaurant,Café,Department Store,Bank
524,Sector 6,New Delhi District,110021,28.57906300000001,77.16739200000005,Café,Coffee Shop,South Indian Restaurant,Asian Restaurant,Playground
525,Sector 6 Dwarka,South West District,110075,28.593060000000005,77.06568600000001,Fast Food Restaurant,Coffee Shop,Gym,Indian Restaurant,Hobby Shop
526,Sector 6 Dwarka Palam Vihar,South West District,110075,28.594958,77.068549,Fast Food Restaurant,Hobby Shop,Ice Cream Shop,Gym,Yoga Studio
527,Sector 7,South District,110017,28.530248000000025,77.22782099999996,Indian Restaurant,Bar,Burger Joint,Lounge,Clothing Store
528,Sector 7 Dwarka,South West District,110075,28.593440999999995,77.072453,Fast Food Restaurant,Hobby Shop,Ice Cream Shop,Gym,Yoga Studio
529,Sector 7 Dwarka New Delhi,South West District,110075,28.593440999999995,77.072453,Fast Food Restaurant,Hobby Shop,Ice Cream Shop,Gym,Yoga Studio
530,Sector 8 Dwarka Block B,South West District,110077,28.575747,77.073874,Indian Restaurant,Fast Food Restaurant,Vegetarian / Vegan Restaurant,Train Station,Yoga Studio
531,Sector 8B,East District,110096,28.612632,77.328481,Hotel,Indian Restaurant,Music Venue,Yoga Studio,Farm
532,Sector 9,North District,110085,28.717325,77.127455,Department Store,Pizza Place,Multiplex,Food,Shopping Mall
533,Sector 9 Dwarka,South West District,110077,28.57934,77.065129,Hotel,Fast Food Restaurant,Electronics Store,Light Rail Station,Indian Restaurant
534,Sector 9 Rohini,North District,110085,28.717325,77.127455,Department Store,Pizza Place,Multiplex,Food,Shopping Mall
535,Sector B,South District,110070,28.522471,77.16459899999998,Chinese Restaurant,Italian Restaurant,Gym / Fitness Center,Pizza Place,Park
536,Sector B Pocket 10,South District,110070,28.532418000000003,77.15365900000005,Coffee Shop,Fast Food Restaurant,Italian Restaurant,Chinese Restaurant,Café
537,Sector C Vasant Kunj,South District,110070,28.534377000000003,77.14597200000001,Chinese Restaurant,Gastropub,BBQ Joint,Thai Restaurant,Nightclub
538,Sector-14 Rohini,North West District,110085,28.714734,77.13338699999998,Indian Restaurant,Pizza Place,Food,Shopping Mall,Café
539,Sector-16 Dwarka,South West District,110075,28.597719999999995,77.05733699999999,Pizza Place,Fast Food Restaurant,Café,Department Store,Bank
540,Sector-18 Dwarka,South West District,110078,28.589568999999994,77.03364499999999,Shopping Mall,Indian Restaurant,Clothing Store,Restaurant,Bakery
541,Sector-18 Rohini,North District,110089,28.740602,77.137224,Metro Station,Pizza Place,Electronics Store,Yoga Studio,Falafel Restaurant
542,Sector-19 Rohini,North District,110042,28.734704,77.142842,Metro Station,Electronics Store,Hotel,Café,Flower Shop
543,Sector-21 Rohini,North West District,110086,28.713045,77.067062,Restaurant,Indian Restaurant,Bakery,Food,Farm
544,Sector-23 Rohini,North West District,110085,28.719668,77.081978,Business Service,Yoga Studio,Falafel Restaurant,Frozen Yogurt Shop,Fried Chicken Joint
545,Sector-24 Rohini,North West District,110085,28.725016999999998,77.085407,Bar,Mobile Phone Shop,Hot Dog Joint,Yoga Studio,Farm
546,Sector-7 Rohini,North West District,110085,28.70892400000001,77.118426,Fast Food Restaurant,Shopping Mall,Indian Restaurant,Department Store,Food Truck
547,Sector-8 Dwarka,South West District,110077,28.575747,77.073874,Indian Restaurant,Fast Food Restaurant,Vegetarian / Vegan Restaurant,Train Station,Yoga Studio
548,Sector-8 Rohini,North West District,110085,28.703194999999997,77.12457500000002,Indian Restaurant,Fast Food Restaurant,Shopping Mall,Pizza Place,Sandwich Place
549,Sector-B Vasant Kunj,South District,110070,28.522471,77.16459899999998,Chinese Restaurant,Italian Restaurant,Gym / Fitness Center,Pizza Place,Park
550,Sector-D Vasant Kunj,South District,110070,28.521405000000005,77.1461,Spa,Juice Bar,Bank,Gift Shop,Snack Place
551,Sector17 Rohini,North West District,110086,28.721034,77.073372,Restaurant,Chinese Restaurant,Indian Restaurant,Food Truck,Ice Cream Shop
552,Sector22 Rohini,North West District,110086,28.721034,77.073372,Restaurant,Chinese Restaurant,Indian Restaurant,Food Truck,Ice Cream Shop
553,Sector24,New Delhi District,,28.63269399999995,77.21965999999998,Indian Restaurant,Café,Hotel,Chinese Restaurant,Bar
554,Sector4Pkt 1,New Delhi District,110038,28.514217,77.106693,ATM,Garden,Frozen Yogurt Shop,Fried Chicken Joint,French Restaurant
555,Sectorb Vasant Kunj,South District,110070,28.522471,77.16459899999998,Chinese Restaurant,Italian Restaurant,Gym / Fitness Center,Pizza Place,Park
556,Sewa Nagar,South East Delhi District,110003,28.57717200000001,77.22524900000005,Indian Restaurant,Italian Restaurant,Café,Restaurant,Bakery
557,Sewak Park,West District,110059,28.617788,77.033562,Pizza Place,Indian Restaurant,Fast Food Restaurant,Motorcycle Shop,Mobile Phone Shop
558,Sfs Flats Saket,South District,110017,28.523848,77.20677299999997,Coffee Shop,Indian Restaurant,Café,Pizza Place,Hotel
559,Shadipur,West District,110008,28.652243,77.15193699999999,Shopping Mall,Metro Station,Movie Theater,Cafeteria,Fast Food Restaurant
560,Shahabad Mohammadpur,New Delhi District,110037,28.557121000000002,77.071742,Airport Terminal,Bar,Hotel,Food,Café
561,Shahdara,Shahdara District,110032,28.671679,77.294197,Platform,Train Station,Light Rail Station,Vegetarian / Vegan Restaurant,Clothing Store
562,Shaheen Bagh New Delhi,South East Delhi District,110025,28.544888000000007,77.302624,Indian Restaurant,Fast Food Restaurant,Market,Park,Soccer Stadium
563,Shahpur Jat,South District,110049,28.549127,77.21040700000002,Indian Restaurant,Coffee Shop,Bar,Chinese Restaurant,Lounge
564,Shakarpur,East District,110092,28.626964,77.279287,Coffee Shop,Shopping Mall,Gym,IT Services,Yoga Studio
565,Shakti Nagar,Central District,110007,28.67965,77.195243,Coffee Shop,Breakfast Spot,Snack Place,Playground,Pizza Place
566,Shakurpur,North West District,110034,28.682335,77.14160600000001,Indian Restaurant,Fast Food Restaurant,Food Truck,Kids Store,Pizza Place
567,Shalimar Bagh,North District,110088,28.708723999999997,77.166944,Gym / Fitness Center,Indian Restaurant,Bakery,Convenience Store,Vegetarian / Vegan Restaurant
568,Shankar Garden,West District,110018,28.62927200000001,77.07152099999999,Indian Restaurant,Chinese Restaurant,Hotel,Sandwich Place,Bus Station
569,Shankar Vihar,New Delhi District,110010,28.566631,77.14623,Asian Restaurant,Indian Restaurant,Airport Food Court,Dog Run,Yoga Studio
570,Shanti Niketan,New Delhi District,110021,28.576494000000014,77.16890600000004,Coffee Shop,Café,Playground,Comfort Food Restaurant,Gourmet Shop
571,Shanti Park Dwarka,South West District,110075,28.584408,77.04943200000001,Hotel,Asian Restaurant,Electronics Store,Light Rail Station,Market
572,Shastri Nagar,Central District,110052,28.673383,77.17969900000001,Pizza Place,Train Station,Indian Restaurant,Fast Food Restaurant,Snack Place
573,Sheikh Sarai,South District,110017,28.53634699999998,77.22113399999998,Indian Restaurant,Bar,Burger Joint,Lounge,Clothing Store
574,Sheikh Sarai Inner Lane,South District,110017,28.53634699999998,77.22113399999998,Indian Restaurant,Bar,Burger Joint,Lounge,Clothing Store
575,Sheikh Sarai Phase2 New Delhi,South District,110017,28.534072999999992,77.228266,Café,Grocery Store,Tea Room,Fast Food Restaurant,Lounge
576,Shivaji Marg,West District,110015,28.662334999999988,77.152738,Train Station,Shopping Mall,Café,Indian Restaurant,Fast Food Restaurant
577,Shivalik,South District,110017,28.532298000000004,77.20652500000004,Coffee Shop,Pizza Place,Café,Lounge,Miscellaneous Shop
578,Shreshtha Vihar,Shahdara District,110092,28.658515,77.318579,Italian Restaurant,Pool,Track,Athletics & Sports,Fried Chicken Joint
579,Shyam Enclave,Shahdara District,110092,28.654005999999995,77.30541500000001,Indian Restaurant,Hotel,Pizza Place,Plaza,Gym
580,Shyam Vihar Phase1,South West District,110078,28.606015000000003,77.02922,Light Rail Station,Fried Chicken Joint,Fast Food Restaurant,Discount Store,Grocery Store
581,Siddharth Enclave,South West District,110059,28.617713000000002,77.064994,Indian Restaurant,Hotel,Light Rail Station,Gym,Bus Station
582,Siddhartha Enclave,South East Delhi District,110014,28.574014999999992,77.25860899999999,Hotel,Gym / Fitness Center,Indian Restaurant,Neighborhood,Gym
583,Siddhartha Extension,South East Delhi District,110014,28.580603000000004,77.258955,Bus Station,Neighborhood,Gym,Bakery,Hotel
584,Sidharth Ext,South East Delhi District,110014,28.579252,77.255716,Hotel,Indian Restaurant,Sandwich Place,Neighborhood,Bakery
585,Sitapuri,South West District,110059,28.607997,77.075381,ATM,Pool,Market,Business Service,Health & Beauty Service
586,Som Vihar,New Delhi District,110022,28.571889,77.175111,Coffee Shop,South Indian Restaurant,Comfort Food Restaurant,Café,Gourmet Shop
587,Sonepat,,,28.63269399999995,77.21965999999998,Indian Restaurant,Café,Hotel,Chinese Restaurant,Bar
588,South Anarkali Delhi,South District,,28.515603,77.227055,Flea Market,Indian Restaurant,Pharmacy,Plaza,Yoga Studio
589,South Delhi,South District,,28.515603,77.227055,Flea Market,Indian Restaurant,Pharmacy,Plaza,Yoga Studio
590,South Ex,South District,,28.515603,77.227055,Flea Market,Indian Restaurant,Pharmacy,Plaza,Yoga Studio
591,South Extension,South East Delhi District,110049,28.571260999999996,77.219909,Coffee Shop,Indian Restaurant,Market,Pizza Place,Fast Food Restaurant
592,South Extension 2,South East Delhi District,110049,28.566668000000007,77.22091500000003,Indian Restaurant,Coffee Shop,Fast Food Restaurant,Pizza Place,Clothing Store
593,South Patel Nagar,West District,110008,28.652637000000002,77.163834,Hotel,Movie Theater,Electronics Store,Light Rail Station,Pizza Place
594,Subhash Park Extn New Delhi,Shahdara District,110032,28.679682000000003,77.276699,Park,Gym / Fitness Center,Chocolate Shop,Light Rail Station,Shipping Store
595,Subzi Mandi,Central District,110007,28.671910000000004,77.20414400000001,Donut Shop,Snack Place,Grocery Store,Park,Sandwich Place
596,Sudarshan Park,West District,110015,28.66009400000001,77.132877,Light Rail Station,Indian Restaurant,Flea Market,Shoe Store,Multiplex
597,Sukhdev Vihar,South East Delhi District,110025,28.555179999999982,77.274676,Indian Restaurant,Café,Fast Food Restaurant,Middle Eastern Restaurant,Pizza Place
598,Sultanpur,South District,110030,28.48498,77.160476,Farm,Dessert Shop,Construction & Landscaping,Yoga Studio,Falafel Restaurant
599,Sultanpur Extension,South District,110030,28.496868000000003,77.164988,Hotel,Japanese Restaurant,Coffee Shop,Indian Restaurant,Light Rail Station
600,Sunlight Colony,South East Delhi District,110014,28.576912999999998,77.25830099999999,Hotel,Neighborhood,Gym / Fitness Center,Gym,Bakery
601,Suraj Vihar,South West District,110078,28.612379,77.03220599999999,Metro Station,Grocery Store,Fast Food Restaurant,Clothing Store,Light Rail Station
602,Surajmal Vihar,Shahdara District,110092,28.66159900000001,77.30598499999999,Hotel,Indian Restaurant,Pizza Place,Big Box Store,Athletics & Sports
603,Sushant Lok Delhi,Shahdara District,110092,28.657155,77.316155,Italian Restaurant,Pool,Track,Athletics & Sports,Fried Chicken Joint
604,Swasthya Vihar,East District,110092,28.64082900000001,77.28942099999996,Fast Food Restaurant,Light Rail Station,Pizza Place,Arcade,Yoga Studio
605,Tagore Garden,West District,110027,28.645860999999993,77.11068700000001,BBQ Joint,Diner,Multiplex,Indian Restaurant,Shopping Mall
606,Tagore Garden Extension,West District,110027,28.651729000000014,77.11276300000004,Indian Restaurant,Fast Food Restaurant,Café,BBQ Joint,Light Rail Station
607,Telibara,New Delhi District,,28.63269399999995,77.21965999999998,Indian Restaurant,Café,Hotel,Chinese Restaurant,Bar
608,Tigri,South District,110062,28.511275,77.23832600000001,ATM,Indian Restaurant,Electronics Store,Plaza,Fast Food Restaurant
609,Tilak Nagar,West District,110018,28.63774799999999,77.08886900000002,Café,Clothing Store,Light Rail Station,Department Store,Restaurant
610,Timarpur,Central District,110054,28.701694,77.22135200000001,Coffee Shop,Light Rail Station,Tibetan Restaurant,Asian Restaurant,Café
611,Tri Nagar,North West District,110035,28.678393,77.156999,Train Station,Arts & Crafts Store,Light Rail Station,Restaurant,Yoga Studio
612,Tughlakabad,South East Delhi District,110044,28.512079,77.267811,Supplement Shop,Castle,Business Service,Yoga Studio,Farm
613,Uttam Nagar,West District,110059,28.618535000000005,77.056782,Indian Restaurant,ATM,Bakery,Train Station,Department Store
614,Uttam Nagar East,South West District,110059,28.619541,77.063775,Indian Restaurant,Hotel,Train Station,Gym,Bus Station
615,Uttam Nagar Nanhey Park,West District,110059,28.618535000000005,77.056782,Indian Restaurant,ATM,Bakery,Train Station,Department Store
616,Uttam Nagar Subhash Park Extn,West District,110059,28.612310000000004,77.055123,Indian Restaurant,ATM,Kids Store,Mobile Phone Shop,Astrologer
617,Uttam Nagar Vani Vihar,West District,110059,28.61749,77.06379200000002,Hotel,Bus Station,Gym,Light Rail Station,Pizza Place
618,Uttam Nagar West,West District,110059,28.618535000000005,77.056782,Indian Restaurant,ATM,Bakery,Train Station,Department Store
619,Uttari Pitampura,North West District,110034,28.69176,77.120353,Bar,Gym / Fitness Center,Fast Food Restaurant,Shopping Mall,Yoga Studio
620,Vasant Enclave,New Delhi District,110057,28.574318,77.159724,Bakery,Gourmet Shop,Salad Place,Market,Playground
621,Vasant Kunj,South District,110070,28.514980000000005,77.15324499999998,Gym / Fitness Center,Chinese Restaurant,Italian Restaurant,Park,Fried Chicken Joint
622,Vasant Kunj Enclave,South District,110070,28.514980000000005,77.15324499999998,Gym / Fitness Center,Chinese Restaurant,Italian Restaurant,Park,Fried Chicken Joint
623,Vasant Kunj Marg,South District,110070,28.514980000000005,77.15324499999998,Gym / Fitness Center,Chinese Restaurant,Italian Restaurant,Park,Fried Chicken Joint
624,Vasant Vihar,New Delhi District,110057,28.56447899999999,77.16115499999994,Fast Food Restaurant,Café,Chinese Restaurant,Coffee Shop,Spa
625,Vasant Vihar C Block,New Delhi District,110057,28.567879,77.15832,Asian Restaurant,Indian Restaurant,Playground,Pharmacy,Park
626,Vasundhara Enclave,East District,110096,28.601260000000003,77.321231,Market,Stadium,Gym,Pizza Place,Bakery
627,Vijay Mandal Enclave,South District,110016,28.540768999999976,77.20416299999992,Café,Coffee Shop,Indian Restaurant,Chinese Restaurant,Hotel
628,Vijay Nagar,North District,110009,28.690228,77.201634,Restaurant,Café,Tea Room,Breakfast Spot,Coffee Shop
629,Vikas Puri,West District,110018,28.638774,77.075727,Coffee Shop,Pizza Place,Flea Market,Men's Store,Indian Restaurant
630,Vikaspuri,West District,110018,28.638774,77.075727,Coffee Shop,Pizza Place,Flea Market,Men's Store,Indian Restaurant
631,Vikaspuri Flyover,West District,110018,28.638774,77.075727,Coffee Shop,Pizza Place,Flea Market,Men's Store,Indian Restaurant
632,Vinod Nagar East,East District,110091,28.623101,77.30762200000001,Café,Wings Joint,Dessert Shop,Market,Pizza Place
633,Vinod Nagar North,East District,110092,28.626427000000003,77.290015,Garden,Convenience Store,Snack Place,Hotel,Coffee Shop
634,Vishal Enclave,West District,110027,28.650382000000015,77.11861899999997,Fast Food Restaurant,Café,Indian Restaurant,Snack Place,Diner
635,Vishnu Garden,West District,110018,28.653971000000002,77.100309,Big Box Store,Noodle House,Chinese Restaurant,North Indian Restaurant,Restaurant
636,Vishwakarma Park,East District,110092,28.63599,77.273982,Sushi Restaurant,Arts & Crafts Store,Shopping Mall,IT Services,Mobile Phone Shop
637,Vishwas Park,West District,110059,28.611805,77.05704100000001,Indian Restaurant,ATM,Kids Store,Mobile Phone Shop,Astrologer
638,Vishwas Park Extn Uttam Nagar,West District,110059,28.610002000000005,77.057957,Indian Restaurant,ATM,Kids Store,Mobile Phone Shop,Moving Target
639,Vivek Vihar,Shahdara District,110095,28.67147,77.302295,Hotel,BBQ Joint,Asian Restaurant,Indian Restaurant,Train Station
640,Wazirabad,Central District,110084,28.724929,77.224245,ATM,Chinese Restaurant,Fabric Shop,Frozen Yogurt Shop,Fried Chicken Joint
641,Wea,,,28.63269399999995,77.21965999999998,Indian Restaurant,Café,Hotel,Chinese Restaurant,Bar
642,West Enclave,West District,,28.628375000000002,77.07499600000003,Indian Restaurant,Fast Food Restaurant,Chinese Restaurant,BBQ Joint,Sandwich Place
643,West Punjabi Bagh,West District,,28.663638,77.052814,ATM,Garden,Frozen Yogurt Shop,Fried Chicken Joint,French Restaurant
644,Westend,West District,110087,28.671355999999996,77.09274700000002,Coffee Shop,Hotel,Indian Restaurant,Food Truck,Chinese Restaurant
645,Zakir Nagar,South East Delhi District,110025,28.567270000000004,77.279498,Ski Chalet,Dessert Shop,Athletics & Sports,Indian Restaurant,Asian Restaurant
646,Zone L Dwarka,South West District,110045,28.597807,77.073263,Nightlife Spot,Science Museum,Pool,Hobby Shop,Yoga Studio
