,AreaName,District,PinCode,Longitude,Latitude,Cluster,1st most common venue,2nd most common venue,3rd most common venue,4th most common venue,5th most common venue
0,Sadar Bazaar,New Delhi District,110010,77.12055399999998,28.591759,0,ATM,Convenience Store,Mobile Phone Shop,Café,Shoe Store
1,Tigri,South District,110062,77.23832600000001,28.511275,0,ATM,Indian Restaurant,Electronics Store,Plaza,Fast Food Restaurant
2,Deoli Gaon Nai Basti,South District,110062,77.234013,28.505528000000005,0,ATM,Indian Restaurant,Electronics Store,Trail,Athletics & Sports
3,Devli Extention Deoli Gaon Nai Basti,South District,110062,77.234013,28.505528000000005,0,ATM,Indian Restaurant,Electronics Store,Trail,Athletics & Sports
4,Devli Nai Basti,South District,110062,77.234013,28.505528000000005,0,ATM,Indian Restaurant,Electronics Store,Trail,Athletics & Sports
5,Rajinder Nagar,North East District,110094,77.287433,28.703218000000003,0,ATM,Indian Restaurant,Pizza Place,Fabric Shop,Fried Chicken Joint
6,Bindapur,South West District,110059,77.068586,28.610708999999996,0,ATM,Indian Restaurant,Pool,Mobile Phone Shop,Flower Shop
7,Sitapuri,South West District,110059,77.075381,28.607997,0,ATM,Pool,Market,Business Service,Health & Beauty Service
8,Gulabhi Bagh Om Vihar,West District,110059,77.05264,28.626044000000004,0,ATM,Train Station,Bakery,Mobile Phone Shop,Department Store
9,Om Vihar,West District,110059,77.05264,28.626044000000004,0,ATM,Train Station,Bakery,Mobile Phone Shop,Department Store
10,Residential Floor Om Vihar,West District,110059,77.05264,28.626044000000004,0,ATM,Train Station,Bakery,Mobile Phone Shop,Department Store
11,Dlf Phase 5,West District,110059,77.049516,28.628810999999995,0,ATM,Train Station,Bookstore,Health & Beauty Service,Indian Restaurant
12,Shankar Vihar,New Delhi District,110010,77.14623,28.566631,0,Asian Restaurant,Indian Restaurant,Airport Food Court,Dog Run,Yoga Studio
13,Mahavir Enclave,South West District,110045,77.08236,28.596709,0,Bar,Fast Food Restaurant,Department Store,Indian Restaurant,Science Museum
14,Mahavir Enclave Bengali Colony,South West District,110045,77.08236,28.596709,0,Bar,Fast Food Restaurant,Department Store,Indian Restaurant,Science Museum
15,Chattarpur Enclave Phase 2,South District,110074,77.18784700000002,28.500421,0,Café,Food Truck,Resort,Pub,Indian Restaurant
16,Chhattarpur Enclave Phase1,South District,110074,77.191784,28.500326,0,Café,Food Truck,Resort,Pub,Indian Restaurant
17,South Extension,South East Delhi District,110049,77.219909,28.571260999999996,0,Coffee Shop,Indian Restaurant,Market,Pizza Place,Fast Food Restaurant
18,Vikas Puri,West District,110018,77.075727,28.638774,0,Coffee Shop,Pizza Place,Flea Market,Men's Store,Indian Restaurant
19,Vikaspuri,West District,110018,77.075727,28.638774,0,Coffee Shop,Pizza Place,Flea Market,Men's Store,Indian Restaurant
20,Vikaspuri Flyover,West District,110018,77.075727,28.638774,0,Coffee Shop,Pizza Place,Flea Market,Men's Store,Indian Restaurant
21,Bank Enclave,East District,110031,77.270898,28.642002,0,Cupcake Shop,Dessert Shop,Indian Restaurant,Chinese Restaurant,Fast Food Restaurant
22,Paschim Vihar A 1 Block,West District,110063,77.096991,28.678813,0,Department Store,Bakery,Garden,Indian Restaurant,Train Station
23,10 Dwaraka Marg,South West District,110045,77.087924,28.598530000000004,0,Department Store,Bank,Science Museum,Gym,Fast Food Restaurant
24,Nasirpur,South West District,110045,77.087882,28.600232,0,Department Store,Indian Restaurant,Airport Lounge,Bank,Yoga Studio
25,Rishi Nagar,North West District,110034,77.127398,28.686199,0,Department Store,Indian Restaurant,Diner,Train Station,Food
26,South Anarkali Delhi,South District,,77.227055,28.515603,0,Flea Market,Indian Restaurant,Pharmacy,Plaza,Yoga Studio
27,South Delhi,South District,,77.227055,28.515603,0,Flea Market,Indian Restaurant,Pharmacy,Plaza,Yoga Studio
28,South Ex,South District,,77.227055,28.515603,0,Flea Market,Indian Restaurant,Pharmacy,Plaza,Yoga Studio
29,Madangir,South District,110062,77.228583,28.519653999999996,0,Flea Market,Indian Restaurant,Plaza,Sandwich Place,Pharmacy
30,Duggal Housing Complex,South District,110062,77.228906,28.512932999999997,0,Flea Market,Indian Restaurant,Plaza,Trail,Pharmacy
31,Ambica Vihar,West District,110087,77.080354,28.665092,0,Furniture / Home Store,Asian Restaurant,Indian Restaurant,Mobile Phone Shop,Food
32,Mansarovar Park,Shahdara District,110032,77.299151,28.681864,0,Garden,Indian Restaurant,Movie Theater,Train Station,Food
33,Nawada Uttam Nagar,West District,110059,77.056782,28.618535000000005,0,Indian Restaurant,ATM,Bakery,Train Station,Department Store
34,Rajapuri East Uttam Nagar,West District,110059,77.056782,28.618535000000005,0,Indian Restaurant,ATM,Bakery,Train Station,Department Store
35,Residential Flat Uttam Nagar,West District,110059,77.056782,28.618535000000005,0,Indian Restaurant,ATM,Bakery,Train Station,Department Store
36,Residential Floor Uttam Nagar,West District,110059,77.056782,28.618535000000005,0,Indian Restaurant,ATM,Bakery,Train Station,Department Store
37,Residential House Uttam Nagar,West District,110059,77.056782,28.618535000000005,0,Indian Restaurant,ATM,Bakery,Train Station,Department Store
38,Uttam Nagar,West District,110059,77.056782,28.618535000000005,0,Indian Restaurant,ATM,Bakery,Train Station,Department Store
39,Uttam Nagar Nanhey Park,West District,110059,77.056782,28.618535000000005,0,Indian Restaurant,ATM,Bakery,Train Station,Department Store
40,Uttam Nagar West,West District,110059,77.056782,28.618535000000005,0,Indian Restaurant,ATM,Bakery,Train Station,Department Store
41,Ca Apartments,West District,110063,77.10286900000001,28.671059000000007,0,Indian Restaurant,ATM,Coffee Shop,Chinese Restaurant,Train Station
42,Uttam Nagar Subhash Park Extn,West District,110059,77.055123,28.612310000000004,0,Indian Restaurant,ATM,Kids Store,Mobile Phone Shop,Astrologer
43,Vishwas Park,West District,110059,77.05704100000001,28.611805,0,Indian Restaurant,ATM,Kids Store,Mobile Phone Shop,Astrologer
44,Vishwas Park Extn Uttam Nagar,West District,110059,77.057957,28.610002000000005,0,Indian Restaurant,ATM,Kids Store,Mobile Phone Shop,Moving Target
45,Param Puri,West District,110059,77.05464600000002,28.618947999999993,0,Indian Restaurant,ATM,Train Station,Health & Beauty Service,Pizza Place
46,Santnagar,Central District,110084,77.20271000000001,28.740851999999997,0,Indian Restaurant,Arcade,Electronics Store,Food Truck,Arts & Crafts Store
47,Noor Nagar,South East Delhi District,110025,77.287111,28.557413000000004,0,Indian Restaurant,Athletics & Sports,Coffee Shop,Playground,Falafel Restaurant
48,Shankar Garden,West District,110018,77.07152099999999,28.62927200000001,0,Indian Restaurant,Chinese Restaurant,Hotel,Sandwich Place,Bus Station
49,Batla House New Delhi,South East Delhi District,110025,77.286619,28.567446,0,Indian Restaurant,Coffee Shop,Asian Restaurant,Playground,Yoga Studio
50,Kotla Mubarakpur,South East Delhi District,110003,77.22332300000002,28.573135999999984,0,Indian Restaurant,Coffee Shop,Italian Restaurant,Market,Pizza Place
51,Mahaveer Nagar Kotla Mubarakpur,South East Delhi District,110003,77.22603399999997,28.575093000000017,0,Indian Restaurant,Coffee Shop,Italian Restaurant,Market,Sandwich Place
52,Dwarka Sector 11 Pocket 4,South West District,110075,77.043674,28.587675999999995,0,Indian Restaurant,Department Store,American Restaurant,Grocery Store,Shopping Mall
53,Sector 11 Dwarka Pocket 2,South West District,110075,77.045946,28.585772999999996,0,Indian Restaurant,Department Store,American Restaurant,Grocery Store,Shopping Mall
54,Dwarka Sector 11 Pocket 3,South West District,110075,77.047071,28.585082,0,Indian Restaurant,Department Store,American Restaurant,Shopping Mall,Market
55,Commercial Shop Indra Park,West District,110059,77.068563,28.619936,0,Indian Restaurant,Department Store,Light Rail Station,Food,Farm
56,Keshavpuram,North West District,110035,77.16071,28.688038999999996,0,Indian Restaurant,Department Store,Train Station,Fast Food Restaurant,Shopping Mall
57,Jahangir Puri,North District,110033,77.182357,28.72562,0,Indian Restaurant,Electronics Store,Golf Course,Café,Yoga Studio
58,Tagore Garden Extension,West District,110027,77.11276300000004,28.651729000000014,0,Indian Restaurant,Fast Food Restaurant,Café,BBQ Joint,Light Rail Station
59,West Enclave,West District,,77.07499600000003,28.628375000000002,0,Indian Restaurant,Fast Food Restaurant,Chinese Restaurant,BBQ Joint,Sandwich Place
60,Desh Bandhu Gupta Marg,Central District,110005,77.19424899999996,28.652156999999992,0,Indian Restaurant,Fast Food Restaurant,Dessert Shop,Coffee Shop,Snack Place
61,Shakurpur,North West District,110034,77.14160600000001,28.682335,0,Indian Restaurant,Fast Food Restaurant,Food Truck,Kids Store,Pizza Place
62,Shaheen Bagh New Delhi,South East Delhi District,110025,77.302624,28.544888000000007,0,Indian Restaurant,Fast Food Restaurant,Market,Park,Soccer Stadium
63,Commercial Shop Karol Bagh,Central District,110005,77.192229,28.652978999999995,0,Indian Restaurant,Fast Food Restaurant,Snack Place,Dessert Shop,Coffee Shop
64,Karol Bagh,Central District,110005,77.192229,28.652978999999995,0,Indian Restaurant,Fast Food Restaurant,Snack Place,Dessert Shop,Coffee Shop
65,Chandni Chowk,Central District,110006,77.23364500000001,28.65515900000002,0,Indian Restaurant,Fast Food Restaurant,Snack Place,Market,Hardware Store
66,Sarojini Nagar,South District,110023,77.19575699999999,28.575688000000007,0,Indian Restaurant,Fast Food Restaurant,Spa,Hotel,Market
67,Dwarka 8 Sector,South West District,110077,77.073874,28.575747,0,Indian Restaurant,Fast Food Restaurant,Vegetarian / Vegan Restaurant,Train Station,Yoga Studio
68,Sector 8 Dwarka Block B,South West District,110077,77.073874,28.575747,0,Indian Restaurant,Fast Food Restaurant,Vegetarian / Vegan Restaurant,Train Station,Yoga Studio
69,Sector-8 Dwarka,South West District,110077,77.073874,28.575747,0,Indian Restaurant,Fast Food Restaurant,Vegetarian / Vegan Restaurant,Train Station,Yoga Studio
70,Pant Nagar,South East Delhi District,110014,77.24368499999997,28.58563900000001,0,Indian Restaurant,Hotel,BBQ Joint,Fast Food Restaurant,Market
71,Sector 19B,West District,110063,77.10101699999998,28.66717899999999,0,Indian Restaurant,Hotel,Coffee Shop,ATM,Food Truck
72,Netaji Subash Marg,Central District,110002,77.240409,28.645491999999994,0,Indian Restaurant,Hotel,Cricket Ground,History Museum,Soccer Stadium
73,Daryaganj,Central District,110002,77.241073,28.643996000000012,0,Indian Restaurant,Hotel,Hostel,History Museum,Flea Market
74,Siddharth Enclave,South West District,110059,77.064994,28.617713000000002,0,Indian Restaurant,Hotel,Light Rail Station,Gym,Bus Station
75,Shyam Enclave,Shahdara District,110092,77.30541500000001,28.654005999999995,0,Indian Restaurant,Hotel,Pizza Place,Plaza,Gym
76,Uttam Nagar East,South West District,110059,77.063775,28.619541,0,Indian Restaurant,Hotel,Train Station,Gym,Bus Station
77,Anand Vihar,Shahdara District,110092,77.311955,28.652633000000005,0,Indian Restaurant,Italian Restaurant,Café,Bus Station,Light Rail Station
78,Defence Colony,South East Delhi District,110024,77.23279499999992,28.573199000000013,0,Indian Restaurant,Italian Restaurant,Café,Sandwich Place,Pizza Place
79,Defence Colony Flyover,South East Delhi District,110024,77.23279499999992,28.573199000000013,0,Indian Restaurant,Italian Restaurant,Café,Sandwich Place,Pizza Place
80,Jasola,South East Delhi District,110025,77.29805899999998,28.54253599999999,0,Indian Restaurant,Market,Bank,Soccer Stadium,Soccer Field
81,Jasola Sector 8,South East Delhi District,110025,77.296658,28.544643,0,Indian Restaurant,Market,Bank,Soccer Stadium,Soccer Field
82,Kiran Garden,West District,110059,77.046439,28.619453,0,Indian Restaurant,Motorcycle Shop,Café,Train Station,Yoga Studio
83,Block Uu Uttari Pitampura,North West District,110034,77.13941,28.705857,0,Indian Restaurant,Multiplex,Pizza Place,Shopping Mall,Coffee Shop
84,Kapas Hera Estate,New Delhi District,110021,77.19813700000002,28.594804000000003,0,Indian Restaurant,Nightclub,History Museum,Recreation Center,Mediterranean Restaurant
85,Kapas Hera Extension,New Delhi District,110021,77.19813700000002,28.594804000000003,0,Indian Restaurant,Nightclub,History Museum,Recreation Center,Mediterranean Restaurant
86,Om Vihar Extn Delhi,West District,110059,77.05062399999998,28.617795,0,Indian Restaurant,Paper / Office Supplies Store,Pizza Place,Café,Train Station
87,Om Vihar Extn Om Vihar,West District,110059,77.05062399999998,28.617795,0,Indian Restaurant,Paper / Office Supplies Store,Pizza Place,Café,Train Station
88,Khushi Ram Park Param Puri,West District,110059,77.051712,28.616920999999998,0,Indian Restaurant,Paper / Office Supplies Store,Train Station,Astrologer,Café
89,Sector 4 Rohini,North West District,110085,77.10273,28.707737,0,Indian Restaurant,Park,Business Service,Electronics Store,Flower Shop
90,Abul Fazal Enclave Part 2 New Delhi,South East Delhi District,110025,77.299861,28.549208,0,Indian Restaurant,Park,Market,Fast Food Restaurant,Flower Shop
91,D Block Vikaspuri,West District,110018,77.0674,28.6336,0,Indian Restaurant,Pizza Place,Café,Flea Market,Fast Food Restaurant
92,Rama Park Block B,West District,110059,77.03459499999998,28.622717999999995,0,Indian Restaurant,Pizza Place,Fast Food Restaurant,Motorcycle Shop,Mobile Phone Shop
93,Sector-14 Rohini,North West District,110085,77.13338699999998,28.714734,0,Indian Restaurant,Pizza Place,Food,Shopping Mall,Café
94,Abul Fazal Enclave Jamia Nagar,South East Delhi District,110025,77.297802,28.555496,0,Indian Restaurant,Playground,Arcade,Yoga Studio,Food
95,Okhla,South East Delhi District,110025,77.289191,28.564067,0,Indian Restaurant,Playground,Coffee Shop,Yoga Studio,Food
96,Okhla Vihar,South East Delhi District,110025,77.290006,28.554818,0,Indian Restaurant,Playground,Coffee Shop,Yoga Studio,Food
97,Old Delhi,South East Delhi District,110025,77.289901,28.563078,0,Indian Restaurant,Playground,Coffee Shop,Yoga Studio,Food
98,Deoli Khanpur,South District,110062,77.230424,28.509519,0,Indian Restaurant,Plaza,Trail,Café,Yoga Studio
99,Duggal Colony,South District,110062,77.230325,28.510371,0,Indian Restaurant,Plaza,Trail,Café,Yoga Studio
100,Jawahar Park,South District,110062,77.23062,28.507696,0,Indian Restaurant,Plaza,Trail,Café,Yoga Studio
101,Khanpur,South District,110062,77.230424,28.509519,0,Indian Restaurant,Plaza,Trail,Café,Yoga Studio
102,Khanpur Colony,South District,110062,77.230424,28.509519,0,Indian Restaurant,Plaza,Trail,Café,Yoga Studio
103,Khanpur Deoli,South District,110062,77.230424,28.509519,0,Indian Restaurant,Plaza,Trail,Café,Yoga Studio
104,Khanpur Krishna Park,South District,110062,77.232441,28.509358,0,Indian Restaurant,Plaza,Trail,Café,Yoga Studio
105,Krishna Park Jawahar Park,South District,110062,77.232441,28.509358,0,Indian Restaurant,Plaza,Trail,Café,Yoga Studio
106,Sector 2 Dwarka,South West District,110075,77.067843,28.598827,0,Indian Restaurant,Pool,Hobby Shop,Chinese Restaurant,Yoga Studio
107,Ram Colony Chattarpur,South District,110030,77.17904699999998,28.496446999999996,0,Indian Restaurant,Pub,Resort,Farm,Restaurant
108,Karkardooma,Shahdara District,110092,77.302592,28.649875000000005,0,Indian Restaurant,Shopping Mall,Pizza Place,Yoga Studio,Café
109,Block Ap Poorvi Pitampura,North West District,110034,77.140724,28.703265999999996,0,Indian Restaurant,Snack Place,Coffee Shop,Hotel,Farm
110,Mayur Vihar,East District,110091,77.30118800000001,28.607676,0,Indian Restaurant,Snack Place,Department Store,Market,Gym / Fitness Center
111,Khari Baoli,Central District,110006,77.22294400000004,28.657404000000003,0,Indian Restaurant,Snack Place,Dessert Shop,Fast Food Restaurant,Market
112,Mianwali Nagar Peera Garhi,West District,110056,77.096072,28.679509,0,Indian Restaurant,Train Station,ATM,Department Store,Indian Sweet Shop
113,Ashirwad,West District,110059,77.058429,28.622128,0,Indian Restaurant,Train Station,Department Store,Bus Station,Bakery
114,Badarpur,South East Delhi District,110044,77.300538,28.503488999999995,0,Indian Restaurant,Train Station,Light Rail Station,Yoga Studio,Flower Shop
115,Civil Lines,Central District,110054,77.21888,28.680644,0,Light Rail Station,Indian Restaurant,Chinese Restaurant,Trail,Yoga Studio
116,Dda Flats,New Delhi District,110058,77.107619,28.606942,0,Market,Indian Restaurant,Train Station,Coffee Shop,French Restaurant
117,Bhagwati Vihar,West District,110059,77.06236,28.612684,0,Mobile Phone Shop,ATM,Indian Restaurant,Falafel Restaurant,Frozen Yogurt Shop
118,Dabri,South West District,110045,77.084165,28.608799999999995,0,Movie Theater,Grocery Store,Indian Restaurant,Chinese Restaurant,Yoga Studio
119,Palam,South West District,110045,77.088389,28.580917,0,Museum,Bookstore,Indian Restaurant,Snack Place,Business Service
120,Palam Vihar,South West District,110045,77.088389,28.580917,0,Museum,Bookstore,Indian Restaurant,Snack Place,Business Service
121,Loni,Shahdara District,110032,77.291986,28.687996,0,Park,Indian Restaurant,Pizza Place,Yoga Studio,French Restaurant
122,Sector 17,North District,110089,77.115233,28.741052,0,Pizza Place,Indian Restaurant,Spa,Multiplex,Juice Bar
123,Block A1 Chattarpur,South District,110074,77.184047,28.494484,0,Resort,Indian Restaurant,Pub,Farm,Restaurant
124,Rajpur,South District,110068,77.19068800000001,28.494419999999998,0,Resort,Indian Restaurant,Pub,Food Truck,Restaurant
125,Rajpur Khurd Village,South District,110068,77.19068800000001,28.494419999999998,0,Resort,Indian Restaurant,Pub,Food Truck,Restaurant
126,Sector17 Rohini,North West District,110086,77.073372,28.721034,0,Restaurant,Chinese Restaurant,Indian Restaurant,Food Truck,Ice Cream Shop
127,Sector22 Rohini,North West District,110086,77.073372,28.721034,0,Restaurant,Chinese Restaurant,Indian Restaurant,Food Truck,Ice Cream Shop
128,Sector-21 Rohini,North West District,110086,77.067062,28.713045,0,Restaurant,Indian Restaurant,Bakery,Food,Farm
129,Katwaria Sarai,South District,110016,77.18800799999998,28.539874000000005,0,Restaurant,Indian Restaurant,Café,Food Truck,Record Shop
130,Jagdamba Vihar,South West District,110046,77.095706,28.60105,0,Sporting Goods Shop,Indian Restaurant,Juice Bar,Food,Farm
131,Sadh Nagar Palam Colony,South West District,110045,77.0938,28.591095,0,Sporting Goods Shop,Indian Restaurant,Museum,Bar,Falafel Restaurant
132,Mahrauli,South East Delhi District,110044,77.301768,28.500353,0,Train Station,Indian Restaurant,Light Rail Station,Yoga Studio,Flower Shop
133,Mayur Vihar Iii,East District,110096,77.336514,28.610627,1,ATM,Park,Gift Shop,Hotel,Fried Chicken Joint
134,Mayur Vihar Phase 3,East District,110096,77.336514,28.610627,1,ATM,Park,Gift Shop,Hotel,Fried Chicken Joint
135,Gharoli Dairy Farm,East District,110096,77.332072,28.612945000000003,1,ATM,Pizza Place,Diner,Restaurant,Hotel
136,Shahabad Mohammadpur,New Delhi District,110037,77.071742,28.557121000000002,1,Airport Terminal,Bar,Hotel,Food,Café
137,Siddhartha Extension,South East Delhi District,110014,77.258955,28.580603000000004,1,Bus Station,Neighborhood,Gym,Bakery,Hotel
138,A1 Block Paschim Vihar Delhi,West District,110063,77.09326499999999,28.669306,1,Coffee Shop,Hotel,Food Truck,Indian Restaurant,Chinese Restaurant
139,Paschim Vihar,West District,110063,77.09326499999999,28.669306,1,Coffee Shop,Hotel,Food Truck,Indian Restaurant,Chinese Restaurant
140,Paschim Vihar Main,West District,110063,77.09326499999999,28.669306,1,Coffee Shop,Hotel,Food Truck,Indian Restaurant,Chinese Restaurant
141,Westend,West District,110087,77.09274700000002,28.671355999999996,1,Coffee Shop,Hotel,Indian Restaurant,Food Truck,Chinese Restaurant
142,Begampur Park,West District,110063,77.094644,28.67366500000001,1,Coffee Shop,Indian Restaurant,Hotel,Department Store,Food Truck
143,Bamnoli Dwarka Sector 28,South West District,110045,77.075086,28.596492,1,Department Store,Hobby Shop,Indian Restaurant,Hotel,Flower Shop
144,Bamnoli Sector 28 Dwarka,South West District,110045,77.075086,28.596492,1,Department Store,Hobby Shop,Indian Restaurant,Hotel,Flower Shop
145,Sector 28 Dwarka,South West District,110045,77.075086,28.596492,1,Department Store,Hobby Shop,Indian Restaurant,Hotel,Flower Shop
146,Ghitorni Village South Delhi,New Delhi District,110030,77.14537900000002,28.492572,1,Furniture / Home Store,Hotel,Sandwich Place,Pizza Place,Bakery
147,Hari Nagar,West District,110064,77.111014,28.624510999999995,1,Furniture / Home Store,Soup Place,Arcade,Stadium,Hotel
148,Vinod Nagar North,East District,110092,77.290015,28.626427000000003,1,Garden,Convenience Store,Snack Place,Hotel,Coffee Shop
149,Shanti Park Dwarka,South West District,110075,77.04943200000001,28.584408,1,Hotel,Asian Restaurant,Electronics Store,Light Rail Station,Market
150,Dwarka 29 Sector,South West District,110075,77.05091600000002,28.57616000000001,1,Hotel,Asian Restaurant,Electronics Store,Shopping Mall,Light Rail Station
151,Sector 18 A,South West District,110075,77.050481,28.577017000000005,1,Hotel,Asian Restaurant,Electronics Store,Shopping Mall,Light Rail Station
152,Sector 29 Dwarka,South West District,110075,77.05091600000002,28.57616000000001,1,Hotel,Asian Restaurant,Electronics Store,Shopping Mall,Light Rail Station
153,Vivek Vihar,Shahdara District,110095,77.302295,28.67147,1,Hotel,BBQ Joint,Asian Restaurant,Indian Restaurant,Train Station
154,Uttam Nagar Vani Vihar,West District,110059,77.06379200000002,28.61749,1,Hotel,Bus Station,Gym,Light Rail Station,Pizza Place
155,Dwarka Sector 19,South West District,110075,77.053127,28.576972000000005,1,Hotel,Electronics Store,Shopping Mall,Light Rail Station,Yoga Studio
156,Sector 19,South West District,110075,77.052768,28.577133,1,Hotel,Electronics Store,Shopping Mall,Light Rail Station,Yoga Studio
157,Sector 19 Dwarka,South West District,110075,77.053127,28.576972000000005,1,Hotel,Electronics Store,Shopping Mall,Light Rail Station,Yoga Studio
158,Kapashera,New Delhi District,110097,77.076869,28.527669,1,Hotel,Farm,Water Park,Yoga Studio,Food
159,Dwarka Sector 9,South West District,110077,77.065129,28.57934,1,Hotel,Fast Food Restaurant,Electronics Store,Light Rail Station,Indian Restaurant
160,Sector 9 Dwarka,South West District,110077,77.065129,28.57934,1,Hotel,Fast Food Restaurant,Electronics Store,Light Rail Station,Indian Restaurant
161,Meera Bagh,West District,110087,77.089295,28.658887,1,Hotel,Food Truck,Coffee Shop,Fast Food Restaurant,Yoga Studio
162,Siddhartha Enclave,South East Delhi District,110014,77.25860899999999,28.574014999999992,1,Hotel,Gym / Fitness Center,Indian Restaurant,Neighborhood,Gym
163,Central Secretariat,New Delhi District,110001,77.21584299999996,28.61596599999999,1,Hotel,Indian Restaurant,History Museum,Cocktail Bar,Restaurant
164,Sector 10 Dwarka,South West District,110075,77.057824,28.583059999999993,1,Hotel,Indian Restaurant,Light Rail Station,Electronics Store,Playground
165,Sector 8B,East District,110096,77.328481,28.612632,1,Hotel,Indian Restaurant,Music Venue,Yoga Studio,Farm
166,Surajmal Vihar,Shahdara District,110092,77.30598499999999,28.66159900000001,1,Hotel,Indian Restaurant,Pizza Place,Big Box Store,Athletics & Sports
167,Sidharth Ext,South East Delhi District,110014,77.255716,28.579252,1,Hotel,Indian Restaurant,Sandwich Place,Neighborhood,Bakery
168,Dwarka Sector3,New Delhi District,110001,77.20718600000005,28.636282000000023,1,Hotel,Indian Restaurant,Snack Place,Light Rail Station,Café
169,Aerocity,New Delhi District,110037,77.121662,28.552016000000005,1,Hotel,Indian Restaurant,Spa,Bed & Breakfast,Hotel Bar
170,Sultanpur Extension,South District,110030,77.164988,28.496868000000003,1,Hotel,Japanese Restaurant,Coffee Shop,Indian Restaurant,Light Rail Station
171,Rithala,North West District,110085,77.100659,28.718672,1,Hotel,Light Rail Station,Clothing Store,Restaurant,Falafel Restaurant
172,Dcm School Marg,West District,110008,77.16419599999998,28.649655999999997,1,Hotel,Movie Theater,Bakery,Café,Metro Station
173,Patel Nagar,West District,110008,77.163834,28.652637000000002,1,Hotel,Movie Theater,Electronics Store,Light Rail Station,Pizza Place
174,South Patel Nagar,West District,110008,77.163834,28.652637000000002,1,Hotel,Movie Theater,Electronics Store,Light Rail Station,Pizza Place
175,Ashram,South East Delhi District,110014,77.25944700000001,28.578916999999997,1,Hotel,Neighborhood,Gym / Fitness Center,Gym,Bakery
176,Maharani Bagh,South East Delhi District,110065,77.26529600000002,28.573233000000002,1,Hotel,Neighborhood,Gym / Fitness Center,Gym,Bakery
177,Sunlight Colony,South East Delhi District,110014,77.25830099999999,28.576912999999998,1,Hotel,Neighborhood,Gym / Fitness Center,Gym,Bakery
178,New Ashok Nagar,East District,110096,77.30742,28.594022000000002,1,Hotel,Restaurant,American Restaurant,Bakery,Gym
179,D Block Lane,New Delhi District,110028,77.13996299999998,28.627061000000005,1,Hotel,Sandwich Place,Snack Place,Fast Food Restaurant,Arcade
180,Rohini Sector 5,North West District,110085,77.103875,28.713639,1,Hotel,Shopping Mall,Clothing Store,Light Rail Station,Yoga Studio
181,Mahipalpur,New Delhi District,110037,77.12948499999997,28.545271999999983,1,Hotel,Spa,Hotel Bar,Light Rail Station,Plaza
182,Mahipalpur Extension,New Delhi District,110037,77.12948499999997,28.545271999999983,1,Hotel,Spa,Hotel Bar,Light Rail Station,Plaza
183,Aya Nagar,South District,110047,77.133169,28.475084,1,Hotel,Yoga Studio,Light Rail Station,Furniture / Home Store,Dim Sum Restaurant
184,Pocket 2 Sector D,East District,110096,77.327863,28.613827,1,Indian Restaurant,Music Venue,Pharmacy,Hotel,Yoga Studio
185,Sector-19 Rohini,North District,110042,77.142842,28.734704,1,Metro Station,Electronics Store,Hotel,Café,Flower Shop
186,Zakir Nagar,South East Delhi District,110025,77.279498,28.567270000000004,1,Ski Chalet,Dessert Shop,Athletics & Sports,Indian Restaurant,Asian Restaurant
187,New Layal Pur,North East District,110053,77.267115,28.674807999999995,1,Tourist Information Center,Shopping Mall,Platform,Hotel,Train Station
188,Sector 18B Dwarka,South West District,110078,77.03178,28.585601,2,ATM,Bar,Falafel Restaurant,Frozen Yogurt Shop,Fried Chicken Joint
189,Wazirabad,Central District,110084,77.224245,28.724929,2,ATM,Chinese Restaurant,Fabric Shop,Frozen Yogurt Shop,Fried Chicken Joint
190,Bakkarwala,West District,110041,77.016713,28.659125,2,ATM,Garden,Frozen Yogurt Shop,Fried Chicken Joint,French Restaurant
191,Baprola,West District,110043,77.014447,28.641795,2,ATM,Garden,Frozen Yogurt Shop,Fried Chicken Joint,French Restaurant
192,Chhawla,South West District,110071,77.002434,28.561283,2,ATM,Garden,Frozen Yogurt Shop,Fried Chicken Joint,French Restaurant
193,Inder Enclave,North West District,110086,77.0464,28.70528,2,ATM,Garden,Frozen Yogurt Shop,Fried Chicken Joint,French Restaurant
194,Loknayak Puram,West District,110041,77.010044,28.663064,2,ATM,Garden,Frozen Yogurt Shop,Fried Chicken Joint,French Restaurant
195,Pocket 6 Sector 2,North District,110040,77.110325,28.834456,2,ATM,Garden,Frozen Yogurt Shop,Fried Chicken Joint,French Restaurant
196,Puth Khurd Village,North District,110039,77.04933,28.770351,2,ATM,Garden,Frozen Yogurt Shop,Fried Chicken Joint,French Restaurant
197,Razapur Khurd,West District,110059,77.029816,28.638323,2,ATM,Garden,Frozen Yogurt Shop,Fried Chicken Joint,French Restaurant
198,Sector 12 Pocket 7,North District,110040,77.099224,28.840909,2,ATM,Garden,Frozen Yogurt Shop,Fried Chicken Joint,French Restaurant
199,Sector4Pkt 1,New Delhi District,110038,77.106693,28.514217,2,ATM,Garden,Frozen Yogurt Shop,Fried Chicken Joint,French Restaurant
200,West Punjabi Bagh,West District,,77.052814,28.663638,2,ATM,Garden,Frozen Yogurt Shop,Fried Chicken Joint,French Restaurant
201,Nangloi,West District,110041,77.065816,28.672178,2,ATM,Gym,Falafel Restaurant,Frozen Yogurt Shop,Fried Chicken Joint
202,Dwarka More Mohan Garden,West District,110059,77.037293,28.636866,2,ATM,Indian Restaurant,IT Services,Fabric Shop,Fried Chicken Joint
203,Mohan Garden,West District,110059,77.037293,28.636866,2,ATM,Indian Restaurant,IT Services,Fabric Shop,Fried Chicken Joint
204,Najafgarh,South West District,110043,76.980431,28.613304,2,ATM,Mobile Phone Shop,Falafel Restaurant,Frozen Yogurt Shop,Fried Chicken Joint
205,Sector 1,North District,110040,77.116154,28.849061,2,ATM,Resort,Fabric Shop,Frozen Yogurt Shop,Fried Chicken Joint
206,Chattarpur,South District,110030,77.174925,28.48533,3,ATM,Boutique,Antique Shop,Farm,Falafel Restaurant
207,Chattarpur Enclave,South District,110030,77.174925,28.48533,3,ATM,Boutique,Antique Shop,Farm,Falafel Restaurant
208,Residential Flat Dharam Pura,South West District,110043,76.992862,28.607164,3,ATM,Discount Store,Men's Store,Falafel Restaurant,Frozen Yogurt Shop
209,Sector 111,North West District,110086,77.051255,28.736906,3,ATM,Heliport,Tourist Information Center,Dessert Shop,Farm
210,Kondali Main,East District,110096,77.324394,28.614001,3,ATM,Restaurant,Pharmacy,Fabric Shop,Fried Chicken Joint
211,Devli,South District,110062,77.23216,28.503704,3,ATM,Trail,Electronics Store,Athletics & Sports,French Restaurant
212,Devli Export Enclave,South District,110062,77.23216,28.503704,3,ATM,Trail,Electronics Store,Athletics & Sports,French Restaurant
213,Devli Extention,South District,110062,77.23216,28.503704,3,ATM,Trail,Electronics Store,Athletics & Sports,French Restaurant
214,Igi Airport,New Delhi District,110037,77.08437000000002,28.555013000000002,3,Airport Lounge,Coffee Shop,Airport Service,Restaurant,Café
215,Govindpura Old,East District,110051,77.285121,28.645439000000007,3,Arcade,Gift Shop,Dessert Shop,Food Court,Shopping Mall
216,Vasant Vihar C Block,New Delhi District,110057,77.15832,28.567879,3,Asian Restaurant,Indian Restaurant,Playground,Pharmacy,Park
217,D3 Street,New Delhi District,110057,77.154981,28.564080999999995,3,Asian Restaurant,Speakeasy,Market,Gym,Tea Room
218,Pontoon Bridge,North East District,110054,77.232257,28.705869999999997,3,Asian Restaurant,Tibetan Restaurant,Restaurant,Café,Bus Station
219,Nawada,West District,110059,77.049585,28.622926,3,Astrologer,Pizza Place,Paper / Office Supplies Store,Bookstore,Café
220,Nawada Extension,West District,110059,77.049585,28.622926,3,Astrologer,Pizza Place,Paper / Office Supplies Store,Bookstore,Café
221,Pratap Khand,Shahdara District,110095,77.30823,28.672288000000005,3,Athletics & Sports,Hotel,Metro Station,Asian Restaurant,Shop & Service
222,Ashok Vihar,North West District,110052,77.167153,28.691599999999998,3,Athletics & Sports,Indian Restaurant,Dessert Shop,Market,Department Store
223,Ashok Vihar Phase-1,North West District,110052,77.167153,28.691599999999998,3,Athletics & Sports,Indian Restaurant,Dessert Shop,Market,Department Store
224,Residential Floor East Ram Nagar,East District,,77.27083600000002,28.623834999999996,3,Athletics & Sports,River,Gym,IT Services,Light Rail Station
225,Tagore Garden,West District,110027,77.11068700000001,28.645860999999993,3,BBQ Joint,Diner,Multiplex,Indian Restaurant,Shopping Mall
226,Alaknanda Gangotri Enclave,South East Delhi District,110019,77.252141,28.524452999999998,3,BBQ Joint,Restaurant,Market,Thai Restaurant,Gym
227,Block J Rajouri Garden Extension,West District,110027,77.114278,28.64008999999999,3,Bakery,Fast Food Restaurant,BBQ Joint,Shopping Mall,Restaurant
228,Vasant Enclave,New Delhi District,110057,77.159724,28.574318,3,Bakery,Gourmet Shop,Salad Place,Market,Playground
229,Narela,North District,110040,77.097797,28.852488000000005,3,Bank,Clothing Store,Electronics Store,Yoga Studio,Farm
230,North Campus,North District,,77.097797,28.852488000000005,3,Bank,Clothing Store,Electronics Store,Yoga Studio,Farm
231,Sector 108,North District,110040,77.096334,28.855418,3,Bank,Clothing Store,Electronics Store,Yoga Studio,Farm
232,Sector 112,North District,110040,77.096334,28.855418,3,Bank,Clothing Store,Electronics Store,Yoga Studio,Farm
233,Bhagat Chandra Hospital,South West District,110045,77.081135,28.593252,3,Bar,Bank,Science Museum,Hobby Shop,Nightlife Spot
234,Sector 4,South District,110017,77.22837899999998,28.524276999999994,3,Bar,Lounge,Multiplex,Chinese Restaurant,Japanese Restaurant
235,Rohini Sector 24,North West District,110085,77.085407,28.725016999999998,3,Bar,Mobile Phone Shop,Hot Dog Joint,Yoga Studio,Farm
236,Sector 24 Rohini,North West District,110085,77.085407,28.725016999999998,3,Bar,Mobile Phone Shop,Hot Dog Joint,Yoga Studio,Farm
237,Sector-24 Rohini,North West District,110085,77.085407,28.725016999999998,3,Bar,Mobile Phone Shop,Hot Dog Joint,Yoga Studio,Farm
238,Vishnu Garden,West District,110018,77.100309,28.653971000000002,3,Big Box Store,Noodle House,Chinese Restaurant,North Indian Restaurant,Restaurant
239,Jamia Nagar,South East Delhi District,110025,77.28141900000001,28.560838999999994,3,Boat or Ferry,Pharmacy,Athletics & Sports,Indian Restaurant,Gym / Fitness Center
240,Jain Colony,Central District,110007,77.194123,28.685289000000004,3,Breakfast Spot,Cheese Shop,Miscellaneous Shop,Playground,Asian Restaurant
241,Malka Ganj,Central District,110007,77.20548499999997,28.675838,3,Breakfast Spot,Fast Food Restaurant,Pizza Place,Indian Restaurant,Café
242,Karawal Nagar,North East District,110094,77.268624,28.725454000000006,3,Bus Station,ATM,Motorcycle Shop,Electronics Store,Shopping Mall
243,Mundka,West District,110041,77.030648,28.681933000000004,3,Business Service,ATM,Mobile Phone Shop,Train Station,Falafel Restaurant
244,Sector 23,North West District,110085,77.081978,28.719668,3,Business Service,Yoga Studio,Falafel Restaurant,Frozen Yogurt Shop,Fried Chicken Joint
245,Sector-23 Rohini,North West District,110085,77.081978,28.719668,3,Business Service,Yoga Studio,Falafel Restaurant,Frozen Yogurt Shop,Fried Chicken Joint
246,Matiala,West District,110059,77.046822,28.614166,3,Café,Bookstore,Indian Restaurant,IT Services,Clothing Store
247,Matiala Extension,West District,110059,77.046822,28.614166,3,Café,Bookstore,Indian Restaurant,IT Services,Clothing Store
248,Gautam Nagar,South District,110049,77.21163099999998,28.561381999999988,3,Café,Chinese Restaurant,Hotel,Bar,Clothing Store
249,Pocket 9 Sector C,South District,110070,77.143912,28.539503000000007,3,Café,Chinese Restaurant,Spa,Italian Restaurant,Pizza Place
250,Residential Floor Tilak Nagar,West District,110018,77.08886900000002,28.63774799999999,3,Café,Clothing Store,Light Rail Station,Department Store,Restaurant
251,Tilak Nagar,West District,110018,77.08886900000002,28.63774799999999,3,Café,Clothing Store,Light Rail Station,Department Store,Restaurant
252,Golf Links,New Delhi District,110003,77.23118400000011,28.597260999999953,3,Café,Coffee Shop,Chinese Restaurant,Restaurant,Bar
253,Moti Bagh South,New Delhi District,110021,77.17260000000005,28.58055000000001,3,Café,Coffee Shop,Convenience Store,Bakery,Bistro
254,Kalyan Vihar,North District,110009,77.197438,28.69104700000001,3,Café,Coffee Shop,Fast Food Restaurant,North Indian Restaurant,Bakery
255,Vijay Mandal Enclave,South District,110016,77.20416299999992,28.540768999999976,3,Café,Coffee Shop,Indian Restaurant,Chinese Restaurant,Hotel
256,Sarvodaya Enclave,South District,110017,77.201102,28.537996000000014,3,Café,Coffee Shop,Italian Restaurant,Indian Restaurant,Chinese Restaurant
257,Delhi Cantt,New Delhi District,110010,77.13247,28.596475,3,Café,Coffee Shop,Shopping Mall,Cafeteria,Yoga Studio
258,Experion Heartsong,New Delhi District,110010,77.13247,28.596475,3,Café,Coffee Shop,Shopping Mall,Cafeteria,Yoga Studio
259,Sector 6,New Delhi District,110021,77.16739200000005,28.57906300000001,3,Café,Coffee Shop,South Indian Restaurant,Asian Restaurant,Playground
260,Pocket 9 Sector B,New Delhi District,110070,77.15225600000001,28.531719000000002,3,Café,Dessert Shop,Arcade,Spa,Fast Food Restaurant
261,Ganesh Nagar,West District,110018,77.08923200000001,28.63549699999999,3,Café,Fast Food Restaurant,Chinese Restaurant,Light Rail Station,Music Store
262,Sheikh Sarai Phase2 New Delhi,South District,110017,77.228266,28.534072999999992,3,Café,Grocery Store,Tea Room,Fast Food Restaurant,Lounge
263,Masjid Moth,South East Delhi District,110048,77.23422699999996,28.54100800000001,3,Café,Hotel,Park,Indian Restaurant,Liquor Store
264,New Friends Colony,South East Delhi District,110025,77.27041000000004,28.56555600000001,3,Café,Hotel,Pizza Place,Indian Restaurant,Sandwich Place
265,Greater Kailash Ii,South East Delhi District,110048,77.241845,28.534883000000015,3,Café,Indian Restaurant,BBQ Joint,Coffee Shop,Restaurant
266,Kalu Sarai,South District,110016,77.19956600000002,28.539457999999996,3,Café,Indian Restaurant,Chinese Restaurant,Coffee Shop,Italian Restaurant
267,Kota House Entrance,New Delhi District,110011,77.225119,28.606086999999945,3,Café,Indian Restaurant,Chinese Restaurant,Coffee Shop,Restaurant
268,Azad Apartments,South District,110016,77.20163000000001,28.542398000000016,3,Café,Indian Restaurant,Coffee Shop,Chinese Restaurant,Bar
269,Safdarjung Development Area,South District,110016,77.19904800000013,28.55122100000002,3,Café,Indian Restaurant,Coffee Shop,Restaurant,Bar
270,Ber Sarai,New Delhi District,110016,77.180933,28.54940799999999,3,Café,Indian Restaurant,Flea Market,Shopping Mall,History Museum
271,Ishwar Nagar,South East Delhi District,110065,77.26795599999998,28.559345000000004,3,Café,Indian Restaurant,Hotel,Pizza Place,Electronics Store
272,Panchsheel Enclave,South District,110017,77.22947599999999,28.543793999999995,3,Café,Indian Restaurant,Market,Bistro,Ice Cream Shop
273,Dr Ambedkar Colony,South District,110030,77.18013299999998,28.505209999999998,3,Café,Japanese Restaurant,Arts & Crafts Store,Indian Restaurant,Hotel
274,Burari,Central District,110084,77.199031,28.755099,3,Café,Paper / Office Supplies Store,Yoga Studio,Frozen Yogurt Shop,Fried Chicken Joint
275,Burari Garhi,Central District,110084,77.199031,28.755099,3,Café,Paper / Office Supplies Store,Yoga Studio,Frozen Yogurt Shop,Fried Chicken Joint
276,Anand Niketan,New Delhi District,110021,77.16459499999999,28.579844999999995,3,Café,Plaza,University,Snack Place,Bakery
277,Karampura,West District,110015,77.14742299999999,28.664786000000003,3,Café,Shopping Mall,Indian Restaurant,Cafeteria,Fast Food Restaurant
278,Karampura West,West District,110015,77.14742299999999,28.664786000000003,3,Café,Shopping Mall,Indian Restaurant,Cafeteria,Fast Food Restaurant
279,Residential Flat Pocket A,South East Delhi District,110076,77.28838799999998,28.534737000000003,3,Café,Soccer Stadium,Pizza Place,Soccer Field,Breakfast Spot
280,Pocket 8 Sector C,South District,110070,77.14151500000001,28.537005999999998,3,Café,Spa,BBQ Joint,Gastropub,Pizza Place
281,Pocket 7 Sector D,South District,110070,77.14621799999999,28.529379000000002,3,Café,Spa,Thai Restaurant,Gastropub,Chinese Restaurant
282,Pocket 11 Sector B,South District,110070,77.15147699999997,28.532134,3,Café,Spa,Toy / Game Store,Dessert Shop,Park
283,Police Lines,North District,110009,77.20246399999998,28.697125000000018,3,Café,Tea Room,Pizza Place,Coffee Shop,Restaurant
284,Vinod Nagar East,East District,110091,77.30762200000001,28.623101,3,Café,Wings Joint,Dessert Shop,Market,Pizza Place
285,Sector C Vasant Kunj,South District,110070,77.14597200000001,28.534377000000003,3,Chinese Restaurant,Gastropub,BBQ Joint,Thai Restaurant,Nightclub
286,Nizamuddin,South East Delhi District,110013,77.244335,28.589525999999985,3,Chinese Restaurant,Indian Restaurant,Restaurant,Hotel,Café
287,Sector B,South District,110070,77.16459899999998,28.522471,3,Chinese Restaurant,Italian Restaurant,Gym / Fitness Center,Pizza Place,Park
288,Sector-B Vasant Kunj,South District,110070,77.16459899999998,28.522471,3,Chinese Restaurant,Italian Restaurant,Gym / Fitness Center,Pizza Place,Park
289,Sectorb Vasant Kunj,South District,110070,77.16459899999998,28.522471,3,Chinese Restaurant,Italian Restaurant,Gym / Fitness Center,Pizza Place,Park
290,Gujranwala Town,West District,110018,77.08086000000002,28.638975,3,Clothing Store,BBQ Joint,Coffee Shop,Metro Station,Chinese Restaurant
291,Dwarka Sector 17,South West District,110078,77.02804400000001,28.591822999999994,3,Clothing Store,Restaurant,Bakery,Electronics Store,Indian Restaurant
292,Pocket A Sector 17 Dwarka,South West District,110078,77.02804400000001,28.591822999999994,3,Clothing Store,Restaurant,Bakery,Electronics Store,Indian Restaurant
293,Sector 17 Dwarka,South West District,110078,77.02804400000001,28.591822999999994,3,Clothing Store,Restaurant,Bakery,Electronics Store,Indian Restaurant
294,Jaitpur,South East Delhi District,110044,77.327316,28.50552,3,Clothing Store,Yoga Studio,Fabric Shop,Frozen Yogurt Shop,Fried Chicken Joint
295,Narmada Apartments,South East Delhi District,110019,77.248206,28.52700700000002,3,Coffee Shop,BBQ Joint,Italian Restaurant,Restaurant,Café
296,Shakti Nagar,Central District,110007,77.195243,28.67965,3,Coffee Shop,Breakfast Spot,Snack Place,Playground,Pizza Place
297,Guru Ram Das Nagar,North District,110007,77.19860799999998,28.687432,3,Coffee Shop,Café,Breakfast Spot,Fast Food Restaurant,Indian Restaurant
298,Malviya Nagar,South District,110017,77.21024500000007,28.534883000000015,3,Coffee Shop,Café,Indian Restaurant,American Restaurant,Asian Restaurant
299,Saiyad Ul Ajaib Village,South District,110030,77.20084700000002,28.518080000000015,3,Coffee Shop,Café,Indian Restaurant,Pizza Place,Convenience Store
300,Navjeevan Vihar,South District,110017,77.199801,28.533019,3,Coffee Shop,Café,Italian Restaurant,Pizza Place,Indian Restaurant
301,Shanti Niketan,New Delhi District,110021,77.16890600000004,28.576494000000014,3,Coffee Shop,Café,Playground,Comfort Food Restaurant,Gourmet Shop
302,Masjid Moth Village,South District,110049,77.21718699999998,28.561160999999977,3,Coffee Shop,Clothing Store,Fast Food Restaurant,Chinese Restaurant,Pizza Place
303,Paryavaran Complex,South District,110068,77.20312800000005,28.516060000000003,3,Coffee Shop,Convenience Store,Pizza Place,Café,Multiplex
304,Paryavaran Complex Main,South District,110068,77.20312800000005,28.516060000000003,3,Coffee Shop,Convenience Store,Pizza Place,Café,Multiplex
305,Pocket 10 Sector B,South District,110070,77.15365900000005,28.532418000000003,3,Coffee Shop,Fast Food Restaurant,Italian Restaurant,Chinese Restaurant,Café
306,Sector B Pocket 10,South District,110070,77.15365900000005,28.532418000000003,3,Coffee Shop,Fast Food Restaurant,Italian Restaurant,Chinese Restaurant,Café
307,Greater Kailash,South East Delhi District,110048,77.24258100000003,28.553460000000022,3,Coffee Shop,Indian Restaurant,Bar,Café,Fast Food Restaurant
308,Dlf Ankur Vihar,South District,110049,77.21323100000004,28.552668000000015,3,Coffee Shop,Indian Restaurant,Bar,Stadium,Chinese Restaurant
309,Gulmohar Enclave,South District,110049,77.21039199999997,28.558254000000012,3,Coffee Shop,Indian Restaurant,Café,Pizza Place,Bar
310,Saket,South District,110017,77.20677299999997,28.523848,3,Coffee Shop,Indian Restaurant,Café,Pizza Place,Hotel
311,Sfs Flats Saket,South District,110017,77.20677299999997,28.523848,3,Coffee Shop,Indian Restaurant,Café,Pizza Place,Hotel
312,Hauz Khas,South District,110016,77.20774799999994,28.549648000000005,3,Coffee Shop,Indian Restaurant,Chinese Restaurant,Bar,Lounge
313,Hauz Khas Enclave,South District,110016,77.20364000000002,28.548088000000003,3,Coffee Shop,Indian Restaurant,Pizza Place,Café,Sandwich Place
314,Mandakini Enclave,South East Delhi District,110019,77.24860200000006,28.529337000000027,3,Coffee Shop,Indian Restaurant,Restaurant,Market,Pizza Place
315,Freedom Fighter Vihar,South District,110068,77.20206199999998,28.510955000000003,3,Coffee Shop,Italian Restaurant,Asian Restaurant,Café,Garden
316,Freedom Fighters Enclave,South District,110068,77.20206199999998,28.510955000000003,3,Coffee Shop,Italian Restaurant,Asian Restaurant,Café,Garden
317,Freedom Fighter Enclave,South District,110068,77.19899,28.509987,3,Coffee Shop,Italian Restaurant,Pub,Café,Mediterranean Restaurant
318,Timarpur,Central District,110054,77.22135200000001,28.701694,3,Coffee Shop,Light Rail Station,Tibetan Restaurant,Asian Restaurant,Café
319,Shivalik,South District,110017,77.20652500000004,28.532298000000004,3,Coffee Shop,Pizza Place,Café,Lounge,Miscellaneous Shop
320,Anupam Garden 10Th Lane,South District,110017,77.20850299999998,28.51413400000001,3,Coffee Shop,Pub,Falafel Restaurant,Mediterranean Restaurant,Park
321,Lalita Park,East District,110092,77.274076,28.630145,3,Coffee Shop,River,Gym,Shopping Mall,IT Services
322,Shakarpur,East District,110092,77.279287,28.626964,3,Coffee Shop,Shopping Mall,Gym,IT Services,Yoga Studio
323,Som Vihar,New Delhi District,110022,77.175111,28.571889,3,Coffee Shop,South Indian Restaurant,Comfort Food Restaurant,Café,Gourmet Shop
324,Maya Enclave,West District,110064,77.108939,28.618855,3,Department Store,Arcade,Soup Place,Market,Dim Sum Restaurant
325,Mayur Vihar I,East District,110091,77.29437099999998,28.598893999999987,3,Department Store,Bakery,Hotel,Light Rail Station,Pizza Place
326,Mayur Vihar Phase 1,East District,110091,77.29437099999998,28.598893999999987,3,Department Store,Bakery,Hotel,Light Rail Station,Pizza Place
327,Pocket 9,South West District,110045,77.09011,28.599696,3,Department Store,Garden,Frozen Yogurt Shop,Fried Chicken Joint,French Restaurant
328,Priyadarshini Vihar,East District,110092,77.277938,28.642246,3,Dessert Shop,Café,Arcade,Mediterranean Restaurant,Yoga Studio
329,Pandav Nagar,East District,110091,77.28567499999998,28.619712999999997,3,Dessert Shop,Hindu Temple,Food & Drink Shop,Bus Station,North Indian Restaurant
330,Ip Extension,East District,110092,77.302631,28.629337,3,Dessert Shop,Market,Sandwich Place,Park,Food
331,Fajalpur Village,East District,110092,77.28918399999999,28.624655,3,Dessert Shop,Park,Moving Target,Garden,Gym
332,Akshardham,East District,110092,77.27833,28.612331999999995,3,Dessert Shop,Restaurant,Food & Drink Shop,Bus Station,North Indian Restaurant
333,Block A,West District,110018,77.10177799999998,28.644128000000013,3,Donut Shop,Multiplex,Restaurant,Shopping Mall,Fast Food Restaurant
334,Subzi Mandi,Central District,110007,77.20414400000001,28.671910000000004,3,Donut Shop,Snack Place,Grocery Store,Park,Sandwich Place
335,Model Town,North District,,77.171765,28.730261,3,Electronics Store,Yoga Studio,Falafel Restaurant,Frozen Yogurt Shop,Fried Chicken Joint
336,Sultanpur,South District,110030,77.160476,28.48498,3,Farm,Dessert Shop,Construction & Landscaping,Yoga Studio,Falafel Restaurant
337,Kailash Hills,South East Delhi District,110065,77.24676899999996,28.55478700000001,3,Fast Food Restaurant,Bar,Coffee Shop,Indian Restaurant,Plaza
338,Kamla Nagar,Central District,110007,77.20362700000004,28.682824999999987,3,Fast Food Restaurant,Breakfast Spot,Chinese Restaurant,Indian Restaurant,Pizza Place
339,Vasant Vihar,New Delhi District,110057,77.16115499999994,28.56447899999999,3,Fast Food Restaurant,Café,Chinese Restaurant,Coffee Shop,Spa
340,Nelson Mandela Marg,New Delhi District,110067,77.16635899999997,28.553430000000013,3,Fast Food Restaurant,Café,Indian Restaurant,Coffee Shop,Chinese Restaurant
341,Vishal Enclave,West District,110027,77.11861899999997,28.650382000000015,3,Fast Food Restaurant,Café,Indian Restaurant,Snack Place,Diner
342,East Of Kailash,South East Delhi District,110065,77.24798700000007,28.555346000000014,3,Fast Food Restaurant,Coffee Shop,Bar,Restaurant,Pizza Place
343,Residential Flat East Of Kailash,South East Delhi District,110065,77.24798700000007,28.555346000000014,3,Fast Food Restaurant,Coffee Shop,Bar,Restaurant,Pizza Place
344,Meenakshi Garden,West District,110018,77.10362200000003,28.639439000000007,3,Fast Food Restaurant,Donut Shop,Coffee Shop,Restaurant,Café
345,Mount Kailash Apartment,South East Delhi District,110065,77.245946,28.553428000000007,3,Fast Food Restaurant,Indian Restaurant,Bar,Hotel,Coffee Shop
346,Roop Nagar,Central District,110007,77.20038999999998,28.68498399999999,3,Fast Food Restaurant,Indian Restaurant,Donut Shop,Café,Breakfast Spot
347,C R Park,South East Delhi District,110019,77.253064,28.54434100000001,3,Fast Food Restaurant,Indian Restaurant,Market,Coffee Shop,Pizza Place
348,Jangpura Extension,South East Delhi District,110014,77.24240299999998,28.58121899999999,3,Fast Food Restaurant,Indian Restaurant,Metro Station,Market,BBQ Joint
349,Lajpat Nagar,South East Delhi District,110024,77.24156099999998,28.576061999999986,3,Fast Food Restaurant,Sandwich Place,Indie Movie Theater,Coffee Shop,Indian Restaurant
350,Mansarovar Garden,West District,110015,77.133346,28.642099000000005,3,Furniture / Home Store,Chinese Restaurant,Park,Café,Electronics Store
351,Mansarover Garden,West District,110015,77.133346,28.642099000000005,3,Furniture / Home Store,Chinese Restaurant,Park,Café,Electronics Store
352,Naraina,West District,110028,77.144943,28.643119000000002,3,Furniture / Home Store,Convenience Store,Gym,Yoga Studio,Falafel Restaurant
353,Peeragarhi Village,West District,110087,77.0906,28.6764,3,Garden,Ice Cream Shop,Gym / Fitness Center,Hotel,BBQ Joint
354,Mayur Vihar Phase 2,East District,110091,77.29783399999998,28.618247,3,Garden,Juice Bar,Sandwich Place,Bank,Ice Cream Shop
355,Dwarka New Delhi 110075,South West District,110075,77.043334,28.575835,3,Garden Center,Gift Shop,Falafel Restaurant,Frozen Yogurt Shop,Fried Chicken Joint
356,E 2 Vasant Kunj,South District,110070,77.15324499999998,28.514980000000005,3,Gym / Fitness Center,Chinese Restaurant,Italian Restaurant,Park,Fried Chicken Joint
357,Vasant Kunj,South District,110070,77.15324499999998,28.514980000000005,3,Gym / Fitness Center,Chinese Restaurant,Italian Restaurant,Park,Fried Chicken Joint
358,Vasant Kunj Enclave,South District,110070,77.15324499999998,28.514980000000005,3,Gym / Fitness Center,Chinese Restaurant,Italian Restaurant,Park,Fried Chicken Joint
359,Vasant Kunj Marg,South District,110070,77.15324499999998,28.514980000000005,3,Gym / Fitness Center,Chinese Restaurant,Italian Restaurant,Park,Fried Chicken Joint
360,Shalimar Bagh,North District,110088,77.166944,28.708723999999997,3,Gym / Fitness Center,Indian Restaurant,Bakery,Convenience Store,Vegetarian / Vegan Restaurant
361,Sector 37 Rohini,North District,110086,77.060163,28.74381,3,Heliport,Yoga Studio,Falafel Restaurant,Frozen Yogurt Shop,Fried Chicken Joint
362,Commonwealth Games Village,East District,110092,77.273474,28.615,3,Hindu Temple,Convenience Store,North Indian Restaurant,Train Station,Athletics & Sports
363,Delhi Cantonment,New Delhi District,,77.133538,28.584669,3,Historic Site,Business Service,Restaurant,Cocktail Bar,Flower Shop
364,Indraprastha,New Delhi District,110013,77.25155600000001,28.61453,3,Historic Site,Light Rail Station,Museum,Café,Art Museum
365,Hill View,New Delhi District,110010,77.123512,28.575996,3,History Museum,Cricket Ground,Playground,Australian Restaurant,Yoga Studio
366,Sangam Vihar,South East Delhi District,110080,77.244059,28.500277,3,Ice Cream Shop,Electronics Store,Yoga Studio,Falafel Restaurant,Frozen Yogurt Shop
367,Sector 7,South District,110017,77.22782099999996,28.530248000000025,3,Indian Restaurant,Bar,Burger Joint,Lounge,Clothing Store
368,Sheikh Sarai,South District,110017,77.22113399999998,28.53634699999998,3,Indian Restaurant,Bar,Burger Joint,Lounge,Clothing Store
369,Sheikh Sarai Inner Lane,South District,110017,77.22113399999998,28.53634699999998,3,Indian Restaurant,Bar,Burger Joint,Lounge,Clothing Store
370,Dda Flat,South District,110017,77.22153700000005,28.526149999999983,3,Indian Restaurant,Bar,Clothing Store,Café,Hotel
371,Antriksh Bhawan,New Delhi District,110001,77.22285300000016,28.628720000000026,3,Indian Restaurant,Café,Chinese Restaurant,Coffee Shop,Hotel
372,Hauz Rani,South District,110017,77.20939999999997,28.52897699999998,3,Indian Restaurant,Café,Coffee Shop,Clothing Store,Donut Shop
373,Lajpat Nagar Ii,South East Delhi District,110024,77.24230200000007,28.569781,3,Indian Restaurant,Café,Coffee Shop,Fast Food Restaurant,Donut Shop
374,Lajpat Nagar Iii,South East Delhi District,110024,77.23910699999998,28.56725600000002,3,Indian Restaurant,Café,Coffee Shop,Market,Pizza Place
375,Lajpat Nagar Iv,South East Delhi District,110024,77.24074599999996,28.562979999999992,3,Indian Restaurant,Café,Fast Food Restaurant,Coffee Shop,Market
376,Sukhdev Vihar,South East Delhi District,110025,77.274676,28.555179999999982,3,Indian Restaurant,Café,Fast Food Restaurant,Middle Eastern Restaurant,Pizza Place
377,Bhiwadi,,,77.21965999999998,28.63269399999995,3,Indian Restaurant,Café,Hotel,Chinese Restaurant,Bar
378,Delhi,New Delhi District,,77.21965999999998,28.63269399999995,3,Indian Restaurant,Café,Hotel,Chinese Restaurant,Bar
379,Fatehpurberi,New Delhi District,,77.21965999999998,28.63269399999995,3,Indian Restaurant,Café,Hotel,Chinese Restaurant,Bar
380,Kanjhawla,New Delhi District,,77.21965999999998,28.63269399999995,3,Indian Restaurant,Café,Hotel,Chinese Restaurant,Bar
381,Kaushambi,,,77.21965999999998,28.63269399999995,3,Indian Restaurant,Café,Hotel,Chinese Restaurant,Bar
382,Kishangarh Village New Delhi,New Delhi District,,77.21965999999998,28.63269399999995,3,Indian Restaurant,Café,Hotel,Chinese Restaurant,Bar
383,Nanhey Park New Delhi,New Delhi District,,77.21965999999998,28.63269399999995,3,Indian Restaurant,Café,Hotel,Chinese Restaurant,Bar
384,Sadulajab,New Delhi District,,77.21965999999998,28.63269399999995,3,Indian Restaurant,Café,Hotel,Chinese Restaurant,Bar
385,Sector24,New Delhi District,,77.21965999999998,28.63269399999995,3,Indian Restaurant,Café,Hotel,Chinese Restaurant,Bar
386,Sonepat,,,77.21965999999998,28.63269399999995,3,Indian Restaurant,Café,Hotel,Chinese Restaurant,Bar
387,Telibara,New Delhi District,,77.21965999999998,28.63269399999995,3,Indian Restaurant,Café,Hotel,Chinese Restaurant,Bar
388,Wea,,,77.21965999999998,28.63269399999995,3,Indian Restaurant,Café,Hotel,Chinese Restaurant,Bar
389,Connaught Place,New Delhi District,110001,77.21969600000008,28.632734999999983,3,Indian Restaurant,Café,Hotel,Chinese Restaurant,Coffee Shop
390,Rajiv Chowk,New Delhi District,110001,77.2192750000001,28.63160599999996,3,Indian Restaurant,Café,Hotel,Chinese Restaurant,Coffee Shop
391,Greater Kailash 1,South East Delhi District,110048,77.23610199999993,28.548714000000015,3,Indian Restaurant,Café,Hotel,Market,Bakery
392,Kailash Colony,South District,110048,77.24069000000006,28.554172999999995,3,Indian Restaurant,Café,Market,Coffee Shop,Bakery
393,Panchsheel Vihar,South District,110017,77.22207700000008,28.534383000000002,3,Indian Restaurant,Clothing Store,Bar,Burger Joint,Lounge
394,Sector 5,South District,110017,77.22410200000007,28.523519999999987,3,Indian Restaurant,Clothing Store,Café,Bar,Chinese Restaurant
395,Shahpur Jat,South District,110049,77.21040700000002,28.549127,3,Indian Restaurant,Coffee Shop,Bar,Chinese Restaurant,Lounge
396,Niti Bagh,South District,110049,77.21532399999998,28.558990999999995,3,Indian Restaurant,Coffee Shop,Bar,Chinese Restaurant,Stadium
397,Green Park,South District,110016,77.20360400000004,28.556856,3,Indian Restaurant,Coffee Shop,Café,Bar,Restaurant
398,Panchsheel Park,South District,110017,77.21507599999997,28.543272,3,Indian Restaurant,Coffee Shop,Café,Hostel,Asian Restaurant
399,Arjun Nagar,South District,110029,77.19800200000006,28.561887999999996,3,Indian Restaurant,Coffee Shop,Café,Restaurant,Bar
400,Khirki Extension,South District,110017,77.217764,28.532780999999932,3,Indian Restaurant,Coffee Shop,Clothing Store,Café,Bar
401,Guru Angad Nagar,South East Delhi District,110019,77.25394599999997,28.54934500000001,3,Indian Restaurant,Coffee Shop,Fast Food Restaurant,Hotel,Japanese Restaurant
402,Gulmohar Park,South District,110049,77.213521,28.556302999999982,3,Indian Restaurant,Coffee Shop,Stadium,Bar,Park
403,Munirka,New Delhi District,110067,77.174918,28.553441000000007,3,Indian Restaurant,College Cafeteria,Fast Food Restaurant,Sandwich Place,Steakhouse
404,Munirka Flyover,New Delhi District,110067,77.174918,28.553441000000007,3,Indian Restaurant,College Cafeteria,Fast Food Restaurant,Sandwich Place,Steakhouse
405,Munirka Marg,New Delhi District,110067,77.174918,28.553441000000007,3,Indian Restaurant,College Cafeteria,Fast Food Restaurant,Sandwich Place,Steakhouse
406,Munirka Vihar,New Delhi District,110067,77.174918,28.553441000000007,3,Indian Restaurant,College Cafeteria,Fast Food Restaurant,Sandwich Place,Steakhouse
407,L Zone Delhi,West District,110027,77.11216599999995,28.636125999999994,3,Indian Restaurant,Fast Food Restaurant,Bakery,Coffee Shop,Donut Shop
408,I P Extension Patparganj,East District,110091,77.291734,28.61211700000001,3,Indian Restaurant,Garden,Light Rail Station,Dessert Shop,Coffee Shop
409,Patparganj,East District,110091,77.291734,28.61211700000001,3,Indian Restaurant,Garden,Light Rail Station,Dessert Shop,Coffee Shop
410,Safdarjung,South District,110029,77.19487699999996,28.565741,3,Indian Restaurant,Hotel,Gym / Fitness Center,Lounge,Spa
411,Safdarjung Enclave,South District,110029,77.19487699999996,28.565741,3,Indian Restaurant,Hotel,Gym / Fitness Center,Lounge,Spa
412,Sewa Nagar,South East Delhi District,110003,77.22524900000005,28.57717200000001,3,Indian Restaurant,Italian Restaurant,Café,Restaurant,Bakery
413,B K Dutt Colony,South East Delhi District,110003,77.215914,28.581665999999988,3,Indian Restaurant,Japanese Restaurant,Athletics & Sports,Historic Site,Metro Station
414,Jor Bagh,South East Delhi District,110003,77.21383000000002,28.588307999999994,3,Indian Restaurant,Metro Station,Bakery,Italian Restaurant,Airport
415,Epdp Colony,South East Delhi District,110003,77.224496,28.583716999999986,3,Indian Restaurant,Modern European Restaurant,Athletics & Sports,Chinese Restaurant,Diner
416,Lodhi Colony,South East Delhi District,110003,77.224496,28.583716999999986,3,Indian Restaurant,Modern European Restaurant,Athletics & Sports,Chinese Restaurant,Diner
417,Ashok Nagar,West District,110018,77.10159599999999,28.635974000000008,3,Indian Restaurant,Multiplex,Shopping Mall,Fast Food Restaurant,Donut Shop
418,Dps Matiyala,West District,110059,77.04412,28.612464999999997,3,Indian Restaurant,Pet Store,Convenience Store,IT Services,Clothing Store
419,Chittaranjan Park,South East Delhi District,110019,77.24829899999995,28.538074999999992,3,Indian Restaurant,Restaurant,Asian Restaurant,Coffee Shop,Café
420,Neb Sarai,South District,110062,77.198864,28.505609,3,Italian Restaurant,Asian Restaurant,Garden,Mediterranean Restaurant,Pub
421,Bees Sutri Harijan Basti,South District,110062,77.197623,28.50522,3,Italian Restaurant,Asian Restaurant,Mediterranean Restaurant,Pub,Indian Restaurant
422,Om Vihar Phase 4,West District,110059,77.049997,28.625908,3,Italian Restaurant,Pizza Place,Mobile Phone Shop,Café,Health & Beauty Service
423,Jagriti Enclave Shreshtha Vihar,Shahdara District,110092,77.316371,28.655879,3,Italian Restaurant,Plaza,Track,Café,Bar
424,Shreshtha Vihar,Shahdara District,110092,77.318579,28.658515,3,Italian Restaurant,Pool,Track,Athletics & Sports,Fried Chicken Joint
425,Sushant Lok Delhi,Shahdara District,110092,77.316155,28.657155,3,Italian Restaurant,Pool,Track,Athletics & Sports,Fried Chicken Joint
426,Bharthal,South West District,110077,77.047411,28.544379,3,Jewelry Store,Yoga Studio,Fabric Shop,Frozen Yogurt Shop,Fried Chicken Joint
427,Lalita Park Foot Over Bridge,East District,110092,77.27074700000001,28.631705000000004,3,Light Rail Station,River,Gym,IT Services,Shopping Mall
428,Block Jp Poorvi Pitampura,North West District,110034,77.14598,28.702801999999995,3,Market,Snack Place,Sandwich Place,Arts & Crafts Store,Fast Food Restaurant
429,Manglapuri,South West District,110045,77.087511,28.588744,3,Men's Store,Museum,Airport Lounge,Snack Place,Bar
430,Manglapuri Village,South West District,110045,77.087511,28.588744,3,Men's Store,Museum,Airport Lounge,Snack Place,Bar
431,Sector 103,North District,110042,77.142806,28.735093,3,Metro Station,Bath House,Electronics Store,Athletics & Sports,Yoga Studio
432,L Zone Dwarka Phase 2 Delhi,South West District,110078,77.019343,28.613626,3,Metro Station,Leather Goods Store,Asian Restaurant,Cosmetics Shop,Electronics Store
433,Sector 16A Dwarka,South West District,110078,77.018489,28.611971999999998,3,Metro Station,Leather Goods Store,Cosmetics Shop,Farm,Farmers Market
434,Residential Floor Ram Nagar,Shahdara District,110032,77.296504,28.680237,3,Movie Theater,Ice Cream Shop,Vegetarian / Vegan Restaurant,Train Station,Food
435,Gazipur,East District,110096,77.318143,28.633402999999994,3,Movie Theater,Pizza Place,Multiplex,Café,Hotel
436,Prime Chowk,New Delhi District,110011,77.208822,28.608729,3,Music Venue,Government Building,Tea Room,History Museum,Yoga Studio
437,Dwarka Sub City,South West District,110045,77.073263,28.597807,3,Nightlife Spot,Science Museum,Pool,Hobby Shop,Yoga Studio
438,Sector 1 Dwarka,South West District,110045,77.073263,28.597807,3,Nightlife Spot,Science Museum,Pool,Hobby Shop,Yoga Studio
439,Zone L Dwarka,South West District,110045,77.073263,28.597807,3,Nightlife Spot,Science Museum,Pool,Hobby Shop,Yoga Studio
440,Sector 16B Dwarka,South West District,110078,77.017662,28.599926,3,North Indian Restaurant,Light Rail Station,Yoga Studio,Fabric Shop,Fried Chicken Joint
441,Babarpur,Shahdara District,110032,77.279249,28.688691000000002,3,Park,ATM,Ice Cream Shop,Motorcycle Shop,Chocolate Shop
442,Budh Vihar,East District,110091,77.313299,28.622737,3,Park,Café,Resort,Gym,French Restaurant
443,Raja Puri,North District,110009,77.18352500000002,28.709453,3,Park,Chinese Restaurant,Restaurant,Bank,Bus Station
444,Sector 12,North District,110085,77.122771,28.728298,3,Park,Department Store,Food Court,Clothing Store,Flower Shop
445,Subhash Park Extn New Delhi,Shahdara District,110032,77.276699,28.679682000000003,3,Park,Gym / Fitness Center,Chocolate Shop,Light Rail Station,Shipping Store
446,Masjid Moth Phase 2,South East Delhi District,110048,77.23353399999998,28.540532999999993,3,Park,Hotel,Café,Ice Cream Shop,Restaurant
447,Geetanjali Enclave,South District,110017,77.20199099999995,28.530190999999974,3,Pizza Place,Coffee Shop,Indian Restaurant,Café,Hotel
448,Sector 26 Dwarka,South West District,110077,77.055081,28.545199,3,Platform,Light Rail Station,Business Service,Farm,Yoga Studio
449,Navin Shahdara,Shahdara District,,77.294197,28.671679,3,Platform,Train Station,Light Rail Station,Vegetarian / Vegan Restaurant,Clothing Store
450,Shahdara,Shahdara District,110032,77.294197,28.671679,3,Platform,Train Station,Light Rail Station,Vegetarian / Vegan Restaurant,Clothing Store
451,Sector 30,North District,110042,77.082597,28.755792,3,Public Bathroom,Business Service,Falafel Restaurant,Frozen Yogurt Shop,Fried Chicken Joint
452,Greater Kailash Enclave Ii,South East Delhi District,110048,77.23854699999995,28.539217,3,Restaurant,Asian Restaurant,Café,Indian Restaurant,Coffee Shop
453,Godavari Apartments,South East Delhi District,110019,77.25343199999999,28.52651600000001,3,Restaurant,BBQ Joint,Convenience Store,Food & Drink Shop,Market
454,Vijay Nagar,North District,110009,77.201634,28.690228,3,Restaurant,Café,Tea Room,Breakfast Spot,Coffee Shop
455,Alaknanda,South East Delhi District,110019,77.25015400000001,28.52793899999998,3,Restaurant,Coffee Shop,Convenience Store,BBQ Joint,Market
456,Durga Vihar New Delhi,South West District,110043,76.984881,28.594923,3,Restaurant,Yoga Studio,Fabric Shop,Frozen Yogurt Shop,Fried Chicken Joint
457,Sector 18 Dwarka New Delhi,South West District,110078,77.03364499999999,28.589568999999994,3,Shopping Mall,Indian Restaurant,Clothing Store,Restaurant,Bakery
458,Sector-18 Dwarka,South West District,110078,77.03364499999999,28.589568999999994,3,Shopping Mall,Indian Restaurant,Clothing Store,Restaurant,Bakery
459,Sector 18 Sector 18A Dwarka,South West District,110078,77.03670400000001,28.58863000000001,3,Shopping Mall,Indian Restaurant,Clothing Store,Restaurant,Market
460,Sector 18A Dwarka,South West District,110078,77.03670400000001,28.58863000000001,3,Shopping Mall,Indian Restaurant,Clothing Store,Restaurant,Market
461,Shadipur,West District,110008,77.15193699999999,28.652243,3,Shopping Mall,Metro Station,Movie Theater,Cafeteria,Fast Food Restaurant
462,Sector-D Vasant Kunj,South District,110070,77.1461,28.521405000000005,3,Spa,Juice Bar,Bank,Gift Shop,Snack Place
463,Sahibabad,North District,110042,77.096549,28.744516,3,Spa,Yoga Studio,Falafel Restaurant,Frozen Yogurt Shop,Fried Chicken Joint
464,Residential Floor Drayaganj,New Delhi District,110001,77.20741,28.610071,3,Spiritual Center,Music Venue,Falafel Restaurant,Frozen Yogurt Shop,Fried Chicken Joint
465,Residential Floorblocka Sector,New Delhi District,110001,77.20741,28.610071,3,Spiritual Center,Music Venue,Falafel Restaurant,Frozen Yogurt Shop,Fried Chicken Joint
466,Residential Floorpaschim Vihar,New Delhi District,110001,77.20741,28.610071,3,Spiritual Center,Music Venue,Falafel Restaurant,Frozen Yogurt Shop,Fried Chicken Joint
467,Residential Floorsector,New Delhi District,110001,77.20741,28.610071,3,Spiritual Center,Music Venue,Falafel Restaurant,Frozen Yogurt Shop,Fried Chicken Joint
468,R K Puram,South West District,110045,77.094487,28.59833,3,Sporting Goods Shop,Juice Bar,Fabric Shop,Frozen Yogurt Shop,Fried Chicken Joint
469,Bamnoli,South West District,110077,77.031618,28.545682,3,Squash Court,Bank,Auto Garage,Yoga Studio,Farmers Market
470,Bamnoli Village Delhi,South West District,110077,77.031618,28.545682,3,Squash Court,Bank,Auto Garage,Yoga Studio,Farmers Market
471,Dhul Siras,South West District,110077,77.03127,28.549419,3,Squash Court,Bank,Auto Garage,Yoga Studio,Farmers Market
472,Anand Lok,South District,110049,77.218116,28.557200999999996,3,Stadium,Indian Restaurant,Bar,Spanish Restaurant,Other Great Outdoors
473,Tughlakabad,South East Delhi District,110044,77.267811,28.512079,3,Supplement Shop,Castle,Business Service,Yoga Studio,Farm
474,Ramesh Park,East District,110092,77.271834,28.635525,3,Sushi Restaurant,Arts & Crafts Store,Shopping Mall,IT Services,Mobile Phone Shop
475,Vishwakarma Park,East District,110092,77.273982,28.63599,3,Sushi Restaurant,Arts & Crafts Store,Shopping Mall,IT Services,Mobile Phone Shop
476,Mehrauli,South District,110030,77.17933700000002,28.521341000000003,3,Thai Restaurant,Bar,Italian Restaurant,Indian Restaurant,Market
477,Mehrauli Village,South District,110030,77.17933700000002,28.521341000000003,3,Thai Restaurant,Bar,Italian Restaurant,Indian Restaurant,Market
478,Residential Flat Mehrauli,South District,110030,77.17933700000002,28.521341000000003,3,Thai Restaurant,Bar,Italian Restaurant,Indian Restaurant,Market
479,Nangloi Saiyed Village,West District,110087,77.08348,28.660145,3,Tourist Information Center,Convenience Store,Asian Restaurant,Fast Food Restaurant,Clothing Store
480,Bank Colony,Shahdara District,110093,77.311683,28.70331,3,Tourist Information Center,Print Shop,Yoga Studio,Fried Chicken Joint,French Restaurant
481,Partap Nagar,Shahdara District,110093,77.307316,28.708526,3,Tourist Information Center,Print Shop,Yoga Studio,Fried Chicken Joint,French Restaurant
482,Rampura Marg,North West District,110035,77.153963,28.676958000000003,3,Train Station,ATM,Flower Shop,Baby Store,Falafel Restaurant
483,Tri Nagar,North West District,110035,77.156999,28.678393,3,Train Station,Arts & Crafts Store,Light Rail Station,Restaurant,Yoga Studio
484,Jangpura,South East Delhi District,110014,77.24602200000001,28.585417,3,Train Station,BBQ Joint,Indian Restaurant,Metro Station,Café
485,Baljeet Nagar,West District,110008,77.15715,28.653045,3,Train Station,Metro Station,Light Rail Station,Indian Restaurant,Movie Theater
486,Shivaji Marg,West District,110015,77.152738,28.662334999999988,3,Train Station,Shopping Mall,Café,Indian Restaurant,Fast Food Restaurant
487,Mirpur Turk,North East District,110094,77.265361,28.706748,3,Weight Loss Center,Bus Station,Men's Store,Yoga Studio,Falafel Restaurant
488,B4 Block,North East District,110053,77.266174,28.699916,3,Weight Loss Center,Men's Store,Yoga Studio,Falafel Restaurant,Frozen Yogurt Shop
489,Sector 25 Rohini,North West District,110085,77.094379,28.731926,3,Women's Store,Spa,Mobile Phone Shop,Bar,Yoga Studio
490,Bank Colony Deoli,South District,110062,77.224467,28.500987,3,Yoga Studio,Shopping Plaza,Chinese Restaurant,Electronics Store,ATM
491,Gharoli,East District,110096,77.334202,28.620359,4,ATM,Diner,Pizza Place,Business Service,Farm
492,Sector 11,North West District,110085,77.109005,28.733389999999996,4,ATM,Photography Studio,Multiplex,Juice Bar,Pizza Place
493,Sector 11 Rohini,North West District,110085,77.109005,28.733389999999996,4,ATM,Photography Studio,Multiplex,Juice Bar,Pizza Place
494,Khanpur Dhani,North East District,110094,77.279332,28.709851,4,ATM,Pizza Place,Bank,Astrologer,Diner
495,Govindpura,East District,110051,77.28488700000001,28.645781,4,Arcade,Pizza Place,Dessert Shop,Food Court,Gift Shop
496,New Govindpura,East District,110051,77.28488700000001,28.645781,4,Arcade,Pizza Place,Dessert Shop,Food Court,Gift Shop
497,Nirman Vihar,East District,110092,77.287782,28.635381999999996,4,Arcade,Pizza Place,Dessert Shop,Mediterranean Restaurant,Chinese Restaurant
498,East Delhi,East District,,77.28582700000001,28.635928999999994,4,Arcade,Shopping Mall,Pizza Place,Dessert Shop,Mediterranean Restaurant
499,Gulab Bagh,East District,110092,77.28514399999997,28.63636500000001,4,Arcade,Shopping Mall,Pizza Place,Dessert Shop,Mediterranean Restaurant
500,Dwarka Flyover,South West District,110075,77.079503,28.592907,4,Bank,Gym,Fast Food Restaurant,Hobby Shop,Yoga Studio
501,Block Ld Dakshini Pitampura,North West District,110034,77.120353,28.69176,4,Bar,Gym / Fitness Center,Fast Food Restaurant,Shopping Mall,Yoga Studio
502,Cd Block Dakshini Pitampura,North West District,110034,77.120353,28.69176,4,Bar,Gym / Fitness Center,Fast Food Restaurant,Shopping Mall,Yoga Studio
503,Pitampura,North West District,110034,77.120353,28.69176,4,Bar,Gym / Fitness Center,Fast Food Restaurant,Shopping Mall,Yoga Studio
504,Poorvi Pitampura,North West District,110034,77.120353,28.69176,4,Bar,Gym / Fitness Center,Fast Food Restaurant,Shopping Mall,Yoga Studio
505,Uttari Pitampura,North West District,110034,77.120353,28.69176,4,Bar,Gym / Fitness Center,Fast Food Restaurant,Shopping Mall,Yoga Studio
506,Masoodpur,New Delhi District,110070,77.15416200000001,28.526909999999994,4,Bar,Vegetarian / Vegan Restaurant,Café,Spa,Fast Food Restaurant
507,Janakpuri,West District,110058,77.088521,28.621667,4,Café,Clothing Store,Gym,Fast Food Restaurant,Department Store
508,Delhi Apartments,West District,110078,77.054309,28.603676,4,Café,Cocktail Bar,Chinese Restaurant,Fast Food Restaurant,Pizza Place
509,Sector 13,North District,110089,77.128913,28.721065000000003,4,Café,Department Store,Park,Shopping Mall,Food
510,Sector 13 Rohini,North District,110089,77.128913,28.721065000000003,4,Café,Department Store,Park,Shopping Mall,Food
511,Sector 12 Dwarka Pocket 3,South West District,110078,77.04682000000001,28.595862000000007,4,Café,Fast Food Restaurant,Indian Restaurant,Pizza Place,Restaurant
512,Dwarka Sector 12 Pocket 4,South West District,110078,77.04379500000002,28.595862000000007,4,Café,Fast Food Restaurant,Pizza Place,Chinese Restaurant,Indian Restaurant
513,Sector 3 Dwarka,West District,110078,77.044155,28.606631,4,Café,Fried Chicken Joint,Clothing Store,Fast Food Restaurant,Yoga Studio
514,Sector 12 Dwarka Pocket 2,South West District,110078,77.04788099999999,28.595479000000008,4,Café,Indian Restaurant,Fast Food Restaurant,Pizza Place,Department Store
515,Hastsal,West District,110059,77.060879,28.636428999999996,4,Café,Market,Flea Market,Indian Restaurant,Fast Food Restaurant
516,Lig Flats,West District,110059,77.06070999999999,28.634795,4,Café,Market,Flea Market,Indian Restaurant,Fast Food Restaurant
517,Residential Flat Pocket D,South East Delhi District,110076,77.296619,28.531203,4,Café,Pizza Place,Grocery Store,Yoga Studio,Fried Chicken Joint
518,Sarita Vihar,South East Delhi District,110076,77.294073,28.530896,4,Café,Pizza Place,Grocery Store,Yoga Studio,Fried Chicken Joint
519,Rohini Sector 9,North District,110085,77.127455,28.717325,4,Department Store,Pizza Place,Multiplex,Food,Shopping Mall
520,Sector 9,North District,110085,77.127455,28.717325,4,Department Store,Pizza Place,Multiplex,Food,Shopping Mall
521,Sector 9 Rohini,North District,110085,77.127455,28.717325,4,Department Store,Pizza Place,Multiplex,Food,Shopping Mall
522,Baldev Park East,East District,110051,77.28896799999998,28.647966,4,Dessert Shop,Arcade,Gym,Fast Food Restaurant,Bakery
523,Sarai Rohilla,Central District,110005,77.182898,28.66302,4,Dessert Shop,Shopping Mall,Light Rail Station,Smoke Shop,Yoga Studio
524,Chitra Vihar,East District,110092,77.285919,28.642648000000005,4,Fast Food Restaurant,Arcade,Pizza Place,Light Rail Station,Dessert Shop
525,Dilshad Colony,Shahdara District,110095,77.326317,28.6884,4,Fast Food Restaurant,Business Service,BBQ Joint,Electronics Store,Video Game Store
526,Dilshad Colony New Simapuri,Shahdara District,110095,77.326317,28.6884,4,Fast Food Restaurant,Business Service,BBQ Joint,Electronics Store,Video Game Store
527,Ramesh Nagar,West District,110015,77.13068100000004,28.649317999999997,4,Fast Food Restaurant,Café,Chinese Restaurant,Light Rail Station,Shopping Mall
528,10 Sector Dwarka,South West District,110075,77.057569,28.590611,4,Fast Food Restaurant,Café,Department Store,Indian Restaurant,Electronics Store
529,Dwarka 10 Sector,South West District,110075,77.057569,28.590611,4,Fast Food Restaurant,Café,Department Store,Indian Restaurant,Electronics Store
530,Dwarka Sec6 Market,South West District,110075,77.057679,28.590629000000003,4,Fast Food Restaurant,Café,Department Store,Indian Restaurant,Electronics Store
531,Rajouri Garden,West District,110027,77.12498199999999,28.643073999999984,4,Fast Food Restaurant,Café,Indian Restaurant,Chinese Restaurant,Diner
532,New Rajendra Nagar,Central District,110060,77.17995999999997,28.636315000000007,4,Fast Food Restaurant,Café,Indian Restaurant,Liquor Store,Spa
533,Janakpuri B1 Market,West District,110058,77.09133300000003,28.62899600000002,4,Fast Food Restaurant,Café,Indian Restaurant,Metro Station,Indian Sweet Shop
534,Sector 4 Dwarka,West District,110078,77.04806800000003,28.602437000000005,4,Fast Food Restaurant,Café,Pizza Place,Department Store,Bank
535,Pocket 2 Sector 6 Dwarka,South West District,110075,77.059791,28.591219999999996,4,Fast Food Restaurant,Coffee Shop,Electronics Store,Indian Restaurant,Restaurant
536,Dwarka Sec 6,South West District,110075,77.06568600000001,28.593060000000005,4,Fast Food Restaurant,Coffee Shop,Gym,Indian Restaurant,Hobby Shop
537,Sector 6 Dwarka,South West District,110075,77.06568600000001,28.593060000000005,4,Fast Food Restaurant,Coffee Shop,Gym,Indian Restaurant,Hobby Shop
538,Moti Nagar,West District,110015,77.13917000000001,28.662193,4,Fast Food Restaurant,Fried Chicken Joint,Vegetarian / Vegan Restaurant,Café,Shopping Mall
539,Punjabi Bagh,West District,110026,77.127874,28.667505000000002,4,Fast Food Restaurant,Garden Center,Donut Shop,Sandwich Place,Bar
540,Dwarka Sector 7,South West District,110075,77.072453,28.593440999999995,4,Fast Food Restaurant,Hobby Shop,Ice Cream Shop,Gym,Yoga Studio
541,Sec 6 Pocket 1,South West District,110075,77.074252,28.594708000000004,4,Fast Food Restaurant,Hobby Shop,Ice Cream Shop,Gym,Yoga Studio
542,Sector 10 Pocket 1,South West District,110075,77.074271,28.594815,4,Fast Food Restaurant,Hobby Shop,Ice Cream Shop,Gym,Yoga Studio
543,Sector 6 Dwarka Palam Vihar,South West District,110075,77.068549,28.594958,4,Fast Food Restaurant,Hobby Shop,Ice Cream Shop,Gym,Yoga Studio
544,Sector 7 Dwarka,South West District,110075,77.072453,28.593440999999995,4,Fast Food Restaurant,Hobby Shop,Ice Cream Shop,Gym,Yoga Studio
545,Sector 7 Dwarka New Delhi,South West District,110075,77.072453,28.593440999999995,4,Fast Food Restaurant,Hobby Shop,Ice Cream Shop,Gym,Yoga Studio
546,Block J,West District,110015,77.14639799999999,28.654793999999995,4,Fast Food Restaurant,Indian Restaurant,Café,Fried Chicken Joint,Sports Bar
547,Preet Vihar,East District,110092,77.29473499999997,28.639118000000007,4,Fast Food Restaurant,Light Rail Station,Pizza Place,Arcade,Yoga Studio
548,Swasthya Vihar,East District,110092,77.28942099999996,28.64082900000001,4,Fast Food Restaurant,Light Rail Station,Pizza Place,Arcade,Yoga Studio
549,Block Gh5,New Delhi District,110077,77.071862,28.572861,4,Fast Food Restaurant,Light Rail Station,Train Station,Vegetarian / Vegan Restaurant,Yoga Studio
550,Abul Fazal Enclave,South East Delhi District,110025,77.30719899999998,28.54637,4,Fast Food Restaurant,Market,Diner,Park,Hotel
551,Kalkaji,South East Delhi District,110019,77.25574699999999,28.541421000000007,4,Fast Food Restaurant,Market,Indian Restaurant,Coffee Shop,Light Rail Station
552,Kalkaji Extension,South East Delhi District,110019,77.25574699999999,28.541421000000007,4,Fast Food Restaurant,Market,Indian Restaurant,Coffee Shop,Light Rail Station
553,Kalkaji Flyover,South East Delhi District,110019,77.25574699999999,28.541421000000007,4,Fast Food Restaurant,Market,Indian Restaurant,Coffee Shop,Light Rail Station
554,Kalkaji Main,South East Delhi District,110019,77.25574699999999,28.541421000000007,4,Fast Food Restaurant,Market,Indian Restaurant,Coffee Shop,Light Rail Station
555,Govind Puri,South East Delhi District,110019,77.26403900000001,28.535546000000004,4,Fast Food Restaurant,Pizza Place,Food Truck,Convenience Store,Gym
556,Govindpuri,South East Delhi District,110019,77.26403900000001,28.535546000000004,4,Fast Food Restaurant,Pizza Place,Food Truck,Convenience Store,Gym
557,Kalkaji Govindpuri,South East Delhi District,110019,77.26403900000001,28.535546000000004,4,Fast Food Restaurant,Pizza Place,Food Truck,Convenience Store,Gym
558,Madhu Vihar,South West District,110059,77.059258,28.601680999999992,4,Fast Food Restaurant,Pizza Place,Indian Restaurant,Chinese Restaurant,Restaurant
559,Bali Nagar,West District,110015,77.12891799999996,28.65391499999999,4,Fast Food Restaurant,Pizza Place,Light Rail Station,Shopping Mall,Café
560,Kundli,North West District,110034,77.12015700000002,28.698010000000007,4,Fast Food Restaurant,Pizza Place,Shopping Mall,Sandwich Place,Clothing Store
561,Gagan Vihar,East District,110051,77.292236,28.644681999999992,4,Fast Food Restaurant,Pizza Place,Yoga Studio,Arcade,Shopping Mall
562,Sector-7 Rohini,North West District,110085,77.118426,28.70892400000001,4,Fast Food Restaurant,Shopping Mall,Indian Restaurant,Department Store,Food Truck
563,Naharpur Village,North West District,110085,77.11512400000001,28.703462,4,Fast Food Restaurant,Shopping Mall,Pizza Place,Restaurant,Indian Restaurant
564,Saraswati Vihar,North West District,110034,77.12460999999999,28.69681500000001,4,Fast Food Restaurant,Shopping Mall,Pizza Place,Restaurant,Indian Restaurant
565,E Block Preet Vihar,East District,110092,77.29774299999998,28.638922999999995,4,Fast Food Restaurant,Yoga Studio,Arcade,Pizza Place,Chinese Restaurant
566,Raju Park,South West District,110078,77.030927,28.60992,4,Fried Chicken Joint,Grocery Store,Clothing Store,Fast Food Restaurant,Metro Station
567,Bharat Vihar,South West District,110078,77.029196,28.607385,4,Fried Chicken Joint,Grocery Store,Light Rail Station,Fast Food Restaurant,Yoga Studio
568,Kirti Nagar,West District,110015,77.142426,28.650520000000007,4,Furniture / Home Store,Donut Shop,Fried Chicken Joint,Sports Bar,Fast Food Restaurant
569,Budh Nagar,New Delhi District,110012,77.142724,28.635105000000003,4,Hotel,Arcade,Multiplex,Indian Restaurant,Sandwich Place
570,Inderpuri,New Delhi District,110012,77.147498,28.631922,4,Hotel,Arcade,Multiplex,Indian Restaurant,Sandwich Place
571,Dwarka Sec 21,New Delhi District,110077,77.0688,28.558233,4,Hotel,Food,Bar,Light Rail Station,Pizza Place
572,Sector 21,New Delhi District,110077,77.0688,28.558233,4,Hotel,Food,Bar,Light Rail Station,Pizza Place
573,Sector 21 Dwarka,New Delhi District,110077,77.067198,28.557639999999996,4,Hotel,Food,Bar,Light Rail Station,Pizza Place
574,Sector 21 Dwarka New Delhi,New Delhi District,110077,77.067198,28.557639999999996,4,Hotel,Food,Bar,Light Rail Station,Pizza Place
575,New Kondli,East District,110096,77.330756,28.606115,4,Hotel,Pizza Place,Market,Convenience Store,Fast Food Restaurant
576,Dwarka Sector 12,South West District,110078,77.042238,28.59467199999999,4,Indian Restaurant,Café,Pizza Place,Fast Food Restaurant,Market
577,Sector 12 Dwarka,South West District,110078,77.042238,28.59467199999999,4,Indian Restaurant,Café,Pizza Place,Fast Food Restaurant,Market
578,Sector 12 Dwarka New Delhi,South West District,110078,77.042238,28.59467199999999,4,Indian Restaurant,Café,Pizza Place,Fast Food Restaurant,Market
579,South Extension 2,South East Delhi District,110049,77.22091500000003,28.566668000000007,4,Indian Restaurant,Coffee Shop,Fast Food Restaurant,Pizza Place,Clothing Store
580,Dwarka 11 Sector,South West District,110075,77.05004699999998,28.589461000000014,4,Indian Restaurant,Fast Food Restaurant,Café,Pizza Place,Department Store
581,Sector 11 Dwarka,South West District,110075,77.05004699999998,28.589461000000014,4,Indian Restaurant,Fast Food Restaurant,Café,Pizza Place,Department Store
582,Dwarka Sector 13,South West District,110078,77.03614600000002,28.599382999999992,4,Indian Restaurant,Fast Food Restaurant,Fried Chicken Joint,Light Rail Station,Bakery
583,Sector 13 Dwarka,South West District,110078,77.03614600000002,28.599382999999992,4,Indian Restaurant,Fast Food Restaurant,Fried Chicken Joint,Light Rail Station,Bakery
584,Sector-8 Rohini,North West District,110085,77.12457500000002,28.703194999999997,4,Indian Restaurant,Fast Food Restaurant,Shopping Mall,Pizza Place,Sandwich Place
585,Fateh Nagar,West District,110018,77.10161200000002,28.630859999999988,4,Indian Restaurant,Ice Cream Shop,Indian Sweet Shop,Metro Station,Fried Chicken Joint
586,Sandesh Vihar,North West District,110034,77.14199800000003,28.69136300000001,4,Indian Restaurant,Multiplex,Coffee Shop,Fast Food Restaurant,Pizza Place
587,Sector 3 Rohini,North West District,110085,77.10831099999999,28.702530000000003,4,Indian Restaurant,Multiplex,Pizza Place,Food Truck,Sandwich Place
588,Ranjeet Nagar,West District,110008,77.16948499999997,28.64345000000002,4,Indian Restaurant,Pizza Place,Fast Food Restaurant,Hotel,Park
589,East Patel Nagar,West District,110005,77.17400100000003,28.64771499999999,4,Indian Restaurant,Pizza Place,Hotel,Fast Food Restaurant,Park
590,Dwarka Sector 12 Pocket 6,South West District,110078,77.04464699999997,28.592126000000004,4,Indian Restaurant,Restaurant,Shopping Mall,Café,Pizza Place
591,Pocket 7 Dwarka Sector 12,South West District,110078,77.04370100000004,28.591314000000008,4,Indian Restaurant,Shopping Mall,Café,Pizza Place,Clothing Store
592,Netaji Subhash Place,North West District,110034,77.14947699999999,28.692377000000004,4,Indian Restaurant,Shopping Mall,Pizza Place,Fast Food Restaurant,Coffee Shop
593,Block Sd Delhi,North West District,110034,77.14598100000003,28.696568,4,Indian Restaurant,Shopping Mall,Snack Place,Pizza Place,Fast Food Restaurant
594,Sector 15A,Central District,110054,77.22355800000001,28.675371999999996,4,Lake,Hotel,Chinese Restaurant,Fast Food Restaurant,Flea Market
595,Sector 14 Dwarka,South West District,110078,77.027647,28.601374,4,Light Rail Station,Fried Chicken Joint,Café,Shopping Mall,Bakery
596,Shyam Vihar Phase1,South West District,110078,77.02922,28.606015000000003,4,Light Rail Station,Fried Chicken Joint,Fast Food Restaurant,Discount Store,Grocery Store
597,Sudarshan Park,West District,110015,77.132877,28.66009400000001,4,Light Rail Station,Indian Restaurant,Flea Market,Shoe Store,Multiplex
598,Sector 22 Dwarka,New Delhi District,110077,77.059501,28.560631,4,Light Rail Station,Shopping Mall,Pizza Place,Platform,Hotel
599,Ghitorni,New Delhi District,110030,77.131536,28.500863,4,Lighting Store,Shopping Mall,Yoga Studio,Fabric Shop,Fried Chicken Joint
600,New Pragatesheel Apartment,East District,110096,77.320745,28.600928,4,Market,Stadium,Gym,Pizza Place,Bakery
601,Paryatan Vihar,East District,110096,77.313833,28.600932,4,Market,Stadium,Gym,Pizza Place,Bakery
602,Vasundhara Enclave,East District,110096,77.321231,28.601260000000003,4,Market,Stadium,Gym,Pizza Place,Bakery
603,Bhagwati Garden,West District,110059,77.033078,28.621219,4,Metro Station,Asian Restaurant,Light Rail Station,Pizza Place,Yoga Studio
604,Bhagwati Garden Extension,West District,110059,77.030035,28.625185,4,Metro Station,Asian Restaurant,Light Rail Station,Pizza Place,Yoga Studio
605,Dwarka Mor,South West District,110059,77.031514,28.618973,4,Metro Station,Asian Restaurant,Light Rail Station,Pizza Place,Yoga Studio
606,Dwarka More,South West District,110059,77.031514,28.618973,4,Metro Station,Asian Restaurant,Light Rail Station,Pizza Place,Yoga Studio
607,Dwarka Sector 15,South West District,110078,77.023576,28.606782,4,Metro Station,Fast Food Restaurant,Diner,Light Rail Station,Food
608,Suraj Vihar,South West District,110078,77.03220599999999,28.612379,4,Metro Station,Grocery Store,Fast Food Restaurant,Clothing Store,Light Rail Station
609,Sector 18,North District,110089,77.137224,28.740602,4,Metro Station,Pizza Place,Electronics Store,Yoga Studio,Falafel Restaurant
610,Sector 18 Rohini,North District,110089,77.137224,28.740602,4,Metro Station,Pizza Place,Electronics Store,Yoga Studio,Falafel Restaurant
611,Sector-18 Rohini,North District,110089,77.137224,28.740602,4,Metro Station,Pizza Place,Electronics Store,Yoga Studio,Falafel Restaurant
612,Kakrola,South West District,110078,77.018272,28.608126,4,Metro Station,Shopping Mall,Light Rail Station,Leather Goods Store,Flea Market
613,Geeta Colony,Shahdara District,110031,77.27594699999999,28.652544000000002,4,Pizza Place,ATM,Dessert Shop,Snack Place,Burger Joint
614,Chirag Delhi,South District,110017,77.228025,28.538589,4,Pizza Place,Café,Men's Store,Trail,Fast Food Restaurant
615,Chirag Dilli,South District,110017,77.228025,28.538589,4,Pizza Place,Café,Men's Store,Trail,Fast Food Restaurant
616,Nawada Sainik Nagar,West District,110059,77.041746,28.616509,4,Pizza Place,Clothing Store,Light Rail Station,Café,Flower Shop
617,Dilshad Garden,Shahdara District,110095,77.319274,28.682157,4,Pizza Place,Diner,Light Rail Station,Metro Station,Indian Restaurant
618,Mayur Vihar Pocket F,Shahdara District,110095,77.317982,28.680359,4,Pizza Place,Diner,Light Rail Station,Metro Station,Indian Restaurant
619,Sector 15 Rohini,North District,110089,77.127145,28.732456,4,Pizza Place,Electronics Store,Clothing Store,Bakery,Food
620,Sector 5 Dwarka,South West District,110075,77.05733699999999,28.597719999999995,4,Pizza Place,Fast Food Restaurant,Café,Department Store,Bank
621,Sector-16 Dwarka,South West District,110075,77.05733699999999,28.597719999999995,4,Pizza Place,Fast Food Restaurant,Café,Department Store,Bank
622,Derawal Nagar,North District,110009,77.190193,28.699641999999994,4,Pizza Place,Food Truck,Coffee Shop,Bakery,Bank
623,Chandra Park,South West District,110078,77.032639,28.610899,4,Pizza Place,Fried Chicken Joint,Fast Food Restaurant,Grocery Store,Clothing Store
624,Krishna Nagar,Shahdara District,110051,77.283538,28.65846,4,Pizza Place,Ice Cream Shop,Bakery,Yoga Studio,Farmers Market
625,New Krishna Nagar,Shahdara District,110051,77.283538,28.65846,4,Pizza Place,Ice Cream Shop,Bakery,Yoga Studio,Farmers Market
626,Ram Nagar Extension,Shahdara District,110051,77.282714,28.654776,4,Pizza Place,Ice Cream Shop,Bakery,Yoga Studio,Farmers Market
627,Rama Park,West District,110059,77.03490599999999,28.621244,4,Pizza Place,Indian Restaurant,Fast Food Restaurant,Motorcycle Shop,Mobile Phone Shop
628,Sewak Park,West District,110059,77.033562,28.617788,4,Pizza Place,Indian Restaurant,Fast Food Restaurant,Motorcycle Shop,Mobile Phone Shop
629,Mandawali,East District,110092,77.291411,28.630237000000008,4,Pizza Place,Indian Restaurant,Light Rail Station,Snack Place,Food
630,Mansa Ram Park,West District,110059,77.039019,28.617651,4,Pizza Place,Light Rail Station,Indian Restaurant,Fast Food Restaurant,IT Services
631,Mansa Ram Park Park Path,West District,110059,77.039019,28.617651,4,Pizza Place,Light Rail Station,Indian Restaurant,Fast Food Restaurant,IT Services
632,Sainik Nagar Mansa Ram Park,West District,110059,77.039019,28.617651,4,Pizza Place,Light Rail Station,Indian Restaurant,Fast Food Restaurant,IT Services
633,Dwarka Sector 25,South West District,110077,77.054558,28.555590999999996,4,Pizza Place,Light Rail Station,Shopping Mall,Platform,Hotel
634,Sector 25 Dwarka,South West District,110077,77.054558,28.555590999999996,4,Pizza Place,Light Rail Station,Shopping Mall,Platform,Hotel
635,Rohini Sector 16,North District,110089,77.122823,28.735915,4,Pizza Place,Multiplex,Clothing Store,Yoga Studio,Falafel Restaurant
636,Deepali,North West District,110034,77.11849400000001,28.69469400000001,4,Pizza Place,Shopping Mall,Fast Food Restaurant,Multiplex,Sandwich Place
637,Dwarka Sec 23,South West District,110077,77.055135,28.566949,4,Pizza Place,Shopping Mall,Park,Bed & Breakfast,Yoga Studio
638,Dwarka Sec3,New Delhi District,110077,77.055066,28.56448,4,Pizza Place,Shopping Mall,Yoga Studio,Fabric Shop,Fried Chicken Joint
639,Dwarka Sector 23 Pocket 1,New Delhi District,110077,77.055066,28.56448,4,Pizza Place,Shopping Mall,Yoga Studio,Fabric Shop,Fried Chicken Joint
640,Sector 23 Dwarka,New Delhi District,110077,77.055066,28.56448,4,Pizza Place,Shopping Mall,Yoga Studio,Fabric Shop,Fried Chicken Joint
641,Shastri Nagar,Central District,110052,77.17969900000001,28.673383,4,Pizza Place,Train Station,Indian Restaurant,Fast Food Restaurant,Snack Place
642,Govindpuri Extension New Delhi,South East Delhi District,110019,77.258786,28.534116999999995,4,Restaurant,Indian Restaurant,Fast Food Restaurant,Market,Food & Drink Shop
643,Sector 10,North District,110085,77.11444700000001,28.725049000000006,4,Shopping Mall,Clothing Store,Park,Hotel,Asian Restaurant
644,Laxmi Nagar,East District,110092,77.28320800000003,28.635201999999996,4,Shopping Mall,Dessert Shop,Arcade,Fast Food Restaurant,Gym
645,Pochanpur Colony,South West District,110077,77.047446,28.561103,4,Shopping Mall,Farm,Park,Bed & Breakfast,Pizza Place
646,Krishan Kunj,North East District,110053,77.278916,28.700958,4,Weight Loss Center,Pizza Place,Yoga Studio,Fabric Shop,Fried Chicken Joint
